{"type": "Feature", "properties": {"market_key": 100, "university": "North Carolina State University", "osm_type": "relation", "osm_id": 6431764, "osm_name": "North Carolina State University"}, "geometry": {"type": "MultiPolygon", "coordinates": [[[[-78.700382, 35.7948537], [-78.6969032, 35.7948245], [-78.6961307, 35.7947984], [-78.6958534, 35.7947634], [-78.695967, 35.7943073], [-78.6960729, 35.7940061], [-78.6962262, 35.7934361], [-78.6962871, 35.7931045], [-78.6977566, 35.7886179], [-78.6979887, 35.788765], [-78.6986034, 35.7888455], [-78.6987888, 35.7882852], [-78.6979788, 35.7880734], [-78.6985367, 35.7870116], [-78.6989766, 35.7864372], [-78.6995666, 35.7858715], [-78.6995854, 35.7880803], [-78.701133, 35.7881256], [-78.7005832, 35.7897252], [-78.700421, 35.7938586], [-78.700382, 35.7948537]]], [[[-78.6993091, 35.7959841], [-78.6981048, 35.796008], [-78.6972036, 35.7960254], [-78.6968415, 35.796045], [-78.6967642, 35.7961705], [-78.6967432, 35.7963913], [-78.696638, 35.7967323], [-78.6964083, 35.7969493], [-78.6960513, 35.7971567], [-78.6955386, 35.7974712], [-78.695135, 35.797756], [-78.6949058, 35.7981274], [-78.6947798, 35.798478], [-78.6943738, 35.7999722], [-78.6942784, 35.8004519], [-78.6942331, 35.8009334], [-78.6942679, 35.8012792], [-78.6943927, 35.8016555], [-78.6948218, 35.8020819], [-78.6952751, 35.8023712], [-78.6963802, 35.8029804], [-78.696989, 35.8032392], [-78.6975469, 35.8033523], [-78.6984911, 35.8034568], [-78.6993521, 35.8035111], [-78.7007227, 35.803509], [-78.7031474, 35.8034829], [-78.7038126, 35.8034307], [-78.7069052, 35.8027802], [-78.706961, 35.8024387], [-78.7059718, 35.8024148], [-78.7059762, 35.8017633], [-78.704875, 35.8017464], [-78.7042122, 35.8017099], [-78.7042271, 35.8009396], [-78.7043002, 35.8009409], [-78.7044564, 35.8009438], [-78.7061395, 35.8009747], [-78.7071784, 35.8009957], [-78.7072201, 35.8009965], [-78.7073987, 35.7991964], [-78.7056901, 35.7990972], [-78.7057679, 35.7979421], [-78.7074952, 35.7980117], [-78.7075039, 35.7978991], [-78.7075489, 35.7973155], [-78.7070039, 35.7972872], [-78.7070768, 35.7967151], [-78.7073901, 35.7966085], [-78.7062507, 35.7947919], [-78.7061434, 35.7947223], [-78.7059932, 35.7947136], [-78.7044483, 35.7951748], [-78.7036114, 35.7953662], [-78.7027397, 35.795512], [-78.7000387, 35.7959145], [-78.6993091, 35.7959841]]], [[[-78.7111774, 35.8025344], [-78.7111216, 35.8039027], [-78.7156706, 35.8047119], [-78.7183206, 35.8053036], [-78.7210479, 35.8061193], [-78.7228396, 35.8065631], [-78.7232344, 35.8066088], [-78.7235563, 35.806574], [-78.7238245, 35.8064522], [-78.7250691, 35.8054341], [-78.725745, 35.8047989], [-78.726142, 35.8042421], [-78.726305, 35.8037787], [-78.7263995, 35.8030413], [-78.7265067, 35.8015794], [-78.7266269, 35.8008637], [-78.7268179, 35.8002916], [-78.7268179, 35.8001175], [-78.7267535, 35.8000218], [-78.7265625, 35.7998804], [-78.725833, 35.7996716], [-78.7238138, 35.7994301], [-78.7182134, 35.7989776], [-78.7147769, 35.7987755], [-78.7146321, 35.8026649], [-78.7111774, 35.8025344]]], [[[-78.6868747, 35.7870642], [-78.6940229, 35.7871589], [-78.6972028, 35.7872013], [-78.6973632, 35.7872034], [-78.6966902, 35.7892242], [-78.6939089, 35.7891353], [-78.6864722, 35.7889494], [-78.6861724, 35.7889423], [-78.6861441, 35.7889386], [-78.6861056, 35.7889821], [-78.6860405, 35.7890329], [-78.685991, 35.7890837], [-78.6853727, 35.7896542], [-78.684892, 35.7909492], [-78.6827977, 35.7897238], [-78.6815839, 35.7891399], [-78.6804442, 35.7886224], [-78.6793441, 35.788193], [-78.6771623, 35.7873854], [-78.6766044, 35.7882905], [-78.6759621, 35.7880646], [-78.6745582, 35.7876937], [-78.6745502, 35.7879101], [-78.6745468, 35.7881909], [-78.6745375, 35.7884908], [-78.674508, 35.7887131], [-78.6744172, 35.7890794], [-78.6743498, 35.7890657], [-78.674267, 35.789936], [-78.6740164, 35.789889], [-78.6740473, 35.7890003], [-78.6732727, 35.7888339], [-78.6730783, 35.7887921], [-78.6730075, 35.789532], [-78.6725772, 35.7894571], [-78.6726312, 35.7892691], [-78.6719879, 35.7891486], [-78.6721657, 35.7885823], [-78.6709526, 35.7883225], [-78.6707919, 35.7889054], [-78.6711674, 35.7889996], [-78.6710537, 35.7894358], [-78.6703949, 35.7892927], [-78.6705285, 35.7888664], [-78.6702399, 35.7887864], [-78.67041, 35.7882133], [-78.6697343, 35.7880738], [-78.6679713, 35.787673], [-78.6659028, 35.787109], [-78.6657054, 35.7876382], [-78.6657089, 35.7878019], [-78.6649459, 35.7877788], [-78.6649585, 35.787505], [-78.6640349, 35.7875158], [-78.6641347, 35.7866144], [-78.6632097, 35.7863385], [-78.6631074, 35.7862814], [-78.6628744, 35.786197], [-78.6628124, 35.7861576], [-78.6627977, 35.7861335], [-78.6627893, 35.7861046], [-78.662792, 35.7860752], [-78.6628074, 35.7860494], [-78.6628543, 35.7859903], [-78.6630622, 35.7858421], [-78.6632818, 35.7856639], [-78.6633522, 35.7855823], [-78.6634059, 35.7855048], [-78.6635668, 35.7851715], [-78.6636473, 35.7850206], [-78.6636959, 35.7849594], [-78.6638284, 35.7848669], [-78.6639475, 35.7847898], [-78.6640352, 35.7847419], [-78.6644955, 35.7844268], [-78.6645895, 35.7843446], [-78.6646851, 35.7842412], [-78.6648628, 35.7839992], [-78.6651646, 35.7834415], [-78.6657365, 35.782346], [-78.6659559, 35.7819257], [-78.6660999, 35.7817867], [-78.6662986, 35.7816756], [-78.6666009, 35.7815411], [-78.6667828, 35.7814602], [-78.666873, 35.7814128], [-78.6670203, 35.7812819], [-78.6671313, 35.7810498], [-78.6671412, 35.7810024], [-78.6671926, 35.7807565], [-78.6672885, 35.7798774], [-78.6672988, 35.7795572], [-78.670481, 35.7797184], [-78.6710817, 35.7798095], [-78.6715368, 35.7798785], [-78.6751055, 35.7808101], [-78.6755725, 35.780987], [-78.675754, 35.780641], [-78.6783504, 35.777451], [-78.6788117, 35.779174], [-78.6800884, 35.7790395], [-78.679906, 35.7781343], [-78.6795545, 35.7770342], [-78.679348, 35.7765438], [-78.6792514, 35.7762195], [-78.6791584, 35.7758651], [-78.6755341, 35.7764851], [-78.6745041, 35.7765129], [-78.6744698, 35.7769447], [-78.6728562, 35.7765668], [-78.6721772, 35.7763651], [-78.6710795, 35.7760255], [-78.6706074, 35.7758444], [-78.6701624, 35.7762212], [-78.6687247, 35.7762714], [-78.668029, 35.7763669], [-78.6671803, 35.776593], [-78.6670439, 35.7765411], [-78.6668584, 35.7765588], [-78.6666653, 35.7767157], [-78.6664994, 35.7768447], [-78.6652859, 35.777265], [-78.6651915, 35.7764642], [-78.6632977, 35.7762759], [-78.6628531, 35.7760902], [-78.6638208, 35.7740629], [-78.6655759, 35.7746125], [-78.6652514, 35.7729468], [-78.6664832, 35.773179], [-78.6656515, 35.7715119], [-78.665083, 35.7703081], [-78.6664079, 35.7698001], [-78.6666078, 35.7696054], [-78.6666624, 35.7687942], [-78.6663109, 35.7683432], [-78.6643847, 35.765872], [-78.6640671, 35.7651914], [-78.6640435, 35.7649198], [-78.6642661, 35.7646308], [-78.665243, 35.7641449], [-78.6657788, 35.7633336], [-78.6658588, 35.762884], [-78.6658894, 35.7625088], [-78.6661275, 35.7619956], [-78.6652682, 35.7615516], [-78.6647709, 35.7614105], [-78.6642478, 35.7613335], [-78.663433, 35.7613944], [-78.6626391, 35.7614741], [-78.6622753, 35.7614649], [-78.661835, 35.7613561], [-78.6617062, 35.7613243], [-78.6612309, 35.7610113], [-78.6630286, 35.7598128], [-78.6645735, 35.7585034], [-78.6664618, 35.7587541], [-78.6674746, 35.7584198], [-78.6688822, 35.7576675], [-78.6701096, 35.7572705], [-78.6924685, 35.7526525], [-78.694516, 35.7523309], [-78.6944179, 35.7536984], [-78.6942559, 35.7541677], [-78.6935912, 35.7540114], [-78.6915587, 35.7566334], [-78.6890916, 35.7596931], [-78.6890255, 35.7596976], [-78.6889764, 35.7667016], [-78.688975, 35.7668013], [-78.688943, 35.7691417], [-78.6889451, 35.769396], [-78.6824139, 35.7693509], [-78.6823458, 35.7721874], [-78.6815545, 35.772217], [-78.6813265, 35.774428], [-78.6813598, 35.7746695], [-78.6815443, 35.7748362], [-78.6810825, 35.7752288], [-78.6805663, 35.7755395], [-78.6809575, 35.7756705], [-78.6818158, 35.7760666], [-78.6821591, 35.7762672], [-78.6823898, 35.7764496], [-78.6826097, 35.7766933], [-78.6827599, 35.7768935], [-78.6830442, 35.7773378], [-78.6832373, 35.7776033], [-78.6836665, 35.7783471], [-78.6838328, 35.7787566], [-78.6838811, 35.7789259], [-78.6847716, 35.778778], [-78.6846965, 35.7792523], [-78.6871319, 35.7793398], [-78.6870085, 35.783465], [-78.6869756, 35.7842183], [-78.6869227, 35.7844707], [-78.6869012, 35.7848319], [-78.6869126, 35.7851837], [-78.6868747, 35.7870642]], [[-78.6791259, 35.7815844], [-78.6789306, 35.7819117], [-78.6788367, 35.781976], [-78.678804, 35.7819627], [-78.6783918, 35.7817945], [-78.6775384, 35.7814417], [-78.6765642, 35.7810233], [-78.6764977, 35.7809973], [-78.6760763, 35.7808243], [-78.6762977, 35.7804874], [-78.6767676, 35.7806894], [-78.6772839, 35.7799016], [-78.6782504, 35.7802968], [-78.6792769, 35.7800792], [-78.6799058, 35.7803607], [-78.6791259, 35.7815844]]]]}}