{"type": "Feature", "properties": {"market_key": 1002, "university": "Texas Tech University", "osm_type": "way", "osm_id": 460896580, "osm_name": "Texas Tech University"}, "geometry": {"type": "Polygon", "coordinates": [[[-101.89578, 33.5798757], [-101.8958437, 33.5798171], [-101.895904, 33.5797573], [-101.8959637, 33.5796914], [-101.8960395, 33.5795964], [-101.8960837, 33.5795322], [-101.8961354, 33.5794506], [-101.8961702, 33.5793892], [-101.8961991, 33.5793339], [-101.8962413, 33.5792456], [-101.8962836, 33.5791383], [-101.8963131, 33.5790439], [-101.8963379, 33.5789361], [-101.8963493, 33.5788512], [-101.8963573, 33.5787746], [-101.8963667, 33.5786981], [-101.8963674, 33.5782294], [-101.8963614, 33.5782031], [-101.8963433, 33.578173], [-101.8963151, 33.5781462], [-101.8962883, 33.5781305], [-101.8962554, 33.5781177], [-101.8962333, 33.5781126], [-101.8961937, 33.5781104], [-101.8954682, 33.5781082], [-101.8953756, 33.5781031], [-101.8951296, 33.5780802], [-101.8950846, 33.578078], [-101.8925553, 33.5780763], [-101.8925191, 33.5780808], [-101.8924903, 33.5780903], [-101.8924634, 33.5781076], [-101.8924494, 33.5781216], [-101.8924306, 33.578145], [-101.8924232, 33.5781724], [-101.8924212, 33.5782065], [-101.8924205, 33.5782327], [-101.8923367, 33.5782327], [-101.892336, 33.5782043], [-101.8923313, 33.5781847], [-101.8923193, 33.5781646], [-101.8922978, 33.5781411], [-101.892267, 33.5781227], [-101.8922415, 33.5781171], [-101.8917158, 33.5781154], [-101.8913637, 33.5780758], [-101.8881333, 33.5780766], [-101.8881173, 33.5780816], [-101.8880998, 33.5780939], [-101.8880891, 33.5781079], [-101.8880784, 33.5781258], [-101.888075, 33.5781414], [-101.887737, 33.5781492], [-101.8877243, 33.5781336], [-101.8877055, 33.5781196], [-101.8876814, 33.5781118], [-101.8876573, 33.5781101], [-101.8857378, 33.5781098], [-101.885719, 33.5781149], [-101.8856996, 33.5781255], [-101.8856922, 33.5781322], [-101.8855393, 33.5781322], [-101.8855286, 33.5781221], [-101.8855138, 33.578116], [-101.8854964, 33.5781104], [-101.8848587, 33.5781098], [-101.8847662, 33.578107], [-101.884219, 33.5780791], [-101.8841808, 33.578078], [-101.8830217, 33.5780777], [-101.8829587, 33.5780788], [-101.882437, 33.578109], [-101.8823887, 33.5781107], [-101.8817383, 33.5781101], [-101.8815378, 33.5781157], [-101.8805481, 33.578109], [-101.8800049, 33.5780777], [-101.8798721, 33.5780777], [-101.8791319, 33.5780788], [-101.8784348, 33.5780763], [-101.8778241, 33.5780773], [-101.877239, 33.57811], [-101.8759851, 33.5781072], [-101.8757605, 33.5780815], [-101.8752857, 33.5780826], [-101.8750933, 33.5780809], [-101.874925, 33.578096], [-101.8746863, 33.5781089], [-101.8709422, 33.5781086], [-101.8709094, 33.5781136], [-101.8708745, 33.5781248], [-101.8708437, 33.5781432], [-101.8708222, 33.5781644], [-101.8708061, 33.578189], [-101.8707954, 33.5782175], [-101.8707907, 33.5782549], [-101.8707957, 33.5786625], [-101.8707391, 33.5789265], [-101.870731, 33.5791103], [-101.8707417, 33.5792957], [-101.8707505, 33.5796309], [-101.8707437, 33.579846], [-101.8707484, 33.5798678], [-101.8707585, 33.5798829], [-101.8707759, 33.5798996], [-101.8707739, 33.5800583], [-101.8707675, 33.5802775], [-101.8707313, 33.5805753], [-101.8707293, 33.5811753], [-101.8707295, 33.5815656], [-101.8707308, 33.5815762], [-101.8707359, 33.5815863], [-101.8707429, 33.5815966], [-101.8707556, 33.5816084], [-101.8707677, 33.5816156], [-101.8707834, 33.5818234], [-101.8707849, 33.5823055], [-101.8707523, 33.5826242], [-101.8707471, 33.582744], [-101.870754, 33.5843372], [-101.8707972, 33.5846248], [-101.8707928, 33.5849219], [-101.870766, 33.5851432], [-101.8707628, 33.5851821], [-101.8707557, 33.585229], [-101.8707574, 33.5857404], [-101.8707307, 33.5861277], [-101.8707243, 33.5862413], [-101.8707267, 33.5864347], [-101.8707251, 33.5873914], [-101.8707234, 33.5874464], [-101.8707402, 33.58759], [-101.8707715, 33.5878763], [-101.8707728, 33.5881336], [-101.8707741, 33.5881761], [-101.8708161, 33.5883973], [-101.8708161, 33.5886357], [-101.8708, 33.5887725], [-101.8707735, 33.5890656], [-101.8707688, 33.5899916], [-101.870776, 33.59004], [-101.870809, 33.5901883], [-101.8708123, 33.5905518], [-101.8708112, 33.5906165], [-101.8707705, 33.5910783], [-101.8707547, 33.5916828], [-101.8707674, 33.592065], [-101.8707746, 33.5920905], [-101.8707855, 33.5921125], [-101.8707954, 33.5921303], [-101.8708095, 33.5921457], [-101.8708383, 33.5921641], [-101.8708658, 33.5921747], [-101.8709027, 33.5921826], [-101.8709288, 33.5921842], [-101.8716966, 33.5921798], [-101.8718059, 33.5921842], [-101.8721217, 33.5922116], [-101.8721854, 33.5922127], [-101.8724697, 33.5922099], [-101.8735218, 33.5922066], [-101.8738025, 33.5922063], [-101.8740673, 33.5922041], [-101.8742625, 33.5921963], [-101.8744395, 33.5921868], [-101.8745615, 33.5921711], [-101.874692, 33.5921502], [-101.8748663, 33.5921172], [-101.8749595, 33.592096], [-101.8750762, 33.5920658], [-101.8751667, 33.592039], [-101.8752512, 33.5920133], [-101.8753364, 33.5919826], [-101.8754363, 33.5919457], [-101.8755315, 33.5919094], [-101.8756421, 33.5918647], [-101.8758044, 33.5918011], [-101.8760921, 33.5916888], [-101.8764401, 33.5915519], [-101.8767147, 33.5914461], [-101.8769722, 33.5913461], [-101.87718, 33.5912634], [-101.8774315, 33.5911646], [-101.877583, 33.5911026], [-101.8777286, 33.5910417], [-101.8784253, 33.5918327], [-101.8790368, 33.592003], [-101.8792487, 33.5920511], [-101.8794753, 33.5920913], [-101.8797315, 33.5921159], [-101.8800735, 33.5921315], [-101.8805053, 33.5921494], [-101.8806609, 33.5921673], [-101.8810055, 33.592203], [-101.8820208, 33.5922064], [-101.882989, 33.5922075], [-101.8832734, 33.5922053], [-101.8836488, 33.5922027], [-101.8847959, 33.5922066], [-101.8859864, 33.5922108], [-101.8875743, 33.592208], [-101.8876038, 33.5922047], [-101.8876319, 33.5921958], [-101.8876547, 33.5921812], [-101.8880571, 33.5924907], [-101.888037, 33.5925164], [-101.8880276, 33.5925409], [-101.8880222, 33.5925658], [-101.8880182, 33.5926116], [-101.8880168, 33.5934891], [-101.8880195, 33.5952851], [-101.8880128, 33.5958574], [-101.8879977, 33.5961416], [-101.8879287, 33.5972749], [-101.887926, 33.5973989], [-101.8879246, 33.5977111], [-101.887922, 33.6026869], [-101.887926, 33.6028321], [-101.887938, 33.603404], [-101.8879474, 33.6038363], [-101.8879649, 33.6048751], [-101.8879676, 33.6050873], [-101.8879689, 33.6055698], [-101.8879676, 33.6063372], [-101.8879689, 33.6066904], [-101.8879729, 33.6067105], [-101.8879816, 33.6067262], [-101.887995, 33.6067384], [-101.8880091, 33.6067474], [-101.8880313, 33.6067558], [-101.8880527, 33.6067591], [-101.8881057, 33.6067625], [-101.8882814, 33.6067653], [-101.8884557, 33.6068228], [-101.8884913, 33.6068317], [-101.8886656, 33.606839], [-101.8888922, 33.606839], [-101.8911748, 33.6068401], [-101.8914779, 33.6068312], [-101.8914806, 33.6069931], [-101.8914766, 33.608974], [-101.8935097, 33.608974], [-101.8935124, 33.6068043], [-101.8953309, 33.6068071], [-101.8968597, 33.6068083], [-101.8994306, 33.6068122], [-101.9005035, 33.6068155], [-101.9037141, 33.6068127], [-101.9039797, 33.6068083], [-101.9042398, 33.6067982], [-101.9043096, 33.6067859], [-101.90439, 33.606758], [-101.9049734, 33.6067569], [-101.9065439, 33.6067479], [-101.9075846, 33.6067457], [-101.9079306, 33.606739], [-101.9081103, 33.6067088], [-101.908927, 33.6067055], [-101.9112612, 33.6067035], [-101.9112578, 33.6066304], [-101.9112444, 33.6061797], [-101.9112391, 33.6045199], [-101.910714, 33.6039164], [-101.9112008, 33.6036087], [-101.9111901, 33.6035584], [-101.9111845, 33.5981164], [-101.9111688, 33.5940071], [-101.9111789, 33.593498], [-101.9111988, 33.5924949], [-101.9111995, 33.5924593], [-101.9093246, 33.5924616], [-101.9053577, 33.5924588], [-101.9053147, 33.5924677], [-101.9052839, 33.59249], [-101.9049191, 33.5921806], [-101.9049446, 33.5921549], [-101.904954, 33.5921225], [-101.9049567, 33.5920834], [-101.9049607, 33.5920309], [-101.904962, 33.5915458], [-101.9050016, 33.5909559], [-101.9050056, 33.5903532], [-101.9050043, 33.589512], [-101.9050056, 33.5886462], [-101.9050083, 33.5879502], [-101.905011, 33.5873056], [-101.9050123, 33.5861359], [-101.905011, 33.5850069], [-101.9029859, 33.5850119], [-101.9029779, 33.5850555], [-101.9029001, 33.5851773], [-101.9012505, 33.5851795], [-101.901162, 33.5850063], [-101.9004338, 33.5850041], [-101.9004311, 33.5820719], [-101.8997371, 33.5820638], [-101.899729, 33.5820554], [-101.8992053, 33.5820565], [-101.8982357, 33.5820465], [-101.8970207, 33.5820375], [-101.8964561, 33.5820297], [-101.8964413, 33.5805884], [-101.89578, 33.5798757]]]}}