{"type": "Feature", "properties": {"market_key": 1005, "university": "University of Arizona", "osm_type": "relation", "osm_id": 6044244, "osm_name": "University of Arizona"}, "geometry": {"type": "MultiPolygon", "coordinates": [[[[-110.9496742, 32.2385979], [-110.9512462, 32.2386307], [-110.951263, 32.23863], [-110.9523329, 32.2386282], [-110.9523645, 32.2386281], [-110.9524623, 32.2386279], [-110.9525668, 32.2386266], [-110.9526128, 32.238626], [-110.9537984, 32.2386109], [-110.9546561, 32.2386096], [-110.9547733, 32.2386105], [-110.9552866, 32.2386087], [-110.9560353, 32.2386052], [-110.9561795, 32.2386046], [-110.9566951, 32.2386022], [-110.9567872, 32.2386018], [-110.9567843, 32.2384236], [-110.9567833, 32.2380349], [-110.9567831, 32.237964], [-110.9567795, 32.2375234], [-110.9567798, 32.237467], [-110.9567789, 32.2372961], [-110.9567783, 32.2372171], [-110.9567795, 32.2370432], [-110.9567794, 32.2369114], [-110.9567794, 32.2368766], [-110.9567799, 32.2366044], [-110.9567805, 32.2363534], [-110.9567788, 32.236247], [-110.9567793, 32.2362199], [-110.956781, 32.2361171], [-110.956782, 32.2359495], [-110.956782, 32.2358384], [-110.9567818, 32.2358033], [-110.956782, 32.2355937], [-110.956782, 32.2355587], [-110.9567821, 32.2354759], [-110.9567821, 32.2354432], [-110.95678, 32.2348264], [-110.9567789, 32.2347171], [-110.9567776, 32.2345408], [-110.9567744, 32.2344057], [-110.9567731, 32.234335], [-110.956773, 32.2342203], [-110.956773, 32.2339249], [-110.956773, 32.2338607], [-110.9567924, 32.2337368], [-110.9568011, 32.2336692], [-110.9568071, 32.2336075], [-110.9567989, 32.2333136], [-110.9567855, 32.2330803], [-110.9567836, 32.2330041], [-110.9567834, 32.2329866], [-110.9567852, 32.2329436], [-110.9567777, 32.2318582], [-110.9567741, 32.231809], [-110.9567739, 32.2318063], [-110.956766, 32.2316947], [-110.9567604, 32.2312796], [-110.9566986, 32.2311945], [-110.9566986, 32.2304726], [-110.9566985, 32.2304487], [-110.9566815, 32.2303891], [-110.9567649, 32.230367], [-110.9568363, 32.2303675], [-110.9568788, 32.2303685], [-110.9568876, 32.2303687], [-110.9576042, 32.2303744], [-110.9579147, 32.2303751], [-110.9579118, 32.2306758], [-110.9579179, 32.2309321], [-110.9579156, 32.2310306], [-110.9580173, 32.2310333], [-110.958806, 32.2310376], [-110.9587871, 32.2309978], [-110.9588006, 32.2304832], [-110.9588071, 32.2303052], [-110.9592796, 32.2302994], [-110.959368, 32.2302983], [-110.9593594, 32.2291294], [-110.9593583, 32.229059], [-110.9593633, 32.2284875], [-110.959368, 32.2278442], [-110.9563675, 32.2278987], [-110.9509, 32.2279227], [-110.9482497, 32.2279242], [-110.9479055, 32.2279626], [-110.9460774, 32.2279181], [-110.9440472, 32.2279023], [-110.9440987, 32.2316851], [-110.9441078, 32.2349287], [-110.9452065, 32.2349215], [-110.9452132, 32.2354528], [-110.9467067, 32.2354165], [-110.946705, 32.2361888], [-110.9467035, 32.2368884], [-110.9458568, 32.2368927], [-110.9458496, 32.2368928], [-110.9458546, 32.2362139], [-110.9453648, 32.2362185], [-110.9453797, 32.2372874], [-110.9444281, 32.2372972], [-110.944194, 32.2372954], [-110.9442167, 32.2424892], [-110.9442748, 32.2425536], [-110.9442859, 32.2429393], [-110.9442965, 32.2432491], [-110.9445584, 32.2432462], [-110.9448617, 32.2432428], [-110.9448617, 32.2436496], [-110.9466859, 32.2436312], [-110.9466808, 32.2432515], [-110.9469118, 32.2432591], [-110.9472479, 32.2432535], [-110.9472615, 32.243635], [-110.9475673, 32.2436349], [-110.947566, 32.2432471], [-110.9477668, 32.2432403], [-110.9477686, 32.2436228], [-110.948022, 32.2436225], [-110.948018, 32.2432262], [-110.9482354, 32.2432278], [-110.9483923, 32.2432289], [-110.9483953, 32.2433275], [-110.9483977, 32.2436392], [-110.9486243, 32.2436386], [-110.9486248, 32.243325], [-110.94896, 32.2433221], [-110.9489541, 32.2436422], [-110.9496982, 32.2436261], [-110.9497003, 32.2434743], [-110.9492829, 32.2434726], [-110.9492844, 32.2431979], [-110.9491556, 32.2431974], [-110.949161, 32.2421775], [-110.9497074, 32.2421796], [-110.9496742, 32.2385979]], [[-110.9528418, 32.2338845], [-110.9528461, 32.2342712], [-110.9524217, 32.2342747], [-110.9524174, 32.2338879], [-110.9528418, 32.2338845]], [[-110.9522413, 32.2338714], [-110.9522458, 32.2343115], [-110.9517493, 32.2343239], [-110.9509389, 32.2343047], [-110.9509332, 32.2338752], [-110.9516606, 32.2338731], [-110.9522413, 32.2338714]], [[-110.9480521, 32.233897], [-110.9480535, 32.2343261], [-110.9468366, 32.2343366], [-110.946842, 32.2339216], [-110.9468614, 32.2339078], [-110.9480521, 32.233897]], [[-110.946835, 32.2328781], [-110.9480569, 32.2328717], [-110.9480558, 32.233755], [-110.946857, 32.2337584], [-110.9468381, 32.2337448], [-110.946835, 32.2328781]]], [[[-110.9479539, 32.2276835], [-110.9509153, 32.2276617], [-110.9509231, 32.226588], [-110.9468012, 32.2266105], [-110.9468019, 32.2271911], [-110.9468421, 32.2272363], [-110.947118, 32.2273636], [-110.9479508, 32.2273532], [-110.9479539, 32.2276835]]], [[[-110.9701957, 32.2395664], [-110.9702108, 32.2395666], [-110.9702259, 32.2395732], [-110.9702366, 32.2395839], [-110.9702423, 32.2395958], [-110.9702551, 32.2404962], [-110.97025, 32.2405076], [-110.9702386, 32.2405155], [-110.9702235, 32.2405212], [-110.968924, 32.2405277], [-110.9688962, 32.2405209], [-110.9688717, 32.2405027], [-110.9688596, 32.2404846], [-110.9688539, 32.2404636], [-110.9688469, 32.239648], [-110.9688503, 32.2396287], [-110.968857, 32.2396117], [-110.9688718, 32.2395959], [-110.968888, 32.2395845], [-110.9689066, 32.2395787], [-110.9689272, 32.2395766], [-110.9701957, 32.2395664]]], [[[-110.9759171, 32.2288544], [-110.973964, 32.2279618], [-110.9742724, 32.2278231], [-110.9767728, 32.2278319], [-110.9770943, 32.2288584], [-110.9759171, 32.2288544]]], [[[-110.9538697, 32.2395672], [-110.9562351, 32.2395573], [-110.9562351, 32.238635], [-110.953837, 32.238639], [-110.9538697, 32.2395672]]], [[[-110.9393274, 32.2160968], [-110.9353028, 32.2160468], [-110.9352623, 32.2142857], [-110.9358509, 32.2142767], [-110.9387429, 32.2142324], [-110.9393281, 32.2142344], [-110.9393274, 32.2160968]]], [[[-110.9469604, 32.2277195], [-110.9469961, 32.2276729], [-110.9469768, 32.2275773], [-110.946914, 32.2275225], [-110.9466888, 32.2274015], [-110.9466125, 32.2273116], [-110.9465806, 32.2272209], [-110.9465915, 32.2266495], [-110.9453127, 32.2266532], [-110.9453171, 32.2273843], [-110.9462897, 32.2273905], [-110.9462883, 32.2277275], [-110.9469604, 32.2277195]]], [[[-110.9509488, 32.2263993], [-110.9509424, 32.2259635], [-110.9501169, 32.2259657], [-110.9501177, 32.2263963], [-110.9509488, 32.2263993]]], [[[-110.9523251, 32.2259671], [-110.9520017, 32.2259665], [-110.9511086, 32.2259649], [-110.9511101, 32.2258344], [-110.9517263, 32.2258312], [-110.9517238, 32.2255399], [-110.9520775, 32.2255415], [-110.9520959, 32.225114], [-110.9523207, 32.2251129], [-110.9523251, 32.2259671]]], [[[-110.9549586, 32.2276816], [-110.9549432, 32.2265807], [-110.9562544, 32.226577], [-110.956253, 32.2269248], [-110.9559374, 32.2269311], [-110.9559379, 32.2271061], [-110.9555904, 32.2271097], [-110.9555958, 32.2276787], [-110.9549586, 32.2276816]]], [[[-110.9547039, 32.2265778], [-110.9540471, 32.2265767], [-110.9540465, 32.2271087], [-110.954717, 32.227113], [-110.9547039, 32.2265778]]], [[[-110.9538978, 32.2271653], [-110.9533938, 32.2271693], [-110.953396, 32.227674], [-110.9538889, 32.227674], [-110.9538978, 32.2271653]]], [[[-110.9763286, 32.2291031], [-110.9774946, 32.2298831], [-110.9771971, 32.2290895], [-110.9763286, 32.2291031]]], [[[-110.9777469, 32.2289439], [-110.9777572, 32.2297605], [-110.9776869, 32.2297332], [-110.9776593, 32.2297069], [-110.9774449, 32.2290663], [-110.9777469, 32.2289439]]], [[[-110.9777512, 32.2287701], [-110.9777268, 32.2278677], [-110.9770386, 32.227863], [-110.9773905, 32.228864], [-110.9777512, 32.2287701]]], [[[-110.9587097, 32.232994], [-110.9586063, 32.232995], [-110.9579569, 32.2330015], [-110.9579568, 32.2331008], [-110.9579682, 32.2342956], [-110.9580731, 32.2342956], [-110.9584255, 32.2342955], [-110.9587194, 32.2342954], [-110.9587143, 32.2348985], [-110.9587421, 32.2348989], [-110.9591656, 32.2349054], [-110.959365, 32.2349084], [-110.9593803, 32.2345935], [-110.9594593, 32.2330612], [-110.9594587, 32.2329899], [-110.9594593, 32.2329286], [-110.9594601, 32.2328973], [-110.9594642, 32.2326326], [-110.959463, 32.2322299], [-110.9594637, 32.2322109], [-110.9602707, 32.2322157], [-110.9602689, 32.2316822], [-110.959605, 32.2316853], [-110.959467, 32.2316859], [-110.9594674, 32.2317153], [-110.9594664, 32.2317765], [-110.9594641, 32.2321426], [-110.9594641, 32.232157], [-110.9587081, 32.2321585], [-110.9587097, 32.232994]]]]}}