{"type": "Feature", "properties": {"market_key": 1012, "university": "University of Utah", "osm_type": "way", "osm_id": 238655718, "osm_name": "University of Utah"}, "geometry": {"type": "Polygon", "coordinates": [[[-111.8408834, 40.7586514], [-111.8428214, 40.7587006], [-111.8429608, 40.7583671], [-111.8429435, 40.7538633], [-111.8451741, 40.7538429], [-111.8476546, 40.7538242], [-111.8476541, 40.7542915], [-111.8476501, 40.7583485], [-111.8506943, 40.7584653], [-111.8509701, 40.7584527], [-111.8523339, 40.7585056], [-111.8523324, 40.759376], [-111.8523753, 40.7618741], [-111.8523921, 40.7631345], [-111.8523854, 40.7644102], [-111.8524088, 40.7655006], [-111.8522327, 40.7667633], [-111.8522365, 40.7668286], [-111.8521849, 40.7668988], [-111.8521152, 40.7669389], [-111.8506613, 40.7669419], [-111.8493519, 40.766937], [-111.848294, 40.7669572], [-111.8482904, 40.7670678], [-111.8483272, 40.768105], [-111.8482839, 40.7688393], [-111.8482701, 40.7699118], [-111.8482661, 40.7707695], [-111.8482826, 40.7713482], [-111.8479074, 40.7713362], [-111.8475748, 40.7713433], [-111.8474983, 40.7711874], [-111.8468431, 40.7712175], [-111.8456192, 40.7712291], [-111.845416, 40.7712286], [-111.8449028, 40.7712276], [-111.8445447, 40.7712281], [-111.8441248, 40.7712997], [-111.8434516, 40.7715932], [-111.8433174, 40.7717648], [-111.843072, 40.7720513], [-111.8430398, 40.7729684], [-111.8424203, 40.7730659], [-111.8416987, 40.7730191], [-111.8415459, 40.7731075], [-111.8413594, 40.7731329], [-111.8407801, 40.773138], [-111.8403, 40.7731248], [-111.8397474, 40.7730811], [-111.8393491, 40.7729785], [-111.8390206, 40.7728983], [-111.8387617, 40.7728506], [-111.8386035, 40.7728597], [-111.8383339, 40.7729501], [-111.8381448, 40.7730303], [-111.8382575, 40.7733035], [-111.8383473, 40.7735056], [-111.8385351, 40.773658], [-111.8386209, 40.7738448], [-111.8386075, 40.7740541], [-111.8375668, 40.7745476], [-111.8374193, 40.7744278], [-111.8371725, 40.7742836], [-111.8368211, 40.7742084], [-111.8363169, 40.774211], [-111.8356942, 40.7743784], [-111.8350279, 40.7742643], [-111.8341104, 40.7733058], [-111.833796, 40.7728475], [-111.8334604, 40.7724289], [-111.8330098, 40.7721934], [-111.8326513, 40.7717556], [-111.8328816, 40.7716111], [-111.8324062, 40.7709711], [-111.8321725, 40.7707588], [-111.8317534, 40.770415], [-111.8316458, 40.7703252], [-111.8311229, 40.7698992], [-111.8305083, 40.7692522], [-111.8304184, 40.7691757], [-111.8302584, 40.7690634], [-111.8287846, 40.7680223], [-111.8278384, 40.7673551], [-111.8273972, 40.7670364], [-111.827358, 40.766959], [-111.826031, 40.7674634], [-111.8251973, 40.7679249], [-111.8248591, 40.7681836], [-111.8235476, 40.7679082], [-111.8231491, 40.7679844], [-111.8228125, 40.7679449], [-111.8224847, 40.7673487], [-111.8228378, 40.7666691], [-111.8226878, 40.7661996], [-111.8223513, 40.765772], [-111.8223881, 40.7647905], [-111.8221704, 40.7646054], [-111.8215276, 40.7635479], [-111.8214372, 40.763307], [-111.8213032, 40.7624929], [-111.8211693, 40.7624498], [-111.8202418, 40.7614379], [-111.8183367, 40.7600582], [-111.8174494, 40.7592264], [-111.8182876, 40.7586685], [-111.8169801, 40.7576231], [-111.8169828, 40.7573119], [-111.8196358, 40.7573217], [-111.8215175, 40.7572862], [-111.8218992, 40.7568778], [-111.8218189, 40.7557492], [-111.821839, 40.7543669], [-111.8218256, 40.7537734], [-111.821839, 40.7532255], [-111.8218289, 40.7520181], [-111.8231147, 40.7515692], [-111.8236964, 40.7511929], [-111.8238822, 40.7510248], [-111.8239271, 40.7509262], [-111.8239103, 40.7508764], [-111.8260081, 40.7508772], [-111.8264266, 40.750879], [-111.8269067, 40.7508774], [-111.8275766, 40.7508769], [-111.8292982, 40.7508807], [-111.8310443, 40.7508721], [-111.8328464, 40.7508718], [-111.8344692, 40.7508731], [-111.8359219, 40.7508724], [-111.8372604, 40.7508734], [-111.8372915, 40.7518309], [-111.8372908, 40.7531303], [-111.8382149, 40.7531274], [-111.8378144, 40.7536635], [-111.8373165, 40.7538585], [-111.8360892, 40.7548338], [-111.8352832, 40.7544471], [-111.8347339, 40.7543365], [-111.8339614, 40.7545251], [-111.8336347, 40.7546775], [-111.8332171, 40.7548437], [-111.8334796, 40.7551625], [-111.8341422, 40.7559672], [-111.8349736, 40.7567404], [-111.8354438, 40.7571979], [-111.8357982, 40.757407], [-111.8361609, 40.7575756], [-111.8364751, 40.7577503], [-111.8368394, 40.7579022], [-111.8373507, 40.7580996], [-111.8380392, 40.7582996], [-111.8385372, 40.7584161], [-111.8390586, 40.7585072], [-111.8396936, 40.7585756], [-111.8403454, 40.7586363], [-111.8408834, 40.7586514]]]}}