{"type": "Feature", "properties": {"market_key": 1027, "university": "California State University Chico", "osm_type": "way", "osm_id": 28551484, "osm_name": "California State University, Chico"}, "geometry": {"type": "Polygon", "coordinates": [[[-121.8457441, 39.7331607], [-121.8433695, 39.7341845], [-121.8429567, 39.7336017], [-121.842906, 39.733499], [-121.8429345, 39.7334531], [-121.8431292, 39.7333732], [-121.8432222, 39.733335], [-121.8432539, 39.733322], [-121.8437448, 39.7331206], [-121.8438468, 39.7330787], [-121.8438153, 39.733035], [-121.8438043, 39.7330196], [-121.8439981, 39.7329358], [-121.8437921, 39.7326233], [-121.8437986, 39.7326015], [-121.844322, 39.7323552], [-121.843945, 39.7318677], [-121.8437423, 39.7319581], [-121.8436698, 39.7318906], [-121.843466, 39.7317008], [-121.8435568, 39.7315608], [-121.8436625, 39.7314589], [-121.84359, 39.7314129], [-121.8437078, 39.7313348], [-121.8436022, 39.7312432], [-121.8432717, 39.7314554], [-121.8428131, 39.731039], [-121.8428768, 39.730999], [-121.8430778, 39.7308671], [-121.8431602, 39.7308137], [-121.8434632, 39.7306167], [-121.8428643, 39.7300821], [-121.8430495, 39.7299552], [-121.8432916, 39.7297926], [-121.8431387, 39.7296629], [-121.8431, 39.7296467], [-121.8430654, 39.7296403], [-121.8430358, 39.7296361], [-121.8430091, 39.7296374], [-121.8429509, 39.729584], [-121.84297, 39.7295723], [-121.8428079, 39.7294304], [-121.842741, 39.7293714], [-121.8428625, 39.7292878], [-121.842941, 39.7292311], [-121.8428639, 39.7291601], [-121.8428708, 39.7291553], [-121.8428013, 39.7290958], [-121.8426517, 39.7289635], [-121.8430763, 39.7286815], [-121.8431628, 39.7286229], [-121.8433696, 39.7284898], [-121.8433455, 39.7284688], [-121.8432655, 39.7283977], [-121.8431631, 39.7283065], [-121.8424946, 39.7277555], [-121.8432566, 39.7272736], [-121.8434796, 39.7274751], [-121.8437033, 39.7273346], [-121.8444309, 39.7268778], [-121.8449949, 39.7273845], [-121.84507, 39.7273336], [-121.8450919, 39.7273337], [-121.8452127, 39.7272551], [-121.8452123, 39.727233], [-121.8483948, 39.7250908], [-121.8487214, 39.724871], [-121.8493779, 39.7254309], [-121.8490426, 39.7256603], [-121.8475529, 39.7266795], [-121.8484156, 39.7274817], [-121.8484679, 39.7274811], [-121.8488696, 39.7273877], [-121.8496718, 39.7268183], [-121.8487825, 39.7260436], [-121.8501581, 39.7251148], [-121.8503492, 39.7251107], [-121.8510258, 39.725774], [-121.8504323, 39.7263151], [-121.8500879, 39.7265335], [-121.8498949, 39.726654], [-121.8501937, 39.7269095], [-121.8511028, 39.7276975], [-121.851907, 39.7283898], [-121.8522451, 39.7286616], [-121.8538456, 39.7298995], [-121.854418, 39.7303406], [-121.8551419, 39.7308637], [-121.8563866, 39.7317238], [-121.8563853, 39.7317563], [-121.852834, 39.7332841], [-121.8520433, 39.7336265], [-121.8519061, 39.7334318], [-121.852211, 39.7333036], [-121.852118, 39.733172], [-121.8520007, 39.7330094], [-121.852477, 39.732797], [-121.8524316, 39.7327318], [-121.8523926, 39.73268], [-121.8522069, 39.7324337], [-121.8517502, 39.7326307], [-121.8519345, 39.7328767], [-121.8515984, 39.7330135], [-121.8498546, 39.7305619], [-121.8496211, 39.7306594], [-121.8496028, 39.7307501], [-121.8485074, 39.7312218], [-121.8480564, 39.7314148], [-121.8475248, 39.7316423], [-121.8471508, 39.7311127], [-121.8469253, 39.7308019], [-121.8447229, 39.7317436], [-121.8457441, 39.7331607]]]}}