{"type": "Feature", "properties": {"market_key": 1028, "university": "University of Nevada Reno", "osm_type": "relation", "osm_id": 13137620, "osm_name": "University of Nevada, Reno"}, "geometry": {"type": "MultiPolygon", "coordinates": [[[[-119.818545, 39.5440617], [-119.8186179, 39.5441513], [-119.8190607, 39.5445278], [-119.8192652, 39.5447032], [-119.8192911, 39.5447397], [-119.8192951, 39.544778], [-119.8192737, 39.5448452], [-119.8192643, 39.5449041], [-119.8192643, 39.5449662], [-119.8192602, 39.5449993], [-119.8191798, 39.545143], [-119.8193002, 39.5451835], [-119.8193259, 39.5451295], [-119.8193892, 39.5451117], [-119.8194239, 39.5451068], [-119.8195271, 39.5451006], [-119.819617, 39.5451079], [-119.819676, 39.5451172], [-119.8197283, 39.5451316], [-119.8197651, 39.545156], [-119.81991, 39.5452898], [-119.8199417, 39.5453304], [-119.8199916, 39.5453964], [-119.8199971, 39.5454131], [-119.8200395, 39.5454495], [-119.8200813, 39.5454999], [-119.8201184, 39.5455587], [-119.8201818, 39.5456642], [-119.8202398, 39.5457662], [-119.8202802, 39.5458515], [-119.8203241, 39.5459638], [-119.8203659, 39.5460735], [-119.8204272, 39.5462509], [-119.8205749, 39.5466757], [-119.8207139, 39.5470694], [-119.8210618, 39.5480441], [-119.8212937, 39.5487576], [-119.8211378, 39.54876], [-119.8206677, 39.5487691], [-119.8207786, 39.5490316], [-119.8210833, 39.5490333], [-119.8211156, 39.5491175], [-119.8212529, 39.5494434], [-119.8212835, 39.5495161], [-119.8212854, 39.5495999], [-119.8212854, 39.549697], [-119.8213009, 39.5497555], [-119.8213332, 39.5498107], [-119.8214115, 39.5498949], [-119.8214681, 39.5499729], [-119.8214803, 39.5500114], [-119.8214735, 39.5500655], [-119.8214277, 39.5502152], [-119.8214357, 39.5509297], [-119.8196553, 39.5511523], [-119.8174297, 39.5514404], [-119.8160782, 39.551612], [-119.8148521, 39.5517701], [-119.814496, 39.5518096], [-119.8133549, 39.5519625], [-119.8122596, 39.5520925], [-119.8122151, 39.5520873], [-119.8121679, 39.5520727], [-119.8121315, 39.5520457], [-119.8121099, 39.5519999], [-119.8120923, 39.5519084], [-119.8119345, 39.5511565], [-119.8117268, 39.5502007], [-119.811645, 39.5498088], [-119.8115735, 39.5494911], [-119.8115458, 39.5493491], [-119.8115305, 39.5492234], [-119.811522, 39.5490903], [-119.811522, 39.5489983], [-119.8115315, 39.5488137], [-119.8115477, 39.5486894], [-119.8115744, 39.5485556], [-119.8116097, 39.548421], [-119.8116622, 39.548282], [-119.8117089, 39.5481754], [-119.8117575, 39.5480783], [-119.8118291, 39.5479489], [-119.8119502, 39.5477679], [-119.8120895, 39.5475782], [-119.8123565, 39.547234], [-119.8124919, 39.5470568], [-119.8125873, 39.5469266], [-119.8127399, 39.5467287], [-119.813282, 39.5460109], [-119.8133545, 39.545908], [-119.813447, 39.5457646], [-119.8134579, 39.5457149], [-119.8135279, 39.5456427], [-119.8135983, 39.5455145], [-119.8136435, 39.5453902], [-119.8137036, 39.5452431], [-119.8137494, 39.5451004], [-119.813798, 39.5449371], [-119.813819, 39.5448364], [-119.8138409, 39.5446915], [-119.813861, 39.544537], [-119.8138657, 39.5443863], [-119.8138629, 39.5439538], [-119.8138467, 39.5437059], [-119.8138371, 39.5436022], [-119.81382, 39.5434838], [-119.8137818, 39.5433772], [-119.8136941, 39.543172], [-119.813572, 39.5428866], [-119.8135128, 39.5427689], [-119.8134384, 39.5426439], [-119.8133517, 39.5425034], [-119.813242, 39.542357], [-119.8130445, 39.5421018], [-119.8129396, 39.5419775], [-119.8128767, 39.5418995], [-119.8128309, 39.5418282], [-119.8127985, 39.5417627], [-119.8127813, 39.5417032], [-119.8127718, 39.5416348], [-119.8127575, 39.5413722], [-119.8127441, 39.5412067], [-119.8127355, 39.5411582], [-119.8127183, 39.5411111], [-119.8126907, 39.541064], [-119.8126449, 39.5410133], [-119.8125677, 39.5409463], [-119.8123998, 39.5408102], [-119.8123092, 39.5407242], [-119.812252, 39.5406551], [-119.8122281, 39.5405911], [-119.8122004, 39.5405241], [-119.812148, 39.5404395], [-119.8121137, 39.540391], [-119.8121033, 39.5403394], [-119.8120681, 39.5402824], [-119.8120081, 39.5401916], [-119.8119974, 39.5401754], [-119.8118761, 39.5399912], [-119.8117447, 39.5397714], [-119.8115583, 39.5394756], [-119.8112793, 39.5390226], [-119.8111587, 39.5388284], [-119.8111211, 39.5387653], [-119.8111017, 39.5387244], [-119.8110865, 39.5386795], [-119.8110661, 39.538619], [-119.81105, 39.5385409], [-119.8110433, 39.5384747], [-119.8110386, 39.5383935], [-119.8110413, 39.5383439], [-119.8110621, 39.5382459], [-119.8110835, 39.5381523], [-119.8111144, 39.5380711], [-119.8111603, 39.5380048], [-119.8112341, 39.5379247], [-119.8112579, 39.5378989], [-119.811445, 39.5376864], [-119.8115657, 39.5375674], [-119.8115525, 39.5375165], [-119.8117939, 39.537247], [-119.8118789, 39.5371711], [-119.8119612, 39.537117], [-119.8120516, 39.5370723], [-119.8121352, 39.537039], [-119.8122431, 39.537012], [-119.8123537, 39.5369911], [-119.8136014, 39.5367519], [-119.8151701, 39.5364648], [-119.8160738, 39.5363046], [-119.8161075, 39.5363035], [-119.8161386, 39.536316], [-119.8161615, 39.536342], [-119.8161885, 39.5364232], [-119.8164434, 39.5372179], [-119.8167105, 39.5371888], [-119.8178624, 39.5369662], [-119.8178786, 39.5369516], [-119.8179123, 39.536936], [-119.8179446, 39.536936], [-119.8179838, 39.5369475], [-119.8180013, 39.5369755], [-119.8181308, 39.5373417], [-119.8182009, 39.5374665], [-119.8183709, 39.5379118], [-119.8184464, 39.538098], [-119.8186557, 39.538587], [-119.8193266, 39.5401484], [-119.8193047, 39.5401535], [-119.8188689, 39.5402552], [-119.8188715, 39.5404578], [-119.8183613, 39.5404609], [-119.818261, 39.5405967], [-119.818252, 39.5406089], [-119.8181538, 39.5405699], [-119.8181166, 39.5405596], [-119.818087, 39.5405545], [-119.8180508, 39.5405526], [-119.8172639, 39.5405508], [-119.8170545, 39.5405509], [-119.8170551, 39.5406986], [-119.8170511, 39.5407147], [-119.8170268, 39.540762], [-119.8169931, 39.5408156], [-119.8169884, 39.5408473], [-119.816987, 39.540903], [-119.8169938, 39.5411011], [-119.8170086, 39.5411729], [-119.8170147, 39.5412254], [-119.8170174, 39.5412884], [-119.8170167, 39.5418677], [-119.8170181, 39.5418932], [-119.8170457, 39.5420352], [-119.8170504, 39.5420825], [-119.8170403, 39.5423654], [-119.8170444, 39.5424164], [-119.8170531, 39.5424788], [-119.817072, 39.5425548], [-119.8171003, 39.5426395], [-119.8171368, 39.5427227], [-119.8171779, 39.5427987], [-119.8172197, 39.5428606], [-119.8172723, 39.5429282], [-119.8173613, 39.543027], [-119.8174308, 39.5430941], [-119.8174888, 39.5431435], [-119.8177006, 39.5433302], [-119.8183035, 39.5438544], [-119.818545, 39.5440617]]], [[[-119.8100899, 39.5486415], [-119.8105217, 39.5483685], [-119.8107926, 39.5481761], [-119.8110984, 39.5479445], [-119.8112352, 39.547992], [-119.8115007, 39.5477418], [-119.8117663, 39.5474564], [-119.8120934, 39.5470572], [-119.8123214, 39.546749], [-119.8127103, 39.546234], [-119.8123535, 39.5460996], [-119.8122394, 39.5460751], [-119.8118494, 39.5459031], [-119.8114604, 39.545385], [-119.8098111, 39.5453765], [-119.8098053, 39.5460648], [-119.8098056, 39.5461492], [-119.8098324, 39.5462257], [-119.8098592, 39.5462899], [-119.8098539, 39.5463561], [-119.809827, 39.5464533], [-119.8098029, 39.546598], [-119.8097942, 39.5467655], [-119.8097895, 39.5468566], [-119.8096473, 39.5468524], [-119.8095536, 39.5468311], [-119.8094328, 39.5467904], [-119.809194, 39.5467283], [-119.8090707, 39.5467077], [-119.8089875, 39.5466973], [-119.808848, 39.5466932], [-119.8087461, 39.5466828], [-119.8086194, 39.5466554], [-119.8086227, 39.5467532], [-119.8086148, 39.547493], [-119.8085798, 39.5475329], [-119.8085263, 39.547553], [-119.8080031, 39.5475515], [-119.808006, 39.5477515], [-119.8085074, 39.5479093], [-119.808604, 39.5480437], [-119.808639, 39.5480969], [-119.8087005, 39.5481182], [-119.8094542, 39.5483312], [-119.8097843, 39.5484092], [-119.8100899, 39.5486415]]]]}}