{"type": "Feature", "properties": {"market_key": 1029, "university": "University of Hawaii at Manoa", "osm_type": "way", "osm_id": 31811863, "osm_name": "University of Hawai\u02bbi at M\u0101noa"}, "geometry": {"type": "Polygon", "coordinates": [[[-157.8202584, 21.3017921], [-157.8204234, 21.301619], [-157.8205714, 21.3014547], [-157.8207349, 21.3012339], [-157.8208625, 21.3009934], [-157.8209514, 21.3007382], [-157.8209836, 21.3006464], [-157.8209998, 21.3004737], [-157.8210068, 21.3002055], [-157.8209881, 21.299941], [-157.8209461, 21.2991211], [-157.8209477, 21.299086], [-157.8209866, 21.2990813], [-157.8210503, 21.2990736], [-157.8211658, 21.2990722], [-157.8217787, 21.2991143], [-157.8222085, 21.2991461], [-157.8222415, 21.2991486], [-157.8222728, 21.2991509], [-157.8227979, 21.2991898], [-157.8234335, 21.2992368], [-157.8237735, 21.2992619], [-157.8238695, 21.2992691], [-157.8241201, 21.2993053], [-157.8241825, 21.298526], [-157.8231469, 21.296885], [-157.8229068, 21.2968803], [-157.8224694, 21.2968614], [-157.8223598, 21.2968611], [-157.8223119, 21.2968587], [-157.8223211, 21.297339], [-157.8215057, 21.297304], [-157.8215106, 21.297205], [-157.8215252, 21.2969146], [-157.8215252, 21.2968327], [-157.8213215, 21.2968292], [-157.8212431, 21.2968279], [-157.8211277, 21.2968201], [-157.8210918, 21.2955761], [-157.8200815, 21.2945399], [-157.8200128, 21.2943926], [-157.8199853, 21.2942623], [-157.8199654, 21.2938192], [-157.8185558, 21.2929815], [-157.8183145, 21.2928362], [-157.8182469, 21.2927986], [-157.8180667, 21.2929004], [-157.8180102, 21.2928293], [-157.817928, 21.2928838], [-157.8163435, 21.2911433], [-157.8151499, 21.2924034], [-157.8143916, 21.2917064], [-157.8138735, 21.2925293], [-157.8134375, 21.2929167], [-157.812772, 21.293274], [-157.8124181, 21.2933998], [-157.8121278, 21.2938807], [-157.8113416, 21.2940246], [-157.8115784, 21.2950919], [-157.8115977, 21.2952549], [-157.8109867, 21.2962502], [-157.8111246, 21.2964583], [-157.8113928, 21.2967117], [-157.8119101, 21.2969087], [-157.8122641, 21.2969351], [-157.8125997, 21.2968277], [-157.8132154, 21.2960047], [-157.8133349, 21.2960286], [-157.8136833, 21.2960984], [-157.8136179, 21.2961155], [-157.813396, 21.298033], [-157.8131816, 21.2994761], [-157.8131019, 21.3000125], [-157.8129895, 21.3007696], [-157.8121707, 21.3021974], [-157.8112076, 21.3037045], [-157.8123808, 21.304584], [-157.8127814, 21.3043403], [-157.8138845, 21.3054288], [-157.813903, 21.3054471], [-157.8141224, 21.3052594], [-157.8143692, 21.3051542], [-157.8149464, 21.3050786], [-157.8157847, 21.3018984], [-157.8166799, 21.3018253], [-157.8169302, 21.3017853], [-157.8177352, 21.3015526], [-157.818219, 21.301447], [-157.8182315, 21.301443], [-157.8187617, 21.3012737], [-157.8190305, 21.3011878], [-157.8193684, 21.3010969], [-157.8196267, 21.3011927], [-157.8202584, 21.3017921]]]}}