{"type": "Feature", "properties": {"market_key": 104, "university": "Mercer University", "osm_type": "way", "osm_id": 770908226, "osm_name": "Mercer University"}, "geometry": {"type": "Polygon", "coordinates": [[[-83.6448377, 32.825625], [-83.6472685, 32.826695], [-83.6482471, 32.826748], [-83.6492153, 32.8266508], [-83.6506254, 32.8261733], [-83.6513066, 32.8259454], [-83.651761, 32.8258623], [-83.6529828, 32.8258714], [-83.6535699, 32.8258753], [-83.6539096, 32.8266999], [-83.6546705, 32.8267026], [-83.655005, 32.826791], [-83.6553251, 32.8269825], [-83.6557478, 32.8273543], [-83.6558256, 32.8279769], [-83.6555029, 32.828666], [-83.6551023, 32.8292029], [-83.6541364, 32.8304131], [-83.6531581, 32.8316823], [-83.6527499, 32.8320046], [-83.6519249, 32.83202], [-83.6517654, 32.8322819], [-83.6509029, 32.8322636], [-83.6500164, 32.831846], [-83.6490545, 32.8326968], [-83.6473684, 32.8316661], [-83.6457213, 32.8307139], [-83.6459471, 32.8299646], [-83.6460678, 32.8292022], [-83.6459744, 32.8283744], [-83.6454487, 32.8272847], [-83.6442727, 32.8262507], [-83.6448377, 32.825625]]]}}