{"type": "Feature", "properties": {"market_key": 1040, "university": "Montana State University", "osm_type": "way", "osm_id": 312833325, "osm_name": "Montana State University"}, "geometry": {"type": "Polygon", "coordinates": [[[-111.0481191, 45.671211], [-111.0481198, 45.671145], [-111.048129, 45.670311], [-111.0481305, 45.6702207], [-111.048132, 45.6701314], [-111.0478917, 45.6701315], [-111.0458011, 45.6701324], [-111.045384, 45.6701326], [-111.045397, 45.6652116], [-111.0453246, 45.6652111], [-111.044692, 45.665204], [-111.0446907, 45.6639257], [-111.041854, 45.6639193], [-111.0418806, 45.6608783], [-111.0452354, 45.6566834], [-111.0466473, 45.6566814], [-111.0519499, 45.656645], [-111.0520764, 45.6566237], [-111.0520758, 45.6567231], [-111.052064, 45.6639795], [-111.060858, 45.6639309], [-111.0632893, 45.6639251], [-111.0633359, 45.6638467], [-111.0634156, 45.6637126], [-111.0634793, 45.6635147], [-111.0639253, 45.6632575], [-111.0640951, 45.6632229], [-111.0642579, 45.6631586], [-111.0644066, 45.6630547], [-111.065554, 45.6630448], [-111.0656448, 45.663044], [-111.0670762, 45.6630316], [-111.0702777, 45.6630259], [-111.0722809, 45.6630219], [-111.0723164, 45.6606187], [-111.0723008, 45.6600807], [-111.0706652, 45.6600758], [-111.0698948, 45.6568066], [-111.06987, 45.6566402], [-111.0781893, 45.6566208], [-111.0789957, 45.66029], [-111.0932587, 45.6602753], [-111.0935949, 45.6628211], [-111.0952201, 45.6628081], [-111.0952948, 45.6647532], [-111.0938488, 45.664756], [-111.0938238, 45.6676517], [-111.0937949, 45.6711191], [-111.0937949, 45.6712242], [-111.084688, 45.6709864], [-111.0847128, 45.6689682], [-111.0828471, 45.669075], [-111.0827384, 45.6690812], [-111.0827253, 45.6684123], [-111.0828746, 45.6674138], [-111.0825414, 45.6674166], [-111.0810523, 45.6674133], [-111.0781246, 45.6674187], [-111.0696109, 45.6674617], [-111.0642622, 45.667521], [-111.0641192, 45.6701093], [-111.0640806, 45.6709895], [-111.062704, 45.671072], [-111.0624912, 45.6710739], [-111.0605919, 45.6710585], [-111.0581209, 45.6710385], [-111.0537662, 45.6711528], [-111.0517131, 45.6711697], [-111.0481191, 45.671211]]]}}