{"type": "Feature", "properties": {"market_key": 1055, "university": "San Jose State University", "osm_type": "way", "osm_id": 25775883, "osm_name": "San Jos\u00e9 State University Main Campus"}, "geometry": {"type": "Polygon", "coordinates": [[[-121.8858771, 37.3358047], [-121.8839167, 37.333161], [-121.8839039, 37.3331436], [-121.8838796, 37.3331409], [-121.8838642, 37.3331395], [-121.8838594, 37.3331381], [-121.883855, 37.3331349], [-121.8837767, 37.3330307], [-121.8837727, 37.3330253], [-121.8837718, 37.3330209], [-121.8837729, 37.3330125], [-121.8837871, 37.3329614], [-121.8837879, 37.3329509], [-121.8837853, 37.3329416], [-121.8837781, 37.3329298], [-121.8827986, 37.331614], [-121.8782333, 37.333783], [-121.8781912, 37.3338026], [-121.8780732, 37.3338593], [-121.8776646, 37.3340537], [-121.8774346, 37.3341632], [-121.8765676, 37.3345758], [-121.8796206, 37.3386461], [-121.8827652, 37.3372887], [-121.8858771, 37.3358047]]]}}