{"type": "Feature", "properties": {"market_key": 106, "university": "University of North Dakota", "osm_type": "relation", "osm_id": 12482514, "osm_name": "University of North Dakota"}, "geometry": {"type": "MultiPolygon", "coordinates": [[[[-97.0928349, 47.9187747], [-97.075324, 47.9187416], [-97.0744562, 47.9187299], [-97.074382, 47.918729], [-97.0732301, 47.9187286], [-97.0727339, 47.9187171], [-97.0725347, 47.9187195], [-97.0718337, 47.918719], [-97.0713758, 47.9187216], [-97.0709196, 47.9187221], [-97.0699022, 47.9187255], [-97.066082, 47.9187352], [-97.0654381, 47.9187369], [-97.0597988, 47.9187512], [-97.0598029, 47.9191723], [-97.05728, 47.9192021], [-97.0572775, 47.9195769], [-97.0598071, 47.9195935], [-97.0598125, 47.9201322], [-97.0598217, 47.9210616], [-97.0625599, 47.9210752], [-97.0627056, 47.9210759], [-97.0627269, 47.9221278], [-97.067351, 47.9221068], [-97.067345, 47.9228486], [-97.0671656, 47.9228468], [-97.0671392, 47.9232162], [-97.0668173, 47.9232183], [-97.0668606, 47.92911], [-97.0680358, 47.9290912], [-97.0680179, 47.9301193], [-97.0667932, 47.9301257], [-97.0668418, 47.9329131], [-97.070568, 47.9328589], [-97.0773078, 47.9328033], [-97.0774506, 47.928457], [-97.0780874, 47.9283598], [-97.0786258, 47.9281768], [-97.0788022, 47.9279815], [-97.0787498, 47.9277882], [-97.078454, 47.927682], [-97.0774261, 47.9274385], [-97.0773737, 47.9256383], [-97.0785346, 47.9256324], [-97.0784798, 47.9242346], [-97.0809029, 47.9242204], [-97.0812619, 47.9242183], [-97.081256, 47.9256438], [-97.0824546, 47.9256341], [-97.0846219, 47.9256226], [-97.0876977, 47.9256216], [-97.0877017, 47.9244751], [-97.0877198, 47.9224537], [-97.0876959, 47.9224371], [-97.08772, 47.9221052], [-97.0904612, 47.9221221], [-97.0926919, 47.9221359], [-97.0928349, 47.9187747]], [[-97.0707854, 47.9228191], [-97.0707947, 47.9224154], [-97.0720509, 47.9224091], [-97.0720556, 47.9228253], [-97.0707854, 47.9228191]], [[-97.0681871, 47.9224064], [-97.0690991, 47.9224147], [-97.0691105, 47.9231364], [-97.0705416, 47.9231527], [-97.0705389, 47.9230743], [-97.0713636, 47.9230743], [-97.07136, 47.9234372], [-97.0707973, 47.9234514], [-97.0707867, 47.923838], [-97.0713742, 47.9238332], [-97.0713636, 47.9242435], [-97.0738184, 47.924217], [-97.075288, 47.9242012], [-97.075302, 47.925625], [-97.0685654, 47.9256306], [-97.0685735, 47.9250639], [-97.0693541, 47.9250748], [-97.0693529, 47.9242283], [-97.0686505, 47.9242366], [-97.0686443, 47.9227129], [-97.0681821, 47.9227046], [-97.0681871, 47.9224064]]]]}}