{"type": "Feature", "properties": {"market_key": 1060, "university": "University of Nevada Las Vegas", "osm_type": "relation", "osm_id": 19558356, "osm_name": "University of Nevada, Las Vegas"}, "geometry": {"type": "MultiPolygon", "coordinates": [[[[-115.1377796, 36.1110375], [-115.1377962, 36.111072], [-115.1378216, 36.1110951], [-115.1379321, 36.1111199], [-115.1380448, 36.1111551], [-115.1381956, 36.111222], [-115.1382679, 36.111261], [-115.1383488, 36.1113293], [-115.1384423, 36.1114314], [-115.1385048, 36.1115068], [-115.1385924, 36.1115894], [-115.1386974, 36.1116693], [-115.1388312, 36.1117385], [-115.1389442, 36.1117755], [-115.139128, 36.1118103], [-115.1393133, 36.1118131], [-115.139465, 36.1118154], [-115.1420015, 36.1118605], [-115.1419973, 36.1117773], [-115.1419696, 36.1112668], [-115.1419693, 36.1112152], [-115.1423505, 36.1112234], [-115.1435869, 36.1112412], [-115.1436182, 36.111886], [-115.1437701, 36.1118881], [-115.1437845, 36.1125284], [-115.1437852, 36.1125583], [-115.1437861, 36.1125948], [-115.1438027, 36.1133388], [-115.1438111, 36.11371], [-115.1440326, 36.1145124], [-115.1455571, 36.1145193], [-115.1456896, 36.1144941], [-115.1459723, 36.1145001], [-115.1461067, 36.1145267], [-115.1462082, 36.1145233], [-115.1462346, 36.1145078], [-115.1462545, 36.1144783], [-115.1462682, 36.1143495], [-115.1462886, 36.1142385], [-115.1463308, 36.1140961], [-115.1464059, 36.1139113], [-115.1465657, 36.1136439], [-115.1468132, 36.1133866], [-115.1471295, 36.1131734], [-115.1492867, 36.1125885], [-115.1493241, 36.112564], [-115.1498167, 36.1122478], [-115.14999, 36.1120788], [-115.1500796, 36.1119675], [-115.1501482, 36.1118444], [-115.1502238, 36.1116523], [-115.1502469, 36.111532], [-115.1502608, 36.1112725], [-115.1502417, 36.1081149], [-115.1502447, 36.107781], [-115.1502486, 36.107485], [-115.1501864, 36.1071452], [-115.1499391, 36.1064907], [-115.1472208, 36.1064474], [-115.1461227, 36.1064315], [-115.1461153, 36.1060369], [-115.1481532, 36.1060672], [-115.1481592, 36.1058317], [-115.1480192, 36.1058295], [-115.1480189, 36.1057849], [-115.1479751, 36.1057917], [-115.1479306, 36.1057885], [-115.147889, 36.1057754], [-115.1478534, 36.1057536], [-115.1478286, 36.1057273], [-115.1478128, 36.1056968], [-115.1478071, 36.105664], [-115.1478123, 36.1056297], [-115.1478286, 36.1055978], [-115.1478548, 36.1055704], [-115.1478927, 36.105548], [-115.147937, 36.1055355], [-115.1479839, 36.1055339], [-115.1480311, 36.1055439], [-115.1480738, 36.1055649], [-115.1481742, 36.1055675], [-115.1481776, 36.1052799], [-115.1491831, 36.1052952], [-115.1491834, 36.1052866], [-115.1496159, 36.1052943], [-115.1494382, 36.1044558], [-115.1493583, 36.104253], [-115.1492832, 36.1041228], [-115.1491996, 36.1040026], [-115.149096, 36.1038875], [-115.1489341, 36.1037438], [-115.1487916, 36.1036396], [-115.1485991, 36.1035281], [-115.1484394, 36.1034582], [-115.1470028, 36.10289], [-115.1464099, 36.1025138], [-115.1459511, 36.1019811], [-115.1458371, 36.1012335], [-115.1457615, 36.1011591], [-115.1456695, 36.1011306], [-115.1453624, 36.1011078], [-115.1450539, 36.1011049], [-115.138941, 36.1010968], [-115.1384452, 36.1011003], [-115.1383619, 36.1011179], [-115.138281, 36.1011318], [-115.1381054, 36.1011346], [-115.1379888, 36.1011266], [-115.1377964, 36.1011044], [-115.1378646, 36.102083], [-115.1380753, 36.1021671], [-115.1381882, 36.1021653], [-115.1382449, 36.1029216], [-115.138244, 36.1030678], [-115.1379866, 36.1030673], [-115.1380361, 36.1038585], [-115.1380625, 36.1043801], [-115.1373035, 36.1043646], [-115.1375124, 36.1071993], [-115.1375788, 36.1081011], [-115.1377796, 36.1110375]], [[-115.1394135, 36.1043695], [-115.139444, 36.1043756], [-115.1402529, 36.1043809], [-115.1402341, 36.1039875], [-115.1402195, 36.1037254], [-115.1402177, 36.1036831], [-115.1401684, 36.1028567], [-115.1400254, 36.102857], [-115.1393557, 36.1028586], [-115.1393587, 36.1028944], [-115.139291, 36.1028973], [-115.1393004, 36.1030412], [-115.1393466, 36.1036794], [-115.1393474, 36.1036921], [-115.139372, 36.1039977], [-115.1394006, 36.1043498], [-115.1394135, 36.1043695]], [[-115.1455061, 36.1112061], [-115.1453871, 36.1112089], [-115.1450316, 36.1112166], [-115.1450027, 36.1112172], [-115.1448783, 36.1112202], [-115.1448668, 36.1111975], [-115.1444834, 36.1112096], [-115.1443294, 36.1112137], [-115.1443298, 36.1112709], [-115.1443393, 36.1115406], [-115.144344, 36.1116441], [-115.1443472, 36.1117479], [-115.1443556, 36.1119096], [-115.1443628, 36.1119217], [-115.1443709, 36.1119318], [-115.1443788, 36.1119399], [-115.1443851, 36.1119467], [-115.1443888, 36.1119535], [-115.1443934, 36.1120987], [-115.1443903, 36.1121085], [-115.1443825, 36.1121232], [-115.1443691, 36.1121364], [-115.1443636, 36.1121556], [-115.1443688, 36.1123024], [-115.1443764, 36.1123024], [-115.1443843, 36.1123023], [-115.1443873, 36.1124022], [-115.144392, 36.1124336], [-115.1444005, 36.1124582], [-115.1444111, 36.1124708], [-115.1444359, 36.1124949], [-115.1444501, 36.112516], [-115.1444607, 36.1125532], [-115.1444696, 36.1127957], [-115.144486, 36.1132666], [-115.1444296, 36.1133883], [-115.1444266, 36.1134117], [-115.1444909, 36.1134087], [-115.1456688, 36.1133765], [-115.1456539, 36.1127649], [-115.1456864, 36.1125267], [-115.1456928, 36.1122463], [-115.1456565, 36.1117778], [-115.1455061, 36.1112061]]], [[[-115.1379055, 36.1128889], [-115.1381124, 36.1128555], [-115.1397771, 36.1128809], [-115.1400704, 36.1126305], [-115.1400658, 36.1126257], [-115.1400651, 36.1125166], [-115.139977, 36.1125151], [-115.1399745, 36.1125833], [-115.1397785, 36.1125807], [-115.1397871, 36.1120502], [-115.1398648, 36.1120421], [-115.1398651, 36.112028], [-115.1398665, 36.111947], [-115.1393553, 36.1119443], [-115.1392013, 36.1119416], [-115.1391143, 36.1119336], [-115.1389988, 36.1119123], [-115.1388789, 36.1118829], [-115.1387864, 36.1118491], [-115.1386827, 36.1118045], [-115.1385951, 36.1117574], [-115.138506, 36.1116948], [-115.1384301, 36.1116229], [-115.1383557, 36.1115456], [-115.1383062, 36.1115012], [-115.1382468, 36.1114505], [-115.1381569, 36.1113856], [-115.1381063, 36.1113528], [-115.1380441, 36.1113227], [-115.1379894, 36.1113026], [-115.1379347, 36.1112952], [-115.1379098, 36.1112959], [-115.1378841, 36.1113032], [-115.13786, 36.1113206], [-115.1378451, 36.1113421], [-115.1378334, 36.1113619], [-115.1378544, 36.1117022], [-115.1378497, 36.1117276], [-115.1378325, 36.1118064], [-115.1378316, 36.1118489], [-115.1379055, 36.1128889]]], [[[-115.1371542, 36.1064698], [-115.1360412, 36.1064565], [-115.1360943, 36.1063834], [-115.1362104, 36.1060529], [-115.1371344, 36.1060614], [-115.1371542, 36.1064698]]], [[[-115.1360566, 36.1072492], [-115.1354838, 36.107235], [-115.135427, 36.1074644], [-115.1354164, 36.1075627], [-115.1354374, 36.1076098], [-115.1354944, 36.1076238], [-115.136091, 36.1076397], [-115.1371248, 36.1076671], [-115.1371635, 36.1076616], [-115.1371975, 36.1076452], [-115.137214, 36.1076318], [-115.1372237, 36.1076177], [-115.1372334, 36.107595], [-115.1372334, 36.1075731], [-115.1372111, 36.1071863], [-115.1371685, 36.107186], [-115.1367521, 36.1071742], [-115.1367542, 36.1072522], [-115.1365211, 36.1072547], [-115.1363785, 36.1072586], [-115.1360566, 36.1072492]]], [[[-115.1436758, 36.1008058], [-115.1441326, 36.1008028], [-115.1457339, 36.1007876], [-115.1457771, 36.1007725], [-115.1458008, 36.1007373], [-115.1457982, 36.0999037], [-115.1447833, 36.0999107], [-115.1447682, 36.0989864], [-115.1440457, 36.0989925], [-115.1440477, 36.0988173], [-115.143655, 36.0988205], [-115.1436758, 36.1008058]]], [[[-115.1373449, 36.1107158], [-115.1373157, 36.1107156], [-115.1372875, 36.1107155], [-115.1372679, 36.1107154], [-115.13573, 36.1106977], [-115.1355584, 36.1106947], [-115.1355584, 36.1107029], [-115.1354248, 36.1107022], [-115.1354039, 36.1107031], [-115.1353751, 36.1102779], [-115.135405, 36.110279], [-115.1364109, 36.1102922], [-115.137273, 36.1103036], [-115.1372728, 36.1103189], [-115.1372879, 36.1103192], [-115.1374413, 36.11032], [-115.1374669, 36.110723], [-115.1374234, 36.1107632], [-115.1373457, 36.1107642], [-115.1373449, 36.1107158]]], [[[-115.1375197, 36.1115132], [-115.1365019, 36.1115083], [-115.1364881, 36.1112051], [-115.1368372, 36.1112104], [-115.1370658, 36.111213], [-115.1372059, 36.1112166], [-115.1373722, 36.1112272], [-115.1374357, 36.1112351], [-115.1374783, 36.1112519], [-115.1375046, 36.1112855], [-115.1375197, 36.1115132]]], [[[-115.1369262, 36.1032771], [-115.1369471, 36.1035781], [-115.1370041, 36.1042142], [-115.1365541, 36.1042279], [-115.1365548, 36.1042384], [-115.1364576, 36.1042435], [-115.1361686, 36.1042585], [-115.1361412, 36.1042599], [-115.1361397, 36.1042405], [-115.1359808, 36.104249], [-115.1359663, 36.1039909], [-115.1359912, 36.103974], [-115.136021, 36.103948], [-115.1360397, 36.1039206], [-115.1360247, 36.1037287], [-115.1359929, 36.1032617], [-115.1369262, 36.1032771]]], [[[-115.1365665, 36.1144337], [-115.1357076, 36.1144359], [-115.1356153, 36.1143349], [-115.1355603, 36.1134769], [-115.1356806, 36.1134726], [-115.1358839, 36.1134642], [-115.1362962, 36.1134472], [-115.1363419, 36.1141703], [-115.1365637, 36.1143174], [-115.1365665, 36.1144337]]]]}}