{"type": "Feature", "properties": {"market_key": 1063, "university": "California Polytechnic State University San Luis Obispo", "osm_type": "way", "osm_id": 290467779, "osm_name": "California Polytechnic State University"}, "geometry": {"type": "Polygon", "coordinates": [[[-120.6756964, 35.3122887], [-120.6755021, 35.3122929], [-120.6750686, 35.3123068], [-120.6748633, 35.3122947], [-120.6737962, 35.3122912], [-120.6721717, 35.3122875], [-120.6718347, 35.3122871], [-120.6702082, 35.3122949], [-120.6690712, 35.312299], [-120.6678709, 35.3122972], [-120.6671252, 35.3122961], [-120.667062, 35.3125171], [-120.6670541, 35.3172254], [-120.666233, 35.3171326], [-120.6650078, 35.3183799], [-120.6635154, 35.3194863], [-120.6629019, 35.3197565], [-120.661718, 35.3199605], [-120.6602771, 35.3200054], [-120.6600299, 35.3198144], [-120.6592607, 35.3192557], [-120.6588343, 35.3190674], [-120.658142, 35.3192303], [-120.6579704, 35.3182314], [-120.6575476, 35.3175615], [-120.6575243, 35.3175234], [-120.6571097, 35.3168453], [-120.6569078, 35.3164851], [-120.6566689, 35.3160936], [-120.6561708, 35.3152098], [-120.6544533, 35.3134621], [-120.6539203, 35.3130392], [-120.6535819, 35.3128095], [-120.6516865, 35.3134422], [-120.6513526, 35.3132686], [-120.6506776, 35.3138641], [-120.6493202, 35.3130681], [-120.6493326, 35.296004], [-120.6529557, 35.2960384], [-120.6529563, 35.2961047], [-120.6533033, 35.296109], [-120.6580499, 35.2961672], [-120.658202, 35.2962511], [-120.658272, 35.296371], [-120.6583394, 35.2974045], [-120.6597998, 35.297011], [-120.6597761, 35.2969393], [-120.6601285, 35.2972398], [-120.6602268, 35.2971739], [-120.6602842, 35.2972106], [-120.6605946, 35.2977783], [-120.6621855, 35.2971947], [-120.6649887, 35.2961693], [-120.665134, 35.2963972], [-120.6653021, 35.2967583], [-120.665332, 35.2969225], [-120.6653568, 35.297082], [-120.6653762, 35.2971461], [-120.6655034, 35.2973153], [-120.6659583, 35.2989472], [-120.6669684, 35.2987835], [-120.6669617, 35.2977651], [-120.6687708, 35.2977885], [-120.6687648, 35.2973529], [-120.6689764, 35.297401], [-120.6690887, 35.2972841], [-120.6691399, 35.2972308], [-120.6693027, 35.2970613], [-120.6695319, 35.2970431], [-120.6695677, 35.2961867], [-120.6724733, 35.2977248], [-120.673409, 35.2983986], [-120.6737307, 35.2989072], [-120.6748067, 35.2997231], [-120.6752183, 35.3003005], [-120.6755618, 35.3008455], [-120.6760745, 35.3019054], [-120.6767096, 35.3032721], [-120.6770692, 35.3040882], [-120.6772698, 35.3043972], [-120.6775691, 35.3049593], [-120.6780536, 35.3057044], [-120.6786454, 35.3063583], [-120.6792807, 35.3068982], [-120.6806641, 35.3080264], [-120.6806038, 35.3081465], [-120.6803801, 35.3086261], [-120.6803599, 35.3087212], [-120.6803714, 35.3093564], [-120.6803087, 35.3122698], [-120.6802806, 35.3122801], [-120.6799505, 35.3122773], [-120.6795887, 35.3122768], [-120.6766833, 35.3122914], [-120.6761682, 35.3122931], [-120.6760783, 35.3123004], [-120.6756964, 35.3122887]]]}}