{"type": "Feature", "properties": {"market_key": 1065, "university": "University of New Mexico", "osm_type": "way", "osm_id": 305072242, "osm_name": "University of New Mexico"}, "geometry": {"type": "Polygon", "coordinates": [[[-106.6134235, 35.081111], [-106.6183117, 35.081119], [-106.622384, 35.0811508], [-106.6241051, 35.0811584], [-106.6265835, 35.081481], [-106.6269845, 35.0815099], [-106.628583, 35.0817039], [-106.6285065, 35.0821314], [-106.6291967, 35.0822104], [-106.6291203, 35.0826123], [-106.6284765, 35.0825349], [-106.6284605, 35.0826174], [-106.6268048, 35.0824019], [-106.6264907, 35.082361], [-106.6262952, 35.0833507], [-106.6259448, 35.0841836], [-106.6258103, 35.0846158], [-106.6258001, 35.0846718], [-106.6255872, 35.0858367], [-106.6255656, 35.0859635], [-106.6252282, 35.0878197], [-106.6251772, 35.0891646], [-106.6262356, 35.0892973], [-106.6281171, 35.0901438], [-106.6274216, 35.0911457], [-106.6251333, 35.0900782], [-106.6198029, 35.0876062], [-106.6189883, 35.0874232], [-106.6183636, 35.0873344], [-106.6178297, 35.0873056], [-106.6177625, 35.087302], [-106.614961, 35.0873215], [-106.6149946, 35.0856517], [-106.6138586, 35.0851059], [-106.6136454, 35.0850035], [-106.6132469, 35.0848542], [-106.6132589, 35.0837758], [-106.6132676, 35.0824138], [-106.6133143, 35.0819487], [-106.6134134, 35.0811329], [-106.6134235, 35.081111]]]}}