{"type": "Feature", "properties": {"market_key": 1066, "university": "West Texas A&M University", "osm_type": "way", "osm_id": 334335820, "osm_name": "West Texas A&M University"}, "geometry": {"type": "Polygon", "coordinates": [[[-101.9187307, 34.9803746], [-101.9187305, 34.980226], [-101.9182235, 34.9802297], [-101.918208, 34.9788072], [-101.9159644, 34.9788084], [-101.9159667, 34.9798978], [-101.9129125, 34.9798881], [-101.9129125, 34.9803108], [-101.9137402, 34.980316], [-101.9137373, 34.9807755], [-101.9130363, 34.9807702], [-101.9130307, 34.9815816], [-101.9125397, 34.9815854], [-101.9125303, 34.982118], [-101.9102311, 34.9820913], [-101.9102174, 34.9833336], [-101.9085462, 34.983286], [-101.9085045, 34.9847946], [-101.908067, 34.9847129], [-101.9075931, 34.9846001], [-101.9071972, 34.9844511], [-101.9050644, 34.9833972], [-101.9041151, 34.9847317], [-101.906534, 34.9859315], [-101.9078978, 34.9863021], [-101.9078702, 34.987432], [-101.9091192, 34.9874566], [-101.9091891, 34.9881686], [-101.9092646, 34.988435], [-101.9093495, 34.9886533], [-101.9097846, 34.9896264], [-101.9070161, 34.9902185], [-101.9069979, 34.9920904], [-101.9100426, 34.9920907], [-101.9100597, 34.9907959], [-101.9122684, 34.9907891], [-101.912259, 34.9894059], [-101.913906, 34.9894273], [-101.9142491, 34.9889443], [-101.9146003, 34.98855], [-101.9155045, 34.9879828], [-101.9166257, 34.9872215], [-101.9170888, 34.986935], [-101.9171089, 34.9846854], [-101.9192041, 34.9846854], [-101.919233, 34.9803686], [-101.9187307, 34.9803746]]]}}