{"type": "Feature", "properties": {"market_key": 1069, "university": "University of California Irvine", "osm_type": "way", "osm_id": 35154092, "osm_name": "University of California, Irvine"}, "geometry": {"type": "Polygon", "coordinates": [[[-117.8418968, 33.6316041], [-117.8440578, 33.6320945], [-117.8442176, 33.6320793], [-117.8442486, 33.6320288], [-117.8450958, 33.6322459], [-117.8453127, 33.6323529], [-117.846019, 33.6325224], [-117.8464441, 33.6326519], [-117.8469348, 33.6328936], [-117.8471485, 33.6329681], [-117.8475513, 33.6332627], [-117.8477508, 33.6333296], [-117.8486012, 33.6333496], [-117.848811, 33.6333818], [-117.8489346, 33.6334201], [-117.8489201, 33.6334704], [-117.8495825, 33.6337045], [-117.8509012, 33.6344292], [-117.8522334, 33.6353701], [-117.8534867, 33.6363686], [-117.8534418, 33.6364155], [-117.8538457, 33.6367188], [-117.8551535, 33.6379624], [-117.8551447, 33.6380668], [-117.8550785, 33.6381085], [-117.8553919, 33.6383937], [-117.8554866, 33.6383542], [-117.8556785, 33.6383912], [-117.8568185, 33.6394242], [-117.8569265, 33.6397185], [-117.8572519, 33.6400413], [-117.8576662, 33.6414055], [-117.8586963, 33.6437082], [-117.8586356, 33.6438187], [-117.8586595, 33.6439164], [-117.8588273, 33.6439861], [-117.8590253, 33.6444715], [-117.8592956, 33.6452734], [-117.8595338, 33.646373], [-117.8596222, 33.6469198], [-117.8596255, 33.6471203], [-117.8596124, 33.6472477], [-117.8595748, 33.6474227], [-117.8595364, 33.6475434], [-117.8594548, 33.6477388], [-117.8593209, 33.6479024], [-117.8592341, 33.6479987], [-117.8591291, 33.6480698], [-117.8590419, 33.6481103], [-117.8588987, 33.6481781], [-117.8587855, 33.6482454], [-117.8586919, 33.648328], [-117.8586226, 33.6484305], [-117.8585108, 33.648706], [-117.8584554, 33.648939], [-117.8584108, 33.6491879], [-117.858392, 33.6494785], [-117.8583972, 33.6497823], [-117.8584344, 33.6501292], [-117.8583738, 33.6501919], [-117.8563806, 33.6503549], [-117.855999, 33.6503629], [-117.8547671, 33.6504561], [-117.8536204, 33.6505653], [-117.8535456, 33.6505124], [-117.8531775, 33.6505437], [-117.8531115, 33.6506094], [-117.8524881, 33.6506948], [-117.8522281, 33.6507352], [-117.8518824, 33.6507957], [-117.851472, 33.6508847], [-117.850958, 33.6510154], [-117.8505966, 33.6511243], [-117.8501173, 33.6512868], [-117.850107, 33.6513029], [-117.8496715, 33.6514597], [-117.8492031, 33.6516473], [-117.848741, 33.6518489], [-117.8483949, 33.6520179], [-117.8476991, 33.6523932], [-117.8475342, 33.6524671], [-117.8470775, 33.6527432], [-117.8469932, 33.6527325], [-117.8467774, 33.6528862], [-117.8467919, 33.6529014], [-117.846765, 33.6529958], [-117.8464739, 33.6532193], [-117.8462107, 33.6534182], [-117.8461893, 33.6534344], [-117.8461701, 33.6534488], [-117.8457302, 33.6538103], [-117.8452916, 33.6542155], [-117.8452305, 33.6542603], [-117.8447464, 33.6546976], [-117.8446117, 33.6547012], [-117.8438665, 33.6541476], [-117.8434489, 33.6538319], [-117.8433184, 33.6537275], [-117.8431897, 33.6536173], [-117.8430803, 33.6535129], [-117.8429638, 33.6533908], [-117.8428604, 33.6532738], [-117.8427518, 33.6531311], [-117.8426686, 33.6530141], [-117.8425872, 33.6528828], [-117.8425145, 33.6527503], [-117.8424456, 33.6526133], [-117.8423915, 33.6524839], [-117.8423342, 33.6523285], [-117.8422881, 33.6521804], [-117.8422535, 33.6520353], [-117.8422004, 33.6517464], [-117.8421645, 33.6515888], [-117.8421211, 33.6514404], [-117.8420538, 33.6512536], [-117.8420147, 33.6511624], [-117.8419477, 33.6510152], [-117.8418739, 33.6508743], [-117.8418394, 33.6508168], [-117.8417947, 33.6507422], [-117.8417071, 33.6506088], [-117.8416162, 33.6504827], [-117.8415108, 33.6503528], [-117.8414108, 33.6502383], [-117.8412977, 33.6501231], [-117.8411792, 33.650008], [-117.8410569, 33.6499022], [-117.8409249, 33.6497964], [-117.8408202, 33.6497183], [-117.8407036, 33.649638], [-117.8405413, 33.6495331], [-117.83919, 33.6486765], [-117.8389339, 33.6485209], [-117.8387518, 33.6484181], [-117.8385734, 33.6483256], [-117.8383883, 33.6482403], [-117.8381641, 33.6481448], [-117.8379737, 33.6480704], [-117.8377839, 33.6480054], [-117.8375795, 33.6479415], [-117.8373676, 33.6478849], [-117.8371555, 33.6478343], [-117.8369479, 33.6477921], [-117.836735, 33.6477561], [-117.8365091, 33.6477268], [-117.8362893, 33.6477056], [-117.8360835, 33.64769], [-117.8358089, 33.6476835], [-117.8356404, 33.6476839], [-117.8355673, 33.647686], [-117.8354839, 33.6476883], [-117.8354233, 33.64769], [-117.8352316, 33.6477022], [-117.8349859, 33.6477254], [-117.8347657, 33.6477538], [-117.8345507, 33.6477896], [-117.8342751, 33.647845], [-117.8302741, 33.6487081], [-117.8275879, 33.6492876], [-117.8247335, 33.6499034], [-117.8246379, 33.6498712], [-117.8235607, 33.6480818], [-117.8228799, 33.6469001], [-117.8226783, 33.6465407], [-117.8224952, 33.6461505], [-117.8223437, 33.6457647], [-117.8222089, 33.6453742], [-117.8220862, 33.64493], [-117.8219959, 33.6444448], [-117.82195, 33.6439964], [-117.8219288, 33.6436066], [-117.8219399, 33.6432201], [-117.8219909, 33.6426736], [-117.8221131, 33.6426009], [-117.8221359, 33.6424365], [-117.8220498, 33.6423615], [-117.8220902, 33.642146], [-117.8221426, 33.6419305], [-117.8222031, 33.6417195], [-117.8222883, 33.6414394], [-117.8224466, 33.6410319], [-117.8226315, 33.6406356], [-117.8228132, 33.6402909], [-117.8229654, 33.6400368], [-117.8256622, 33.6360413], [-117.8258987, 33.6357055], [-117.825981, 33.6356058], [-117.8260796, 33.6354965], [-117.826168, 33.6353952], [-117.8262826, 33.6352778], [-117.8264088, 33.6351642], [-117.826534, 33.6350564], [-117.8266697, 33.6349548], [-117.8268147, 33.634857], [-117.8269347, 33.634776], [-117.8270618, 33.6346989], [-117.8272116, 33.6347171], [-117.827342, 33.6346481], [-117.8273323, 33.6346325], [-117.8274685, 33.6345603], [-117.8274895, 33.6344654], [-117.8276374, 33.6343936], [-117.8277985, 33.6343242], [-117.8279393, 33.6342699], [-117.8280815, 33.6342203], [-117.8282475, 33.634167], [-117.8284003, 33.6341288], [-117.8285674, 33.6340905], [-117.8287298, 33.6340591], [-117.8289061, 33.6340357], [-117.8290673, 33.6340177], [-117.8309723, 33.6339156], [-117.8327573, 33.6338244], [-117.8341843, 33.6337528], [-117.8343812, 33.633735], [-117.8345535, 33.6337172], [-117.8347866, 33.6336861], [-117.8350405, 33.6336478], [-117.8352733, 33.6336049], [-117.8354455, 33.6335708], [-117.8356489, 33.6335242], [-117.8378715, 33.6329767], [-117.8381196, 33.632913], [-117.8383678, 33.6328416], [-117.8397313, 33.6324115], [-117.840123, 33.6322952], [-117.8404871, 33.6321673], [-117.840973, 33.6319625], [-117.8413527, 33.6317692], [-117.8415674, 33.6316515], [-117.8418968, 33.6316041]]]}}