{"type": "Feature", "properties": {"market_key": 107, "university": "Temple University", "osm_type": "way", "osm_id": 509782889, "osm_name": "Temple University"}, "geometry": {"type": "Polygon", "coordinates": [[[-75.1571106, 39.9864049], [-75.1563827, 39.9863125], [-75.1562127, 39.9862918], [-75.1563336, 39.9857356], [-75.1550693, 39.9855732], [-75.1551046, 39.9854274], [-75.1553071, 39.9845912], [-75.1553243, 39.9845203], [-75.1528341, 39.9841952], [-75.1527842, 39.9841883], [-75.1524966, 39.9841485], [-75.1524116, 39.9841367], [-75.1520499, 39.9840866], [-75.1520657, 39.9840143], [-75.1521267, 39.9837358], [-75.152278, 39.9830442], [-75.1523587, 39.9826754], [-75.1523703, 39.9826222], [-75.1522538, 39.9826081], [-75.1519828, 39.9825752], [-75.1516766, 39.9825376], [-75.151582, 39.9825265], [-75.151594, 39.9824721], [-75.1517548, 39.981742], [-75.1520537, 39.9803766], [-75.1522066, 39.9796741], [-75.1522246, 39.9795918], [-75.1522378, 39.9795314], [-75.1538123, 39.9797435], [-75.1538244, 39.9796906], [-75.1538945, 39.9793834], [-75.1539336, 39.9791742], [-75.1543031, 39.977485], [-75.1544552, 39.9767881], [-75.1570585, 39.9771252], [-75.1584929, 39.9773102], [-75.1598547, 39.9774862], [-75.1600751, 39.976536], [-75.1601128, 39.9763831], [-75.160186, 39.976086], [-75.1607619, 39.9761412], [-75.160962, 39.976164], [-75.1609476, 39.9762305], [-75.1607578, 39.9771037], [-75.1607014, 39.9773635], [-75.1604491, 39.9785038], [-75.160005, 39.98053], [-75.160798, 39.980634], [-75.1602508, 39.983429], [-75.1602195, 39.9835889], [-75.1602094, 39.9836402], [-75.1578566, 39.9833347], [-75.1571106, 39.9864049]]]}}