{"type": "Feature", "properties": {"market_key": 1084, "university": "California State University Fullerton", "osm_type": "way", "osm_id": 32025397, "osm_name": "California State University Fullerton"}, "geometry": {"type": "Polygon", "coordinates": [[[-117.8819661, 33.8883922], [-117.8832638, 33.8887709], [-117.883489, 33.8888277], [-117.8837253, 33.8888577], [-117.885405, 33.8888383], [-117.8854692, 33.8888002], [-117.8857314, 33.8887964], [-117.885776, 33.8888369], [-117.8860954, 33.8888232], [-117.8864232, 33.8888023], [-117.8868889, 33.8887173], [-117.887159, 33.8886436], [-117.8874637, 33.8885458], [-117.8874879, 33.8884976], [-117.8876588, 33.8884405], [-117.8876889, 33.8884553], [-117.8886011, 33.8881136], [-117.8888432, 33.8880356], [-117.8890851, 33.8879714], [-117.8894051, 33.887913], [-117.8898257, 33.8878572], [-117.889864, 33.8878387], [-117.8898896, 33.8878104], [-117.8899044, 33.8877778], [-117.8896786, 33.8863923], [-117.8896357, 33.8863614], [-117.8896238, 33.8862049], [-117.8896426, 33.8861753], [-117.8896111, 33.8846994], [-117.8895924, 33.8846709], [-117.8895928, 33.884544], [-117.889603, 33.8845071], [-117.8895998, 33.8837123], [-117.8895827, 33.8836885], [-117.8895505, 33.8836701], [-117.8895455, 33.8834843], [-117.8895576, 33.8834562], [-117.8895476, 33.8827316], [-117.8895181, 33.8826818], [-117.889517, 33.8825347], [-117.8895434, 33.8825151], [-117.8895429, 33.8822398], [-117.8895722, 33.8821673], [-117.8895525, 33.8816644], [-117.8895233, 33.8816138], [-117.8894705, 33.8813981], [-117.8895251, 33.8813479], [-117.8895184, 33.8809872], [-117.8895203, 33.8809519], [-117.8895458, 33.8809023], [-117.8895505, 33.8808816], [-117.8895462, 33.8805401], [-117.8895302, 33.8797488], [-117.8895155, 33.8797322], [-117.8894924, 33.879724], [-117.8894505, 33.8795049], [-117.8894836, 33.879496], [-117.8894953, 33.8794798], [-117.8894861, 33.8790812], [-117.8894871, 33.8790569], [-117.8895103, 33.8789923], [-117.8895155, 33.8789724], [-117.8895024, 33.8779287], [-117.889478, 33.8778885], [-117.8894176, 33.8778653], [-117.8890203, 33.8778854], [-117.8886244, 33.8779446], [-117.888424, 33.8779879], [-117.8883789, 33.8780246], [-117.8881158, 33.8780893], [-117.8880732, 33.878077], [-117.8877093, 33.8781713], [-117.8872904, 33.8782389], [-117.8870466, 33.8782595], [-117.8867316, 33.8782626], [-117.8866979, 33.8782777], [-117.8866826, 33.8782976], [-117.8866621, 33.8782899], [-117.8864834, 33.8782899], [-117.8864747, 33.8782765], [-117.886446, 33.8782641], [-117.8830773, 33.8782733], [-117.8829957, 33.8783459], [-117.8829951, 33.8786591], [-117.8829834, 33.8787648], [-117.8829642, 33.8788484], [-117.882944, 33.8789273], [-117.8829192, 33.8789988], [-117.8828831, 33.8790781], [-117.8827019, 33.8794241], [-117.8823742, 33.8793208], [-117.882258, 33.8795678], [-117.8810373, 33.8795749], [-117.8809332, 33.879846], [-117.8808926, 33.8801104], [-117.8808714, 33.8806962], [-117.8808289, 33.8813623], [-117.8809942, 33.8872124], [-117.8810478, 33.8874711], [-117.8811512, 33.8877606], [-117.8813284, 33.8879936], [-117.8815983, 33.8882244], [-117.8819661, 33.8883922]]]}}