{"type": "Feature", "properties": {"market_key": 109, "university": "George Washington University", "osm_type": "relation", "osm_id": 20575884, "osm_name": "The George Washington University"}, "geometry": {"type": "MultiPolygon", "coordinates": [[[[-77.0482081, 38.9031182], [-77.0478649, 38.9031156], [-77.0478613, 38.9026988], [-77.048218, 38.9027051], [-77.0482081, 38.9031182]]], [[[-77.0527539, 38.8968721], [-77.05269, 38.897035], [-77.0526334, 38.8972499], [-77.0526195, 38.8974304], [-77.0525884, 38.8977551], [-77.0527273, 38.8982138], [-77.0526372, 38.8983786], [-77.0515304, 38.8977677], [-77.0513758, 38.8980131], [-77.0514024, 38.9023566], [-77.0509335, 38.9023483], [-77.0508557, 38.9022481], [-77.0507645, 38.9021479], [-77.0505043, 38.9019705], [-77.0503192, 38.9018995], [-77.0501119, 38.901882], [-77.0501118, 38.901719], [-77.0501134, 38.9015582], [-77.0501142, 38.9014823], [-77.0501144, 38.9014379], [-77.0501159, 38.9011641], [-77.050118, 38.9007777], [-77.0501185, 38.9006994], [-77.0489521, 38.9006956], [-77.0488308, 38.9006951], [-77.04883, 38.9008234], [-77.0488286, 38.9010009], [-77.0488253, 38.9014475], [-77.0488217, 38.9019154], [-77.0467787, 38.9012127], [-77.0467948, 38.9006157], [-77.0450192, 38.9006199], [-77.0450117, 38.897833], [-77.0444305, 38.8978409], [-77.0444317, 38.8972755], [-77.0435875, 38.8972723], [-77.0435884, 38.8963456], [-77.0436294, 38.8961226], [-77.0447943, 38.8961196], [-77.044802, 38.8964196], [-77.0447872, 38.8964199], [-77.0446133, 38.8964193], [-77.0444584, 38.8964188], [-77.0442641, 38.8964181], [-77.0442627, 38.8966673], [-77.0447859, 38.896669], [-77.044802, 38.8966712], [-77.0448123, 38.8974397], [-77.0467661, 38.8974462], [-77.0467592, 38.8969179], [-77.0470632, 38.896919], [-77.0470605, 38.8973591], [-77.0473581, 38.8973593], [-77.0477002, 38.8973596], [-77.0477031, 38.8972503], [-77.047703, 38.897221], [-77.0477026, 38.8970288], [-77.0477025, 38.8970079], [-77.0480442, 38.8970094], [-77.0480466, 38.8972501], [-77.0480445, 38.8973598], [-77.0480803, 38.8973598], [-77.0482378, 38.89736], [-77.048237, 38.8970211], [-77.048294, 38.8970205], [-77.048286, 38.89736], [-77.0488697, 38.8973651], [-77.0488999, 38.896683], [-77.0489176, 38.8966588], [-77.0489522, 38.8966562], [-77.0492493, 38.8968132], [-77.0492297, 38.8970567], [-77.0493403, 38.8970548], [-77.0493597, 38.8974063], [-77.0502865, 38.8974227], [-77.0502506, 38.8961327], [-77.0503062, 38.8960846], [-77.0509017, 38.8960768], [-77.0520309, 38.8961776], [-77.0522849, 38.8961977], [-77.0524202, 38.8962335], [-77.0525561, 38.8963095], [-77.0526325, 38.8963602], [-77.052703, 38.8964208], [-77.0527572, 38.8965139], [-77.0527854, 38.8966211], [-77.0527956, 38.8966783], [-77.0527944, 38.8967475], [-77.0527539, 38.8968721]]], [[[-77.0460532, 38.9027153], [-77.0465203, 38.9027196], [-77.0465195, 38.9030577], [-77.0460485, 38.9030591], [-77.0460532, 38.9027153]]], [[[-77.0465088, 38.9018981], [-77.0465129, 38.9023407], [-77.0455397, 38.9023461], [-77.0455357, 38.9019035], [-77.0465088, 38.9018981]]], [[[-77.0560009, 38.9006533], [-77.0559861, 38.9006527], [-77.0555905, 38.9006524], [-77.055541, 38.9006524], [-77.05545, 38.9006321], [-77.0553303, 38.9005687], [-77.0543502, 38.8995861], [-77.0543451, 38.8995734], [-77.0559986, 38.9004733], [-77.0560009, 38.9006533]]], [[[-77.0398028, 38.8954813], [-77.040675, 38.8954787], [-77.0406738, 38.8955752], [-77.0406291, 38.8956596], [-77.0405551, 38.8959108], [-77.0401672, 38.8959154], [-77.0400435, 38.8959629], [-77.0400434, 38.8960339], [-77.0401123, 38.8961699], [-77.0401825, 38.8963164], [-77.0400914, 38.896344], [-77.0400245, 38.8963498], [-77.039608, 38.8963502], [-77.0395981, 38.8963496], [-77.0395888, 38.8963491], [-77.0395644, 38.8963358], [-77.0395526, 38.8963256], [-77.0395446, 38.8963052], [-77.0395446, 38.8962609], [-77.0395534, 38.8955224], [-77.0395643, 38.8954948], [-77.039608, 38.8954757], [-77.0396461, 38.8954736], [-77.0398028, 38.8954813]]]]}}