{"type": "Feature", "properties": {"market_key": 1090, "university": "Lehigh University", "osm_type": "relation", "osm_id": 2597692, "osm_name": "Lehigh University Asa Packer Campus"}, "geometry": {"type": "MultiPolygon", "coordinates": [[[[-75.37962, 40.6097099], [-75.3795925, 40.6091235], [-75.3795112, 40.6080554], [-75.3809794, 40.6078978], [-75.3811656, 40.6078685], [-75.381178, 40.6079385], [-75.3815636, 40.6101086], [-75.3821063, 40.6100835], [-75.3818412, 40.6081963], [-75.3819696, 40.60819], [-75.3823301, 40.6081648], [-75.3823108, 40.6080273], [-75.3827723, 40.6079889], [-75.3827179, 40.6076542], [-75.3824928, 40.6077097], [-75.38244, 40.607566], [-75.3821495, 40.6067193], [-75.3821282, 40.6063544], [-75.3809441, 40.6067732], [-75.3809463, 40.6061646], [-75.3822536, 40.6057146], [-75.3822416, 40.6046945], [-75.38223, 40.6037104], [-75.3822293, 40.6036545], [-75.3834566, 40.6036415], [-75.3834824, 40.6016734], [-75.3835155, 40.6008749], [-75.3817247, 40.6008855], [-75.381595, 40.6008863], [-75.3803801, 40.6008935], [-75.3736073, 40.6005736], [-75.3734793, 40.6005676], [-75.3734099, 40.6003011], [-75.3733832, 40.6001985], [-75.3728728, 40.5982369], [-75.372852, 40.598157], [-75.3721487, 40.5982428], [-75.3690796, 40.5986174], [-75.3673287, 40.5988322], [-75.3672224, 40.5987583], [-75.3670143, 40.5986137], [-75.3664362, 40.5989072], [-75.3653632, 40.5991689], [-75.3629689, 40.5997509], [-75.3617415, 40.5996011], [-75.3613541, 40.5996969], [-75.3577073, 40.6005982], [-75.3569178, 40.6010543], [-75.3569006, 40.6018364], [-75.3573297, 40.6023056], [-75.3583941, 40.6025989], [-75.3588231, 40.6029573], [-75.3582911, 40.6038695], [-75.3582942, 40.6040203], [-75.3583168, 40.6051207], [-75.3587757, 40.6059458], [-75.3592383, 40.606209], [-75.3597502, 40.6062481], [-75.3602925, 40.6062276], [-75.3605504, 40.6061102], [-75.3607201, 40.6060329], [-75.3611428, 40.6056534], [-75.3613031, 40.6051867], [-75.3626935, 40.6049521], [-75.3636634, 40.6044502], [-75.3644537, 40.6037841], [-75.3646023, 40.6036589], [-75.364908, 40.6034012], [-75.3666847, 40.6030687], [-75.3669739, 40.6030896], [-75.3674055, 40.6031209], [-75.3687961, 40.6034532], [-75.3687806, 40.6039584], [-75.3687789, 40.6040136], [-75.3690062, 40.6040637], [-75.3696371, 40.6042026], [-75.3708389, 40.6043786], [-75.3720233, 40.6042808], [-75.3730705, 40.6039224], [-75.3731383, 40.6039736], [-75.3732403, 40.6040506], [-75.3733887, 40.6041627], [-75.3735313, 40.605107], [-75.3735775, 40.6054127], [-75.3726677, 40.6056929], [-75.3706966, 40.6057678], [-75.3705744, 40.6058247], [-75.3705508, 40.6058606], [-75.3706079, 40.605877], [-75.3707064, 40.6059354], [-75.3717565, 40.6067101], [-75.3711757, 40.6071269], [-75.3717845, 40.6075877], [-75.3718331, 40.6076284], [-75.3718635, 40.6076714], [-75.3718796, 40.6077035], [-75.3718713, 40.6081217], [-75.3718764, 40.608263], [-75.3718878, 40.608514], [-75.3718997, 40.6086165], [-75.3719097, 40.6086382], [-75.3719284, 40.6086561], [-75.3722353, 40.6087857], [-75.3722681, 40.6087895], [-75.3730626, 40.6087726], [-75.3730518, 40.6086333], [-75.3738048, 40.6085641], [-75.373812, 40.6087494], [-75.3743871, 40.6087349], [-75.3758675, 40.6086955], [-75.3758999, 40.609813], [-75.377074, 40.609784], [-75.3782157, 40.6097516], [-75.37962, 40.6097099]]], [[[-75.3798427, 40.6098393], [-75.379858, 40.6101521], [-75.3803298, 40.6101388], [-75.3803146, 40.6098261], [-75.3798427, 40.6098393]]]]}}