{"type": "Feature", "properties": {"market_key": 1099, "university": "Colorado State University", "osm_type": "relation", "osm_id": 8539568, "osm_name": "Colorado State University"}, "geometry": {"type": "MultiPolygon", "coordinates": [[[[-105.0956964, 40.5780688], [-105.0944521, 40.5780641], [-105.0942852, 40.5780605], [-105.0932578, 40.5780462], [-105.0926594, 40.5780379], [-105.0925581, 40.5780207], [-105.0924974, 40.5780075], [-105.0877769, 40.5779913], [-105.0809641, 40.5779712], [-105.0806872, 40.5779734], [-105.0773391, 40.5779619], [-105.0773717, 40.57374], [-105.0773069, 40.5736163], [-105.0772096, 40.5732507], [-105.0772183, 40.5711004], [-105.0772124, 40.5708989], [-105.0771903, 40.5705365], [-105.0772208, 40.5704132], [-105.0771895, 40.5699341], [-105.0755127, 40.569945], [-105.0755256, 40.5708334], [-105.0755258, 40.5708662], [-105.0755259, 40.5708732], [-105.0755136, 40.5708792], [-105.075471, 40.5708802], [-105.0754343, 40.5708888], [-105.0721817, 40.5708911], [-105.0721907, 40.5688392], [-105.0791441, 40.5688258], [-105.0791388, 40.5672134], [-105.0839333, 40.5672425], [-105.0838858, 40.5655167], [-105.0836508, 40.5655161], [-105.0817119, 40.5655109], [-105.0817167, 40.5645011], [-105.082333, 40.5646567], [-105.0825876, 40.564711], [-105.0829205, 40.5646837], [-105.0837216, 40.564467], [-105.0839832, 40.564307], [-105.0841666, 40.5634628], [-105.084475, 40.5633595], [-105.0847255, 40.5633489], [-105.0854586, 40.5632553], [-105.0859004, 40.5632951], [-105.086476, 40.563263], [-105.0864954, 40.5644776], [-105.0864855, 40.5645874], [-105.0864774, 40.5651239], [-105.0864703, 40.5656779], [-105.086451, 40.5670826], [-105.086451, 40.5672941], [-105.0867832, 40.5672956], [-105.086807, 40.5673175], [-105.0867997, 40.5686499], [-105.0867776, 40.568678], [-105.0867456, 40.5686847], [-105.0867459, 40.5688748], [-105.0912153, 40.5688867], [-105.0914042, 40.5689142], [-105.0919207, 40.5689204], [-105.0923803, 40.568929], [-105.0926519, 40.5689004], [-105.0926621, 40.5697668], [-105.0936153, 40.5697719], [-105.093619, 40.5690521], [-105.095234, 40.5690678], [-105.095237, 40.5699547], [-105.094534, 40.5699546], [-105.0944613, 40.5699584], [-105.093615, 40.5699502], [-105.093599, 40.5707768], [-105.0935972, 40.5708698], [-105.0956538, 40.5708723], [-105.0958652, 40.5708712], [-105.0957865, 40.5780188], [-105.0956964, 40.5780688]]], [[[-105.0960883, 40.5778458], [-105.0972937, 40.577859], [-105.0972756, 40.5788858], [-105.0972603, 40.5789109], [-105.0961335, 40.5788978], [-105.0960557, 40.5788709], [-105.0960665, 40.5785829], [-105.0960871, 40.5784882], [-105.0960883, 40.5778458]]], [[[-105.0871335, 40.5584741], [-105.0870868, 40.5585734], [-105.0869374, 40.5587969], [-105.0867342, 40.5590081], [-105.0853286, 40.5601718], [-105.0851021, 40.5603598], [-105.0845113, 40.5608494], [-105.0844179, 40.5607856], [-105.0842872, 40.5607465], [-105.0840933, 40.5607412], [-105.0838365, 40.5607927], [-105.0836871, 40.5608122], [-105.083589, 40.5608033], [-105.0834395, 40.5607802], [-105.083143, 40.5607944], [-105.0824121, 40.560908], [-105.0823047, 40.5609186], [-105.0821786, 40.5608867], [-105.081777, 40.560727], [-105.0816673, 40.5606844], [-105.0814992, 40.5606667], [-105.0811746, 40.5606844], [-105.0809084, 40.5607359], [-105.0806282, 40.5608406], [-105.0803177, 40.5610304], [-105.08017, 40.5611368], [-105.0800441, 40.5611697], [-105.0798775, 40.5611582], [-105.0801002, 40.5597877], [-105.0801236, 40.5594799], [-105.0801449, 40.558765], [-105.0801799, 40.5574061], [-105.0803038, 40.5533329], [-105.0803251, 40.5532215], [-105.0803751, 40.5531637], [-105.080443, 40.5531663], [-105.0810103, 40.5531693], [-105.0810116, 40.5531107], [-105.0809962, 40.5531102], [-105.0810002, 40.5528055], [-105.0843367, 40.5527928], [-105.0858322, 40.552807], [-105.0864035, 40.5527864], [-105.0875009, 40.5527927], [-105.0880774, 40.5534556], [-105.0882678, 40.5537165], [-105.0884829, 40.5540206], [-105.0885068, 40.5540784], [-105.0885226, 40.5541409], [-105.0885303, 40.5542252], [-105.0885181, 40.5543254], [-105.0883537, 40.5551654], [-105.0883403, 40.5552775], [-105.0883563, 40.555412], [-105.0884046, 40.5555506], [-105.088697, 40.5559745], [-105.0887748, 40.5560621], [-105.0888472, 40.5561314], [-105.0888874, 40.5562109], [-105.0888928, 40.556325], [-105.0888847, 40.5564208], [-105.0888204, 40.5565899], [-105.0885682, 40.5567468], [-105.0880141, 40.5571139], [-105.0877747, 40.5573117], [-105.0876444, 40.5574252], [-105.0874686, 40.5576503], [-105.0873926, 40.5577887], [-105.0873099, 40.5579685], [-105.0871335, 40.5584741]]], [[[-105.102812, 40.5786784], [-105.1007474, 40.5786622], [-105.1007755, 40.5766869], [-105.1007874, 40.5766658], [-105.1008155, 40.5766585], [-105.1020815, 40.5766712], [-105.1022926, 40.5766977], [-105.1023792, 40.5766822], [-105.1046071, 40.5767037], [-105.1050891, 40.5767108], [-105.1052624, 40.5767027], [-105.1054118, 40.5766816], [-105.1054535, 40.5766828], [-105.1054847, 40.5767034], [-105.1055513, 40.5767582], [-105.105603, 40.5767808], [-105.105676, 40.5767937], [-105.1057409, 40.5767872], [-105.1062084, 40.5766898], [-105.1062914, 40.5766785], [-105.1063713, 40.5766755], [-105.1066053, 40.5766755], [-105.1065876, 40.5774445], [-105.1055254, 40.5774282], [-105.1054357, 40.5774169], [-105.1054171, 40.5786989], [-105.1032346, 40.578683], [-105.1030114, 40.5786788], [-105.102812, 40.5786784]]], [[[-105.1096764, 40.5763692], [-105.1091668, 40.5763758], [-105.1090965, 40.5764688], [-105.1085587, 40.5764632], [-105.1085214, 40.5764564], [-105.1083782, 40.5764203], [-105.1083321, 40.5764151], [-105.108211, 40.5764204], [-105.1080695, 40.5764577], [-105.1080297, 40.5764629], [-105.1070219, 40.576463], [-105.106836, 40.5765774], [-105.1068331, 40.5766759], [-105.1068234, 40.577462], [-105.1096742, 40.5774932], [-105.109672, 40.5772857], [-105.1096742, 40.577207], [-105.1096764, 40.5763692]]], [[[-105.101652, 40.5765144], [-105.1017825, 40.5765196], [-105.1018864, 40.5765421], [-105.1018183, 40.5763035], [-105.1017803, 40.576163], [-105.1017606, 40.5760163], [-105.101769, 40.5759022], [-105.1018142, 40.5758064], [-105.1018843, 40.5757393], [-105.101996, 40.5756643], [-105.1020906, 40.5756203], [-105.1023252, 40.5755559], [-105.1026659, 40.5754983], [-105.1029682, 40.5754678], [-105.1030835, 40.575463], [-105.1030889, 40.5752018], [-105.1030592, 40.5750639], [-105.1030613, 40.5747313], [-105.100985, 40.5747055], [-105.1008748, 40.574742], [-105.1008274, 40.5748207], [-105.1008267, 40.5762627], [-105.1007791, 40.5764768], [-105.1007937, 40.5764961], [-105.1008106, 40.5765042], [-105.101652, 40.5765144]]], [[[-105.0764961, 40.5947542], [-105.0764909, 40.5933499], [-105.0742966, 40.5944648], [-105.0764961, 40.5947542]]]]}}