{"type": "Feature", "properties": {"market_key": 11, "university": "Clemson University", "osm_type": "relation", "osm_id": 145811, "osm_name": "Clemson University"}, "geometry": {"type": "MultiPolygon", "coordinates": [[[[-82.8232812, 34.6818525], [-82.8270845, 34.6822411], [-82.8285437, 34.682294], [-82.8290801, 34.6822764], [-82.8301606, 34.6827164], [-82.8310113, 34.6822058], [-82.8319803, 34.6810436], [-82.832973, 34.6814709], [-82.8335185, 34.681632], [-82.8336318, 34.6816452], [-82.8333915, 34.6820334], [-82.8344901, 34.6823651], [-82.8347733, 34.6819417], [-82.8350144, 34.6819966], [-82.835372, 34.682078], [-82.8358382, 34.6821731], [-82.8367319, 34.6823927], [-82.837006, 34.682225], [-82.8372736, 34.6820054], [-82.8378824, 34.6822898], [-82.8381023, 34.6823596], [-82.8384858, 34.6824169], [-82.8389525, 34.6824588], [-82.8399342, 34.6825603], [-82.8413934, 34.6826904], [-82.8424233, 34.6827081], [-82.8433675, 34.6827566], [-82.844848, 34.6827742], [-82.8460068, 34.6826287], [-82.8468114, 34.6825184], [-82.8477663, 34.6822669], [-82.8487104, 34.6818655], [-82.849676, 34.6813758], [-82.8505987, 34.6808421], [-82.8523421, 34.6797966], [-82.852664, 34.6796642], [-82.852951, 34.6795738], [-82.853238, 34.6795187], [-82.8536725, 34.6794745], [-82.854225, 34.6795098], [-82.8546649, 34.6796157], [-82.8548688, 34.6797039], [-82.8551665, 34.6798694], [-82.8554642, 34.6800745], [-82.8557807, 34.6803877], [-82.8557964, 34.6804488], [-82.8560105, 34.6803575], [-82.8560637, 34.6802476], [-82.8560371, 34.6801431], [-82.8559238, 34.6800003], [-82.8557574, 34.679885], [-82.8556044, 34.6797586], [-82.8555179, 34.6796323], [-82.8555111, 34.6795279], [-82.8556108, 34.679385], [-82.8557771, 34.6793244], [-82.8559766, 34.6792694], [-82.8560963, 34.6791814], [-82.8561295, 34.679055], [-82.8560893, 34.6785494], [-82.8560493, 34.6782472], [-82.8560357, 34.6778845], [-82.8560023, 34.6775327], [-82.8559687, 34.6771042], [-82.855942, 34.6768953], [-82.8558688, 34.6767744], [-82.8557557, 34.6766536], [-82.8556093, 34.6765877], [-82.855117, 34.676467], [-82.8549107, 34.6763847], [-82.8548375, 34.6763023], [-82.8548108, 34.6761264], [-82.8548303, 34.6753955], [-82.8548236, 34.6752526], [-82.8547836, 34.6751427], [-82.8547436, 34.6751097], [-82.8546039, 34.6751098], [-82.8543179, 34.6751703], [-82.8541783, 34.6751759], [-82.8540645, 34.673956], [-82.8539977, 34.6734339], [-82.8539107, 34.6724887], [-82.8537238, 34.6711533], [-82.8536838, 34.6709501], [-82.8536238, 34.6707248], [-82.8535705, 34.6705489], [-82.8535438, 34.6703896], [-82.8533239, 34.6697576], [-82.8532106, 34.669395], [-82.8529976, 34.6689828], [-82.852951, 34.6688565], [-82.8529841, 34.668752], [-82.8530506, 34.6686311], [-82.8530705, 34.6685103], [-82.8530172, 34.6684003], [-82.8528442, 34.668241], [-82.852638, 34.6681092], [-82.8524118, 34.6679994], [-82.852159, 34.6679391], [-82.8520925, 34.6679061], [-82.8517997, 34.6677908], [-82.8515536, 34.6677579], [-82.8511013, 34.6677856], [-82.850955, 34.6677142], [-82.8507155, 34.6675384], [-82.8502165, 34.6672858], [-82.8498505, 34.6671211], [-82.8494913, 34.6669673], [-82.8490589, 34.6668081], [-82.8487329, 34.6667148], [-82.8484402, 34.6666435], [-82.8482406, 34.6665446], [-82.8480078, 34.6663908], [-82.847868, 34.6662479], [-82.847755, 34.666171], [-82.8475886, 34.6661546], [-82.847449, 34.6661877], [-82.8472961, 34.6663087], [-82.8469635, 34.6665176], [-82.846784, 34.6665616], [-82.8466177, 34.6665232], [-82.8464115, 34.6663969], [-82.8463049, 34.6662924], [-82.8462784, 34.6662211], [-82.8462649, 34.6659848], [-82.8462848, 34.6658143], [-82.8462249, 34.665666], [-82.8460453, 34.6655616], [-82.8457791, 34.6654738], [-82.8452004, 34.6653366], [-82.8451007, 34.6652432], [-82.8450407, 34.6651608], [-82.8450939, 34.6650673], [-82.8453067, 34.6649134], [-82.845679, 34.664721], [-82.8459317, 34.6645725], [-82.846191, 34.664391], [-82.8463107, 34.6642371], [-82.8463905, 34.6640557], [-82.8464037, 34.6639073], [-82.8463437, 34.663748], [-82.8463038, 34.6635831], [-82.846317, 34.6634183], [-82.8463901, 34.6633358], [-82.8465032, 34.6632918], [-82.8466495, 34.6632808], [-82.8467692, 34.6632368], [-82.8468423, 34.6631543], [-82.8468024, 34.6630609], [-82.8467092, 34.662973], [-82.8465563, 34.6629565], [-82.8463434, 34.6629511], [-82.8457382, 34.6628964], [-82.8454292, 34.6630737], [-82.8452504, 34.66304], [-82.8450294, 34.6629099], [-82.8447314, 34.6626527], [-82.8445287, 34.6624721], [-82.8444366, 34.662225], [-82.8439751, 34.6617814], [-82.8437755, 34.6616495], [-82.8436026, 34.6615671], [-82.843403, 34.6615287], [-82.8426715, 34.661474], [-82.8423788, 34.6614191], [-82.8421327, 34.6613477], [-82.8420662, 34.6613202], [-82.8417202, 34.6611775], [-82.8415606, 34.6611501], [-82.8413079, 34.6611281], [-82.8410817, 34.6611502], [-82.8407558, 34.6612217], [-82.8402704, 34.6613758], [-82.8400243, 34.6614363], [-82.8398381, 34.6615077], [-82.8394592, 34.6617057], [-82.8391665, 34.6618432], [-82.8389803, 34.6618872], [-82.838834, 34.6619037], [-82.8387209, 34.6618818], [-82.8387209, 34.6618433], [-82.8392461, 34.6614584], [-82.8394324, 34.6613485], [-82.8401672, 34.6609635], [-82.8403619, 34.6607808], [-82.8404122, 34.6606393], [-82.8403766, 34.6604611], [-82.8404392, 34.6601743], [-82.8403291, 34.6600481], [-82.8401873, 34.6599903], [-82.839917, 34.6598975], [-82.8394226, 34.659612], [-82.8388891, 34.6594567], [-82.838612, 34.6593541], [-82.8383827, 34.6592552], [-82.8382322, 34.6591597], [-82.8381413, 34.6591462], [-82.8379894, 34.6591242], [-82.8378819, 34.6591038], [-82.8376988, 34.6590263], [-82.8375826, 34.6589829], [-82.837453, 34.6589333], [-82.8372928, 34.6588971], [-82.8371205, 34.6588223], [-82.8368227, 34.6587264], [-82.8365185, 34.6586804], [-82.8364074, 34.6586057], [-82.8361106, 34.6585032], [-82.8356972, 34.6584062], [-82.8355329, 34.6584332], [-82.8353145, 34.6585633], [-82.8351683, 34.6586512], [-82.8347893, 34.6589371], [-82.8346164, 34.6589976], [-82.8344501, 34.6590141], [-82.8343371, 34.6589757], [-82.8343569, 34.6588712], [-82.8345099, 34.6586459], [-82.8347958, 34.6583765], [-82.8350417, 34.6582171], [-82.835228, 34.6581511], [-82.8354142, 34.6581236], [-82.8355672, 34.6581455], [-82.8356869, 34.658151], [-82.8358598, 34.658118], [-82.8360261, 34.6580685], [-82.8360991, 34.658052], [-82.8364117, 34.65803], [-82.8366247, 34.6580518], [-82.8367975, 34.6581067], [-82.8369904, 34.6581067], [-82.8372564, 34.6580462], [-82.837529, 34.6580132], [-82.8378151, 34.6580516], [-82.8382208, 34.6580789], [-82.8387794, 34.6580238], [-82.838939, 34.6579634], [-82.8390587, 34.6578423], [-82.8391451, 34.6576885], [-82.8391783, 34.6575236], [-82.839105, 34.6573532], [-82.8390052, 34.6571665], [-82.8389452, 34.6569466], [-82.8389319, 34.6566388], [-82.8389451, 34.6563641], [-82.8390182, 34.6562486], [-82.8391113, 34.6562157], [-82.8392376, 34.6562486], [-82.8393773, 34.6563639], [-82.8395104, 34.6565398], [-82.839577, 34.6566497], [-82.8396967, 34.6567376], [-82.83973, 34.6567596], [-82.8398231, 34.656765], [-82.8400558, 34.6567045], [-82.8401423, 34.656743], [-82.8402155, 34.6569243], [-82.8402488, 34.6570781], [-82.8404152, 34.6571935], [-82.8405814, 34.657232], [-82.8407145, 34.6572044], [-82.8408873, 34.6570945], [-82.8411001, 34.656913], [-82.8412596, 34.6567151], [-82.8414258, 34.6564403], [-82.841479, 34.6564183], [-82.841612, 34.6564513], [-82.8417517, 34.6565172], [-82.8419047, 34.6565116], [-82.842144, 34.6564017], [-82.8423701, 34.6562148], [-82.8426958, 34.6558464], [-82.8428088, 34.6556595], [-82.8427888, 34.6555222], [-82.8427089, 34.6554233], [-82.8426092, 34.6553683], [-82.8424096, 34.6553684], [-82.841964, 34.6554235], [-82.841432, 34.6554291], [-82.8410197, 34.6553853], [-82.8408003, 34.6553909], [-82.8405608, 34.6554239], [-82.8403547, 34.6554185], [-82.8402349, 34.6553911], [-82.8401484, 34.6552976], [-82.8401511, 34.6551588], [-82.8401625, 34.6549728], [-82.8403084, 34.6549022], [-82.8401539, 34.654705], [-82.8391337, 34.6549245], [-82.8389834, 34.654962], [-82.8380996, 34.6551506], [-82.8377101, 34.6552303], [-82.8367808, 34.6554336], [-82.8364266, 34.6555433], [-82.8361184, 34.6556655], [-82.8357968, 34.6558098], [-82.835559, 34.655919], [-82.835361, 34.656037], [-82.834838, 34.6564217], [-82.8342091, 34.6569244], [-82.8336635, 34.6573531], [-82.8335196, 34.6574698], [-82.83299, 34.6579231], [-82.8328411, 34.6580643], [-82.8325059, 34.6583897], [-82.8320901, 34.658778], [-82.8313579, 34.6594774], [-82.8310803, 34.6597598], [-82.8309046, 34.6599705], [-82.8307517, 34.6602275], [-82.8306109, 34.6605441], [-82.8305438, 34.6606985], [-82.8301862, 34.6615475], [-82.830743, 34.661653], [-82.830996, 34.661726], [-82.8314471, 34.6618757], [-82.831668, 34.661949], [-82.832012, 34.662083], [-82.832125, 34.662127], [-82.8325107, 34.6623086], [-82.8325965, 34.6623452], [-82.833955, 34.662911], [-82.8342921, 34.6630614], [-82.8402381, 34.6627057], [-82.8406547, 34.6635885], [-82.8409848, 34.6645009], [-82.8412493, 34.6655526], [-82.8414397, 34.6664649], [-82.8413749, 34.6666872], [-82.8412591, 34.6670841], [-82.8411302, 34.6671799], [-82.8410233, 34.6673125], [-82.8409222, 34.66745], [-82.8409038, 34.6675793], [-82.8408448, 34.6675778], [-82.8406287, 34.6675803], [-82.8401437, 34.6674871], [-82.8396747, 34.6674361], [-82.8388267, 34.6673171], [-82.8381427, 34.6672541], [-82.8377447, 34.6672051], [-82.8373927, 34.6671331], [-82.8369817, 34.6670071], [-82.8367077, 34.6669081], [-82.8363231, 34.6667883], [-82.8361639, 34.6668052], [-82.8360199, 34.6668204], [-82.835746, 34.6668734], [-82.8352782, 34.6672458], [-82.8350293, 34.6675459], [-82.834593, 34.6676972], [-82.8343426, 34.6679341], [-82.8310073, 34.6679693], [-82.8302228, 34.6680047], [-82.8293508, 34.6680399], [-82.8275884, 34.6671015], [-82.8253053, 34.6680121], [-82.8240974, 34.6681678], [-82.8238805, 34.6681957], [-82.8212355, 34.6688423], [-82.82098, 34.6694831], [-82.820776, 34.6699945], [-82.8199606, 34.6712828], [-82.8190165, 34.6717592], [-82.8181296, 34.6731484], [-82.8176498, 34.6738997], [-82.8163586, 34.6759221], [-82.8177407, 34.6778651], [-82.8179455, 34.6781467], [-82.8183961, 34.6786143], [-82.818891, 34.6789379], [-82.8192866, 34.6791966], [-82.8198445, 34.6794172], [-82.820362, 34.6795762], [-82.8208208, 34.6797172], [-82.8219688, 34.680026], [-82.8224744, 34.6804325], [-82.8226056, 34.6807714], [-82.8232812, 34.6818525]]]]}}