{"type": "Feature", "properties": {"market_key": 1104, "university": "Boise State University", "osm_type": "relation", "osm_id": 13117245, "osm_name": "Boise State University"}, "geometry": {"type": "MultiPolygon", "coordinates": [[[[-116.2100871, 43.607945], [-116.2099444, 43.6082751], [-116.2099967, 43.6083645], [-116.2097658, 43.6090239], [-116.2099941, 43.6091666], [-116.210971, 43.6097603], [-116.2117056, 43.6083898], [-116.2100871, 43.607945]]], [[[-116.1909329, 43.610605], [-116.1911469, 43.6106579], [-116.1913743, 43.6107031], [-116.1914443, 43.610461], [-116.1915394, 43.6104744], [-116.1914783, 43.6107156], [-116.1915863, 43.6107322], [-116.1916211, 43.6106085], [-116.191624, 43.6105946], [-116.1916901, 43.6103503], [-116.1918429, 43.6103369], [-116.1918499, 43.6102942], [-116.1927166, 43.610201], [-116.1927185, 43.6099974], [-116.1932007, 43.6099338], [-116.1932123, 43.6094488], [-116.1927007, 43.6095031], [-116.1927011, 43.609482], [-116.1926256, 43.609461], [-116.1926296, 43.6089824], [-116.1926617, 43.6089794], [-116.192705, 43.6089959], [-116.1927058, 43.6089825], [-116.1927146, 43.6088406], [-116.1920416, 43.6085019], [-116.1920324, 43.6084973], [-116.191545, 43.6082628], [-116.1908147, 43.6074925], [-116.1903235, 43.6080196], [-116.1894538, 43.609002], [-116.1894676, 43.6090096], [-116.1899899, 43.6092641], [-116.1896384, 43.6096444], [-116.1898195, 43.6097359], [-116.1895704, 43.6100156], [-116.1901781, 43.6103071], [-116.1905797, 43.6104881], [-116.1909329, 43.610605]]], [[[-116.1932162, 43.6031041], [-116.1932514, 43.6026968], [-116.1932926, 43.602124], [-116.1932596, 43.6021119], [-116.1931438, 43.6021101], [-116.1924283, 43.6015613], [-116.1921639, 43.6013783], [-116.192162, 43.6012867], [-116.191664, 43.6012879], [-116.1916756, 43.6017737], [-116.1919697, 43.6019919], [-116.1919573, 43.6021054], [-116.1932162, 43.6031041]]], [[[-116.2058091, 43.5956937], [-116.2052223, 43.5956223], [-116.205102, 43.5955785], [-116.2043163, 43.5955168], [-116.2035851, 43.5954964], [-116.2035907, 43.5951257], [-116.2035977, 43.5946666], [-116.2036634, 43.5946696], [-116.2036569, 43.5927855], [-116.2037333, 43.5927297], [-116.2037324, 43.5926264], [-116.2036333, 43.5925475], [-116.2036048, 43.5918697], [-116.2039513, 43.5923193], [-116.2042876, 43.5930978], [-116.2056746, 43.594302], [-116.2058091, 43.5956937]]], [[[-116.182743, 43.6007723], [-116.1837755, 43.6004105], [-116.1849031, 43.5995559], [-116.1852174, 43.5994823], [-116.1851173, 43.5987538], [-116.1829451, 43.5988654], [-116.1825758, 43.5988779], [-116.182743, 43.6007723]]], [[[-116.2132536, 43.607771], [-116.2133906, 43.6075135], [-116.2129758, 43.6073978], [-116.2128388, 43.6076553], [-116.2132536, 43.607771]]], [[[-116.2067452, 43.5996483], [-116.20648, 43.5993735], [-116.2064004, 43.5992911], [-116.2062463, 43.5991668], [-116.2055876, 43.5987266], [-116.2049361, 43.5982738], [-116.2044825, 43.5985088], [-116.204231, 43.5985067], [-116.2040877, 43.5985196], [-116.2037624, 43.5985186], [-116.2033793, 43.5985232], [-116.2017023, 43.5985258], [-116.2012882, 43.5985102], [-116.2012256, 43.5985267], [-116.2009791, 43.5985231], [-116.2009791, 43.5985087], [-116.1950012, 43.5985214], [-116.1949857, 43.6010971], [-116.193844, 43.6011], [-116.1937647, 43.6011502], [-116.1937126, 43.6026027], [-116.19367, 43.603462], [-116.1944177, 43.6039694], [-116.1946939, 43.60412], [-116.1971231, 43.6050682], [-116.1974728, 43.6051568], [-116.1978345, 43.6052091], [-116.1986245, 43.6052642], [-116.2015989, 43.6049448], [-116.2025081, 43.6049238], [-116.2029239, 43.6049494], [-116.2034307, 43.6050491], [-116.2038524, 43.6051752], [-116.204139, 43.6053141], [-116.2050152, 43.6058592], [-116.2085229, 43.6083312], [-116.2091433, 43.607588], [-116.2099429, 43.6067608], [-116.211008, 43.6056449], [-116.2109986, 43.6055544], [-116.211148, 43.6052672], [-116.2112058, 43.6052368], [-116.2112322, 43.6051486], [-116.2113602, 43.6048899], [-116.2113921, 43.6048763], [-116.2114188, 43.6048407], [-116.2114584, 43.6048297], [-116.2115026, 43.6047336], [-116.2114862, 43.6047158], [-116.2115965, 43.6044697], [-116.2117643, 43.6037608], [-116.2117676, 43.6036245], [-116.2112479, 43.6027711], [-116.2101752, 43.6033234], [-116.210042, 43.6031972], [-116.2100312, 43.6032001], [-116.2098586, 43.6028878], [-116.209636, 43.602911], [-116.20965, 43.603328], [-116.208695, 43.6032089], [-116.20834, 43.6032408], [-116.2077842, 43.602943], [-116.2076057, 43.6028675], [-116.2072365, 43.602683], [-116.2072847, 43.6024985], [-116.2076077, 43.6021222], [-116.2071503, 43.6019566], [-116.2068277, 43.6024292], [-116.2072262, 43.6025735], [-116.2071515, 43.6026914], [-116.2067395, 43.6025457], [-116.2066514, 43.6026692], [-116.207071, 43.6028205], [-116.2064292, 43.6037471], [-116.2043291, 43.602989], [-116.2046786, 43.60249], [-116.2044914, 43.6024156], [-116.204662, 43.6021673], [-116.2044815, 43.6021001], [-116.2043063, 43.6023545], [-116.2041378, 43.6022937], [-116.2043103, 43.6020434], [-116.2043605, 43.6019706], [-116.2045361, 43.6020234], [-116.2047333, 43.6017367], [-116.2045593, 43.6016695], [-116.2047233, 43.6014284], [-116.2046687, 43.6014056], [-116.2047707, 43.6012568], [-116.2047627, 43.6012525], [-116.2048616, 43.6011086], [-116.204946, 43.6009853], [-116.2055076, 43.6011917], [-116.2055725, 43.6012038], [-116.205759, 43.6009234], [-116.2049965, 43.6006439], [-116.2051997, 43.6003513], [-116.2047247, 43.6001797], [-116.2045203, 43.6004714], [-116.2037795, 43.6002023], [-116.2036676, 43.6002015], [-116.2034527, 43.6001624], [-116.2034531, 43.5996011], [-116.2038028, 43.5995984], [-116.2042224, 43.598923], [-116.2052253, 43.5992882], [-116.2051346, 43.5994439], [-116.2054726, 43.5995638], [-116.2055066, 43.599532], [-116.2055613, 43.5995033], [-116.205621, 43.5994943], [-116.205685, 43.5994975], [-116.2058073, 43.5992372], [-116.2060019, 43.599361], [-116.2057966, 43.5996078], [-116.2059614, 43.5996837], [-116.2061514, 43.5994581], [-116.2063274, 43.5995684], [-116.2062827, 43.5996159], [-116.2066557, 43.5997737], [-116.2067325, 43.5996827], [-116.2067452, 43.5996483]], [[-116.1992519, 43.5991928], [-116.1997255, 43.5991914], [-116.1997262, 43.5993269], [-116.1992526, 43.5993282], [-116.1992519, 43.5991928]]], [[[-116.2119696, 43.6037649], [-116.212228, 43.6038857], [-116.2126291, 43.6038224], [-116.2121688, 43.6043593], [-116.2120988, 43.6043262], [-116.21194, 43.604144], [-116.2119252, 43.6041011], [-116.2119335, 43.6040588], [-116.2119237, 43.6040569], [-116.2119433, 43.6038894], [-116.2119696, 43.6037649]]], [[[-116.2089967, 43.6020696], [-116.2093593, 43.6023361], [-116.2092991, 43.6023827], [-116.2092868, 43.6024491], [-116.2087298, 43.6023738], [-116.2089967, 43.6020696]]], [[[-116.2075256, 43.6015321], [-116.2073842, 43.6016951], [-116.2078135, 43.6018946], [-116.2079549, 43.6017338], [-116.2075256, 43.6015321]]], [[[-116.2062259, 43.6008301], [-116.2065841, 43.6008216], [-116.2064608, 43.6009922], [-116.2064178, 43.6010517], [-116.2061897, 43.6010254], [-116.2062216, 43.6009111], [-116.2062259, 43.6008301]]], [[[-116.20491, 43.5997732], [-116.2047335, 43.6000299], [-116.2045464, 43.5999619], [-116.2047237, 43.5997087], [-116.20491, 43.5997732]]], [[[-116.2054684, 43.5996549], [-116.2054914, 43.5996926], [-116.2055452, 43.5997223], [-116.2053678, 43.5999372], [-116.2049294, 43.5997803], [-116.2054684, 43.5996549]]], [[[-116.2124516, 43.5962834], [-116.2124573, 43.5966583], [-116.2124321, 43.5966937], [-116.2123935, 43.5967141], [-116.2122423, 43.5967034], [-116.2120969, 43.5966637], [-116.2119694, 43.596596], [-116.211876, 43.5965047], [-116.2118211, 43.5964145], [-116.211787, 43.59628], [-116.2124516, 43.5962834]]], [[[-116.2120897, 43.5950705], [-116.2122179, 43.5950498], [-116.2123903, 43.5950299], [-116.212439, 43.5950434], [-116.2124664, 43.5950796], [-116.2124589, 43.5956973], [-116.212439, 43.5957271], [-116.2124065, 43.5957416], [-116.2123041, 43.5957452], [-116.2122473, 43.5957511], [-116.2121129, 43.5954251], [-116.2121844, 43.5954054], [-116.2120897, 43.5950705]]], [[[-116.2496713, 43.6126373], [-116.2485404, 43.6126316], [-116.2485324, 43.6133668], [-116.2496689, 43.6133744], [-116.2496713, 43.6126373]]], [[[-116.216067, 43.5726233], [-116.2173268, 43.5725992], [-116.2173302, 43.5734462], [-116.2160895, 43.5734588], [-116.216067, 43.5726233]]]]}}