{"type": "Feature", "properties": {"market_key": 1152, "university": "Arizona State University", "osm_type": "relation", "osm_id": 3444656, "osm_name": "Arizona State University"}, "geometry": {"type": "MultiPolygon", "coordinates": [[[[-111.9392212, 33.4236759], [-111.9391856, 33.4236553], [-111.9387301, 33.4236586], [-111.9387331, 33.4232385], [-111.9398107, 33.4232416], [-111.9398712, 33.4232749], [-111.9398956, 33.4233121], [-111.9398938, 33.4239027], [-111.9392203, 33.4239009], [-111.9392212, 33.4236759]]], [[[-111.9165191, 33.4304935], [-111.9159282, 33.4313014], [-111.9158721, 33.4313526], [-111.915778, 33.4314061], [-111.9147514, 33.4321924], [-111.914737, 33.4322288], [-111.9147034, 33.4322306], [-111.9146725, 33.4322419], [-111.9146481, 33.4322613], [-111.914633, 33.4322864], [-111.9146291, 33.4323143], [-111.9146367, 33.4323417], [-111.9146551, 33.4323653], [-111.914682, 33.4323822], [-111.9147143, 33.4323905], [-111.9147442, 33.4323898], [-111.9147645, 33.4324517], [-111.9135373, 33.4327476], [-111.9106754, 33.4329396], [-111.9098124, 33.4329786], [-111.9097293, 33.4327392], [-111.909478, 33.4318874], [-111.9093072, 33.4298325], [-111.9092447, 33.4294181], [-111.9092601, 33.429396], [-111.9092831, 33.4293718], [-111.9093099, 33.429363], [-111.9095921, 33.4293618], [-111.9095967, 33.4294064], [-111.9099259, 33.4294038], [-111.9099894, 33.4293319], [-111.9110405, 33.4293242], [-111.9113, 33.4293349], [-111.912685, 33.4294373], [-111.9126835, 33.4291227], [-111.9126979, 33.4290389], [-111.9126914, 33.4273626], [-111.9131996, 33.4273626], [-111.9131948, 33.4266639], [-111.915847, 33.4272269], [-111.916285, 33.4273203], [-111.9169629, 33.4274728], [-111.9175278, 33.4275947], [-111.9174927, 33.4237765], [-111.9175896, 33.4237741], [-111.9176748, 33.423774], [-111.9177315, 33.4237739], [-111.9196785, 33.4237709], [-111.919698, 33.4227846], [-111.9198255, 33.422785], [-111.9198256, 33.4227967], [-111.9200941, 33.4227963], [-111.9200934, 33.4221139], [-111.922814, 33.4221823], [-111.9228098, 33.4237888], [-111.9229912, 33.4237894], [-111.9245278, 33.4237891], [-111.9260767, 33.4237888], [-111.9265357, 33.4237915], [-111.9265454, 33.4229819], [-111.9266089, 33.4227491], [-111.9265917, 33.4222554], [-111.9265846, 33.4218748], [-111.9265133, 33.421821], [-111.9265046, 33.4208667], [-111.9260323, 33.4208631], [-111.9242059, 33.4204693], [-111.9242542, 33.4203195], [-111.9242594, 33.4202623], [-111.9242053, 33.4200361], [-111.9242191, 33.4199403], [-111.9247205, 33.4195424], [-111.9248456, 33.4194527], [-111.925276, 33.4191083], [-111.9245276, 33.4184375], [-111.9244588, 33.4183954], [-111.9243413, 33.4182885], [-111.924517, 33.4178782], [-111.9252231, 33.4179252], [-111.9255743, 33.4179469], [-111.9255763, 33.4178814], [-111.9260828, 33.417883], [-111.9265433, 33.4178815], [-111.9265279, 33.4172454], [-111.9265013, 33.4169763], [-111.9265185, 33.4169533], [-111.9265136, 33.4167081], [-111.9264969, 33.416693], [-111.9264986, 33.4149352], [-111.9265055, 33.4149302], [-111.9269609, 33.414927], [-111.9274711, 33.4149234], [-111.9274646, 33.4145645], [-111.9274574, 33.4138318], [-111.9275193, 33.4137788], [-111.9275557, 33.4137147], [-111.9275508, 33.4136363], [-111.9274978, 33.4135848], [-111.9274263, 33.4135492], [-111.9273552, 33.4135492], [-111.9273205, 33.413561], [-111.9273189, 33.413576], [-111.926908, 33.4135828], [-111.9269029, 33.4129543], [-111.9266635, 33.4129553], [-111.9266624, 33.4129693], [-111.9264699, 33.412969], [-111.9264624, 33.4123791], [-111.9242425, 33.4123729], [-111.9242421, 33.4118319], [-111.9236721, 33.4118334], [-111.9236696, 33.4117568], [-111.9235933, 33.4116854], [-111.9235919, 33.411422], [-111.9242444, 33.4114171], [-111.9242404, 33.4111173], [-111.9243528, 33.4111145], [-111.9243536, 33.410211], [-111.925629, 33.4102062], [-111.9258711, 33.4102136], [-111.9260898, 33.410216], [-111.9261216, 33.4102451], [-111.9261191, 33.4111031], [-111.9306542, 33.411092], [-111.9306843, 33.4119619], [-111.930624, 33.4119615], [-111.9306416, 33.4135773], [-111.9307167, 33.4139216], [-111.9305852, 33.4139261], [-111.9305928, 33.4141105], [-111.9348252, 33.4140889], [-111.9348062, 33.4142743], [-111.9348052, 33.4145165], [-111.9348077, 33.414831], [-111.9350975, 33.4148269], [-111.9368019, 33.4148123], [-111.9369513, 33.4148123], [-111.9373213, 33.4148503], [-111.9376375, 33.4149121], [-111.9378161, 33.4149623], [-111.9379572, 33.4150062], [-111.9381731, 33.4150916], [-111.9384, 33.4152007], [-111.9385489, 33.4152843], [-111.9388001, 33.4154571], [-111.9390564, 33.4156766], [-111.9391998, 33.4158252], [-111.9393444, 33.4160091], [-111.9394157, 33.416113], [-111.9394803, 33.4162218], [-111.939557, 33.4163642], [-111.9396109, 33.4164871], [-111.9396639, 33.4166236], [-111.939713, 33.4167906], [-111.9397399, 33.4169238], [-111.9397629, 33.417096], [-111.9397731, 33.4172205], [-111.9397748, 33.4173572], [-111.9397677, 33.417362], [-111.9397473, 33.4173917], [-111.9397621, 33.4176691], [-111.9397796, 33.4177158], [-111.9397809, 33.4178227], [-111.9397947, 33.4189645], [-111.9397752, 33.4189939], [-111.9397749, 33.4191299], [-111.9397946, 33.4191769], [-111.9398222, 33.4217681], [-111.9398091, 33.4217989], [-111.9397872, 33.4218192], [-111.9397431, 33.4218286], [-111.9365036, 33.4218376], [-111.934863, 33.4218422], [-111.9348647, 33.422472], [-111.9348467, 33.4225419], [-111.9348481, 33.4231916], [-111.934834, 33.4232473], [-111.9348268, 33.4243382], [-111.933916, 33.4243424], [-111.9339222, 33.4247443], [-111.9340526, 33.4247439], [-111.9340185, 33.4249542], [-111.9338401, 33.4252357], [-111.9342594, 33.4254237], [-111.934512, 33.4255057], [-111.9347163, 33.4255583], [-111.934965, 33.4257752], [-111.9349664, 33.4260217], [-111.934965, 33.4271492], [-111.9349614, 33.429632], [-111.9349699, 33.4299398], [-111.9348759, 33.4298736], [-111.9346455, 33.4297114], [-111.934435, 33.4295631], [-111.9342865, 33.4294817], [-111.9342574, 33.4294113], [-111.9339573, 33.4293301], [-111.9339367, 33.4293354], [-111.9337915, 33.4292881], [-111.9336552, 33.4292553], [-111.933501, 33.4292298], [-111.9333258, 33.4292148], [-111.9329555, 33.4292139], [-111.9328492, 33.4292149], [-111.9326031, 33.4292026], [-111.9324441, 33.4291905], [-111.932291, 33.429174], [-111.9321562, 33.4291549], [-111.9318345, 33.4290958], [-111.9317128, 33.4290671], [-111.9314878, 33.4289771], [-111.9314555, 33.4289332], [-111.9312813, 33.4288778], [-111.9312716, 33.4288866], [-111.931116, 33.4288397], [-111.9307843, 33.4287439], [-111.9304907, 33.4286691], [-111.9302847, 33.4286287], [-111.9300865, 33.4285987], [-111.9298917, 33.4285777], [-111.9296706, 33.4285642], [-111.9294858, 33.4285586], [-111.9294215, 33.4285069], [-111.9291448, 33.4285549], [-111.9290816, 33.4285981], [-111.9288709, 33.4285859], [-111.9284684, 33.4286365], [-111.9283101, 33.428684], [-111.9280606, 33.428713], [-111.9278142, 33.4287408], [-111.9276045, 33.4287461], [-111.9274501, 33.4287464], [-111.9272783, 33.4287378], [-111.9270824, 33.4287215], [-111.926517, 33.4286905], [-111.9264787, 33.4286626], [-111.9260989, 33.4286682], [-111.926045, 33.4286893], [-111.9253356, 33.4286456], [-111.9248491, 33.4286279], [-111.9246236, 33.4286386], [-111.9244818, 33.4286556], [-111.9242748, 33.428692], [-111.9241424, 33.4287266], [-111.9232271, 33.4290822], [-111.9230843, 33.4291293], [-111.9229396, 33.4291596], [-111.9227759, 33.4291802], [-111.9226143, 33.4291942], [-111.9173121, 33.4291424], [-111.9172457, 33.4294519], [-111.9171903, 33.4295593], [-111.9165191, 33.4304935]], [[-111.9299186, 33.4239049], [-111.9300213, 33.4238184], [-111.9301046, 33.4237692], [-111.9301351, 33.4237395], [-111.9301615, 33.4236683], [-111.9301961, 33.423675], [-111.9302269, 33.4235354], [-111.9295954, 33.4231406], [-111.9294805, 33.423267], [-111.9295364, 33.4233078], [-111.9294623, 33.4234155], [-111.9295984, 33.4235037], [-111.9297184, 33.423424], [-111.9298241, 33.4234944], [-111.9297753, 33.4235487], [-111.9298749, 33.4235597], [-111.9299654, 33.4236632], [-111.929945, 33.4236835], [-111.9298088, 33.4237497], [-111.9299186, 33.4239049]], [[-111.927015, 33.4227661], [-111.9266562, 33.4227288], [-111.9266581, 33.423221], [-111.927375, 33.4232188], [-111.9273774, 33.4231981], [-111.9274209, 33.4231989], [-111.9274209, 33.4229687], [-111.9270216, 33.4229202], [-111.927015, 33.4227661]]], [[[-111.9411651, 33.4240602], [-111.9411183, 33.4240591], [-111.9411167, 33.4240963], [-111.9409407, 33.4240979], [-111.940939, 33.4240604], [-111.9408913, 33.4240584], [-111.9408859, 33.423914], [-111.9405517, 33.4239153], [-111.9405523, 33.4236732], [-111.9411585, 33.4236799], [-111.9411651, 33.4240602]]], [[[-111.9360962, 33.4236125], [-111.9359975, 33.4236126], [-111.9359975, 33.4236346], [-111.9355776, 33.4236353], [-111.9355778, 33.4237313], [-111.9352969, 33.4237317], [-111.9352966, 33.4236352], [-111.9350853, 33.4236356], [-111.9350846, 33.4233547], [-111.9354006, 33.4233542], [-111.9354005, 33.423333], [-111.9355996, 33.4233327], [-111.9355997, 33.4233552], [-111.9360957, 33.4233545], [-111.9360962, 33.4236125]]], [[[-111.9258715, 33.42955], [-111.9247606, 33.4295426], [-111.9242506, 33.4296832], [-111.9237273, 33.4296851], [-111.9237007, 33.4292613], [-111.9243437, 33.4290189], [-111.9245965, 33.4289689], [-111.9251109, 33.4289689], [-111.9253593, 33.4290189], [-111.9258937, 33.4290466], [-111.9259425, 33.4291188], [-111.9259092, 33.4294889], [-111.9258715, 33.42955]]], [[[-111.9354082, 33.4254065], [-111.9354053, 33.4249394], [-111.9355046, 33.4249372], [-111.9355027, 33.4245109], [-111.9365431, 33.4245024], [-111.9365455, 33.4254018], [-111.9354082, 33.4254065]]]]}}