{"type": "Feature", "properties": {"market_key": 1160, "university": "Santa Clara University", "osm_type": "relation", "osm_id": 4648353, "osm_name": "Santa Clara University"}, "geometry": {"type": "MultiPolygon", "coordinates": [[[[-121.941164, 37.3464379], [-121.9411688, 37.3464281], [-121.9410291, 37.3461804], [-121.9406857, 37.3463029], [-121.9408213, 37.3465585], [-121.9409119, 37.3467216], [-121.9393901, 37.3472741], [-121.9392972, 37.347096], [-121.939172, 37.3468534], [-121.9389172, 37.346945], [-121.9387626, 37.3466652], [-121.9386425, 37.3464352], [-121.9381119, 37.3466234], [-121.9380822, 37.3466549], [-121.9375325, 37.3468382], [-121.9373412, 37.3467266], [-121.9372788, 37.3466553], [-121.9360339, 37.3458679], [-121.9359326, 37.3458018], [-121.9356441, 37.345674], [-121.9354465, 37.3456056], [-121.9344959, 37.3453449], [-121.9343177, 37.3453137], [-121.934026, 37.3453177], [-121.9339181, 37.3453681], [-121.9338655, 37.3454439], [-121.9334615, 37.345558], [-121.9334255, 37.3454877], [-121.9333232, 37.3452934], [-121.9331671, 37.3451096], [-121.9329821, 37.3449346], [-121.9327456, 37.3454283], [-121.9325455, 37.3458941], [-121.9326345, 37.3459206], [-121.9325613, 37.3461063], [-121.9324657, 37.3460816], [-121.9322558, 37.3465361], [-121.9329682, 37.3467437], [-121.9333759, 37.3468749], [-121.9327817, 37.3477569], [-121.9326637, 37.3480223], [-121.9322531, 37.3479106], [-121.931388, 37.3476753], [-121.9310471, 37.3477987], [-121.9302857, 37.3475958], [-121.9299239, 37.3480449], [-121.9305489, 37.3485234], [-121.9308426, 37.3487252], [-121.9310296, 37.3488197], [-121.9308784, 37.3489907], [-121.9306211, 37.3493072], [-121.9301222, 37.3499469], [-121.9308584, 37.3503158], [-121.9311514, 37.3503819], [-121.9312858, 37.3503953], [-121.9314901, 37.3504032], [-121.9318549, 37.3503733], [-121.9321821, 37.3502795], [-121.9324884, 37.3501494], [-121.9327687, 37.349965], [-121.932997, 37.3497655], [-121.9332483, 37.3494445], [-121.933547, 37.3496286], [-121.9366174, 37.3512022], [-121.9367839, 37.3513161], [-121.9370399, 37.3515213], [-121.9372253, 37.3516971], [-121.937277, 37.3517169], [-121.9373196, 37.351706], [-121.9376076, 37.3520215], [-121.937584, 37.3520518], [-121.9375889, 37.352085], [-121.9377843, 37.35229], [-121.9379382, 37.3522309], [-121.9378762, 37.3521472], [-121.9378536, 37.3520673], [-121.9379088, 37.3519858], [-121.9380258, 37.3519468], [-121.9381867, 37.3519391], [-121.9405184, 37.3511228], [-121.940605, 37.3512725], [-121.940646, 37.3512849], [-121.9410371, 37.3519994], [-121.941114, 37.3520229], [-121.9413072, 37.3519531], [-121.9413516, 37.3519621], [-121.943234, 37.3512814], [-121.9430291, 37.3509227], [-121.943214, 37.3508452], [-121.9433198, 37.3508003], [-121.9430027, 37.3502281], [-121.9431971, 37.3501568], [-121.9432183, 37.3500996], [-121.941345, 37.3467539], [-121.9412675, 37.3466477], [-121.9412031, 37.3466267], [-121.941164, 37.3464379]]]]}}