{"type": "Feature", "properties": {"market_key": 118, "university": "Indiana University Bloomington", "osm_type": "way", "osm_id": 74173036, "osm_name": "Indiana University Bloomington"}, "geometry": {"type": "Polygon", "coordinates": [[[-86.5226598, 39.163146], [-86.5226589, 39.1627004], [-86.5239772, 39.1627007], [-86.5239792, 39.1631561], [-86.5274416, 39.1631974], [-86.5275915, 39.1632219], [-86.527782, 39.1632667], [-86.5278727, 39.1632942], [-86.5279205, 39.1633099], [-86.5279681, 39.1633335], [-86.5280098, 39.1633655], [-86.5280471, 39.1634004], [-86.5280753, 39.1634396], [-86.5280952, 39.1634823], [-86.5281244, 39.1635842], [-86.5281408, 39.1636878], [-86.5280949, 39.1636869], [-86.5272326, 39.1636367], [-86.5270866, 39.1636067], [-86.5269967, 39.1637126], [-86.5269291, 39.1638713], [-86.5268889, 39.1640237], [-86.526877, 39.164181], [-86.5268797, 39.165514], [-86.5269313, 39.1684678], [-86.5269443, 39.1704749], [-86.5282449, 39.1704785], [-86.5282466, 39.17165], [-86.5269283, 39.1716395], [-86.5270211, 39.1790502], [-86.5282886, 39.179047], [-86.5282568, 39.1829868], [-86.5282797, 39.1858435], [-86.5283919, 39.1867899], [-86.5284359, 39.1872517], [-86.5272924, 39.1872313], [-86.5272827, 39.1881696], [-86.5252603, 39.1881283], [-86.5252147, 39.1861178], [-86.5233752, 39.1861077], [-86.5220683, 39.1860811], [-86.5220976, 39.1881805], [-86.5238622, 39.1881704], [-86.5240557, 39.1919514], [-86.522211, 39.1920056], [-86.5216821, 39.1909838], [-86.5214339, 39.1903849], [-86.5214137, 39.1894313], [-86.5208682, 39.1894449], [-86.520647, 39.1895854], [-86.5190867, 39.1896215], [-86.5190971, 39.1885134], [-86.5205387, 39.1885511], [-86.5205172, 39.187653], [-86.5192239, 39.1876552], [-86.5192108, 39.1860609], [-86.5194829, 39.1857307], [-86.5184869, 39.1856011], [-86.5162899, 39.1850327], [-86.5149459, 39.1845734], [-86.5149317, 39.1861602], [-86.514528, 39.1862078], [-86.5144454, 39.1870113], [-86.5137008, 39.1870041], [-86.5137378, 39.1892276], [-86.5145086, 39.1892417], [-86.5145454, 39.1902857], [-86.5145, 39.1905251], [-86.5146733, 39.1918949], [-86.5145341, 39.1958736], [-86.5092155, 39.1958305], [-86.5092379, 39.1965327], [-86.5087586, 39.1965173], [-86.5076779, 39.1965546], [-86.5076137, 39.1963018], [-86.505059, 39.1962894], [-86.5051031, 39.1935826], [-86.4957454, 39.1934351], [-86.4957374, 39.1889877], [-86.4910186, 39.1889967], [-86.490993, 39.1861487], [-86.4909601, 39.1824998], [-86.4904778, 39.1821907], [-86.4902214, 39.1813087], [-86.490459, 39.1810127], [-86.4903935, 39.1794589], [-86.4909327, 39.1794492], [-86.490929, 39.1790419], [-86.4898149, 39.1758891], [-86.4954312, 39.175898], [-86.4955324, 39.1754934], [-86.4956042, 39.1752067], [-86.4955366, 39.171639], [-86.4968428, 39.1715914], [-86.4976202, 39.1716151], [-86.4981553, 39.1716255], [-86.4984864, 39.1716576], [-86.5030838, 39.1716021], [-86.5039155, 39.1714235], [-86.5047494, 39.1712443], [-86.5047582, 39.1711413], [-86.5047969, 39.1706895], [-86.5072235, 39.1706747], [-86.5071996, 39.1682405], [-86.5094786, 39.1682444], [-86.5094293, 39.1642675], [-86.5141564, 39.1642948], [-86.5164243, 39.1642639], [-86.5177802, 39.1642891], [-86.5177544, 39.1631012], [-86.5226598, 39.163146]]]}}