{"type": "Feature", "properties": {"market_key": 1183, "university": "Pepperdine University", "osm_type": "relation", "osm_id": 11341244, "osm_name": "Pepperdine University - Malibu Campus"}, "geometry": {"type": "MultiPolygon", "coordinates": [[[[-118.698268, 34.0453367], [-118.6985254, 34.0448284], [-118.6990397, 34.0447192], [-118.6993296, 34.0436436], [-118.6991081, 34.042377], [-118.6978544, 34.0406513], [-118.6986745, 34.0403454], [-118.7004552, 34.0398581], [-118.7010832, 34.0396568], [-118.7017354, 34.0393399], [-118.7018399, 34.0393327], [-118.7019552, 34.0393566], [-118.7021798, 34.0391893], [-118.7021676, 34.0391532], [-118.702166, 34.0391099], [-118.7021759, 34.0390709], [-118.7021991, 34.0390305], [-118.7025196, 34.0387684], [-118.7027459, 34.0385538], [-118.7029879, 34.0382688], [-118.7031304, 34.0380703], [-118.7032616, 34.0378602], [-118.7033488, 34.0376943], [-118.7034516, 34.037489], [-118.703547, 34.0372318], [-118.7035814, 34.0371097], [-118.7036135, 34.0369875], [-118.7036498, 34.0368248], [-118.7036776, 34.036659], [-118.7036977, 34.0364553], [-118.703706, 34.0362354], [-118.7036924, 34.0359942], [-118.7035727, 34.0349261], [-118.7035767, 34.0349013], [-118.7035887, 34.0348781], [-118.7036167, 34.034858], [-118.7036477, 34.0348483], [-118.7096988, 34.0343697], [-118.7096997, 34.0343829], [-118.7097402, 34.0343836], [-118.7097771, 34.034397], [-118.7097997, 34.0344173], [-118.7098109, 34.0344398], [-118.709813, 34.0344513], [-118.7098192, 34.0344509], [-118.7098178, 34.0347849], [-118.7098108, 34.0348862], [-118.7097952, 34.0349679], [-118.7097631, 34.0350649], [-118.7096986, 34.0351825], [-118.7096223, 34.0352853], [-118.7095034, 34.0353909], [-118.7091105, 34.0356491], [-118.7090351, 34.0356896], [-118.7088826, 34.0357651], [-118.7087955, 34.0358406], [-118.7087168, 34.0359501], [-118.7086776, 34.0360526], [-118.7086858, 34.0361636], [-118.7086852, 34.0362154], [-118.7086772, 34.0362594], [-118.7086687, 34.0363058], [-118.7086697, 34.0363575], [-118.7086715, 34.0364561], [-118.708666, 34.0364707], [-118.7086583, 34.0364909], [-118.7087814, 34.0366081], [-118.7088602, 34.0366831], [-118.7096481, 34.0374333], [-118.7105456, 34.0382261], [-118.7108849, 34.0385037], [-118.7111961, 34.0387324], [-118.7118819, 34.0391136], [-118.7121255, 34.0393105], [-118.7122315, 34.039466], [-118.7125936, 34.0403221], [-118.7143251, 34.0407702], [-118.7183743, 34.040356], [-118.719325, 34.0421922], [-118.719601, 34.0437185], [-118.7195507, 34.0450072], [-118.7195306, 34.0455047], [-118.719578, 34.0491497], [-118.716373, 34.0491994], [-118.716399, 34.0528831], [-118.715362, 34.0529111], [-118.698268, 34.0453367]]]]}}