{"type": "Feature", "properties": {"market_key": 12, "university": "University of Georgia", "osm_type": "way", "osm_id": 497509577, "osm_name": "University of Georgia"}, "geometry": {"type": "Polygon", "coordinates": [[[-83.3654245, 33.9388006], [-83.3658804, 33.9375912], [-83.3659958, 33.9373336], [-83.36615, 33.9370936], [-83.3662914, 33.9369068], [-83.3685304, 33.9343968], [-83.3689169, 33.9337913], [-83.3691565, 33.9332237], [-83.3692763, 33.9325883], [-83.369245, 33.931554], [-83.3691596, 33.9298663], [-83.3691679, 33.9293317], [-83.3692846, 33.9288686], [-83.3694879, 33.9283166], [-83.3697933, 33.9276756], [-83.370166, 33.9270702], [-83.3704328, 33.9266696], [-83.3707915, 33.92622], [-83.3712284, 33.9257148], [-83.3717633, 33.9252084], [-83.3723768, 33.9246392], [-83.3730644, 33.9241365], [-83.3741538, 33.9235024], [-83.3753369, 33.9230161], [-83.3758855, 33.9227685], [-83.3759973, 33.9229735], [-83.3761432, 33.9232387], [-83.3765301, 33.9242856], [-83.3773645, 33.9265439], [-83.3776996, 33.927385], [-83.3777534, 33.9275174], [-83.3778251, 33.9277376], [-83.3778765, 33.9278806], [-83.3779518, 33.9280511], [-83.3780406, 33.9282114], [-83.3780671, 33.928255], [-83.3779816, 33.9282787], [-83.378152, 33.9292389], [-83.3785775, 33.9289994], [-83.3787832, 33.9292168], [-83.3798889, 33.9301793], [-83.3795346, 33.9303859], [-83.3795729, 33.9304785], [-83.3793984, 33.9305459], [-83.378822, 33.930533], [-83.3782502, 33.9306997], [-83.3782686, 33.9310697], [-83.3783081, 33.9312408], [-83.3783946, 33.9320712], [-83.3769564, 33.9322349], [-83.3763718, 33.9322945], [-83.3758411, 33.932814], [-83.3758515, 33.9329268], [-83.375947, 33.9339613], [-83.3760504, 33.935081], [-83.3760569, 33.9351072], [-83.3760914, 33.9352461], [-83.3761566, 33.9372581], [-83.3761669, 33.9375753], [-83.3761947, 33.9381551], [-83.3762184, 33.9386505], [-83.3763566, 33.939087], [-83.3763712, 33.9392334], [-83.3777431, 33.9392084], [-83.3777584, 33.9396537], [-83.3780502, 33.9396679], [-83.3780588, 33.940145], [-83.3795608, 33.9402661], [-83.379947, 33.9402305], [-83.3802148, 33.9402265], [-83.3804277, 33.9402234], [-83.3808016, 33.9402927], [-83.3809922, 33.9403281], [-83.3810413, 33.9405844], [-83.3812, 33.9409129], [-83.3831274, 33.9428906], [-83.3819958, 33.9435297], [-83.3824989, 33.94427], [-83.3818617, 33.9445434], [-83.3815059, 33.94399], [-83.3814465, 33.9438978], [-83.3812258, 33.9440176], [-83.3814779, 33.9443845], [-83.3811488, 33.9445501], [-83.380897, 33.9441801], [-83.3803696, 33.9444486], [-83.3809044, 33.9451191], [-83.380984, 33.9451161], [-83.381748, 33.9460402], [-83.3815179, 33.946235], [-83.3812074, 33.9464978], [-83.3807976, 33.9463929], [-83.3802225, 33.945842], [-83.3800343, 33.9458847], [-83.3791368, 33.9451062], [-83.3789918, 33.9452539], [-83.3788521, 33.9454283], [-83.3787873, 33.9455413], [-83.3793094, 33.9457524], [-83.3792567, 33.945858], [-83.3794529, 33.9459197], [-83.3793647, 33.9460495], [-83.3796471, 33.9461762], [-83.3795836, 33.946288], [-83.3796195, 33.9463155], [-83.3796241, 33.9463893], [-83.3797042, 33.9464975], [-83.3798435, 33.9465938], [-83.3801812, 33.9467391], [-83.3800672, 33.9469729], [-83.3800654, 33.9469766], [-83.3802475, 33.9470432], [-83.3803377, 33.9468535], [-83.3807579, 33.947036], [-83.3810574, 33.9467757], [-83.3814267, 33.9464683], [-83.3818201, 33.9468931], [-83.3812567, 33.9473782], [-83.3819228, 33.9479522], [-83.3829461, 33.9474182], [-83.3832114, 33.9476585], [-83.3834326, 33.9476274], [-83.3837491, 33.9483792], [-83.3838833, 33.9488606], [-83.3838878, 33.9488766], [-83.3836989, 33.9489966], [-83.3838771, 33.94959], [-83.3839233, 33.9495809], [-83.3840448, 33.9498975], [-83.3839944, 33.9499087], [-83.3790623, 33.9512018], [-83.3792469, 33.9517305], [-83.3796378, 33.9525664], [-83.380323, 33.9539382], [-83.37903, 33.9542092], [-83.3790149, 33.9543544], [-83.3792099, 33.9548648], [-83.3788841, 33.9549379], [-83.3789103, 33.95502], [-83.3786911, 33.9550639], [-83.3788298, 33.9554235], [-83.3783826, 33.9555215], [-83.3784242, 33.9556607], [-83.3779387, 33.9557701], [-83.3777111, 33.9550328], [-83.3769961, 33.9551779], [-83.3770445, 33.9553235], [-83.377217, 33.9558426], [-83.3772241, 33.9558641], [-83.3772048, 33.955877], [-83.3771189, 33.9559079], [-83.3772536, 33.9562483], [-83.3773408, 33.9564685], [-83.3766425, 33.9566116], [-83.3765091, 33.9566344], [-83.3766656, 33.9572298], [-83.3759722, 33.9573886], [-83.3759276, 33.9574012], [-83.3753362, 33.9575386], [-83.3752693, 33.9575529], [-83.3747114, 33.9576718], [-83.3746815, 33.9576782], [-83.3744274, 33.9577324], [-83.374374, 33.9577438], [-83.3742139, 33.9573568], [-83.3735406, 33.9575098], [-83.3736619, 33.9578924], [-83.3735337, 33.9579203], [-83.3734404, 33.9579485], [-83.3732979, 33.9579777], [-83.3731621, 33.9580068], [-83.3730622, 33.958028], [-83.3728122, 33.958084], [-83.372766, 33.9579387], [-83.3726072, 33.9576645], [-83.3725172, 33.9573289], [-83.372474, 33.9570688], [-83.3723962, 33.9568455], [-83.3722987, 33.9564975], [-83.3721016, 33.9563362], [-83.3717368, 33.955948], [-83.3714645, 33.9556874], [-83.3714525, 33.9553329], [-83.3713828, 33.9550915], [-83.3710555, 33.9540436], [-83.371022, 33.9539034], [-83.3710073, 33.9537988], [-83.3709939, 33.953563], [-83.3708906, 33.9520912], [-83.3708919, 33.9519366], [-83.370904, 33.9517697], [-83.3709322, 33.9516029], [-83.3709791, 33.9514827], [-83.3711213, 33.9511312], [-83.3712621, 33.9508442], [-83.3714592, 33.9504882], [-83.3716845, 33.9501355], [-83.3717771, 33.9499508], [-83.3718374, 33.9497795], [-83.371887, 33.9496349], [-83.371934, 33.9494335], [-83.3719501, 33.9492066], [-83.3719326, 33.9489741], [-83.3718196, 33.9489089], [-83.3702822, 33.9479002], [-83.3702737, 33.9477915], [-83.3702582, 33.9476972], [-83.3702492, 33.9476427], [-83.3702356, 33.9474534], [-83.3702072, 33.9473523], [-83.3701737, 33.9472646], [-83.3701235, 33.9471631], [-83.3700596, 33.9470853], [-83.3699415, 33.9469787], [-83.3698383, 33.9469028], [-83.369728, 33.9468591], [-83.3695016, 33.9467729], [-83.3693471, 33.9467401], [-83.3691866, 33.9466835], [-83.3690902, 33.9466399], [-83.3690213, 33.9465523], [-83.3689168, 33.9464306], [-83.3688366, 33.9463857], [-83.3687921, 33.9463387], [-83.368803, 33.9462751], [-83.3688332, 33.9462257], [-83.3688769, 33.9461436], [-83.3689097, 33.9460629], [-83.3689271, 33.9459804], [-83.3689899, 33.9458867], [-83.3690489, 33.9457796], [-83.3691144, 33.9457109], [-83.3691321, 33.9456363], [-83.3691096, 33.9453686], [-83.3691036, 33.9452974], [-83.3690426, 33.9449147], [-83.3690075, 33.9446969], [-83.3690339, 33.9445898], [-83.3691081, 33.944538], [-83.3690842, 33.9444699], [-83.3689749, 33.9444187], [-83.3689543, 33.9442062], [-83.3689398, 33.9441192], [-83.3689297, 33.9440254], [-83.3688796, 33.9439339], [-83.3687984, 33.9438523], [-83.3687153, 33.9437974], [-83.3686085, 33.9437572], [-83.3685288, 33.9436962], [-83.368446, 33.9436383], [-83.3683601, 33.9435836], [-83.3682765, 33.9435068], [-83.3681921, 33.9434301], [-83.3680972, 33.9433616], [-83.368013, 33.9433063], [-83.3679206, 33.943231], [-83.3678362, 33.9431805], [-83.3677646, 33.9431409], [-83.3676624, 33.9430333], [-83.367575, 33.9429173], [-83.3675066, 33.9427286], [-83.3674179, 33.9425814], [-83.3673528, 33.9424666], [-83.367221, 33.9422858], [-83.3671483, 33.9422077], [-83.3670676, 33.9420718], [-83.3670179, 33.9419917], [-83.3669144, 33.9418334], [-83.3668608, 33.9417552], [-83.366818, 33.9416834], [-83.3668127, 33.9416744], [-83.3667779, 33.9416102], [-83.3667682, 33.9415923], [-83.3667322, 33.9415193], [-83.3667271, 33.9415089], [-83.3666897, 33.9414243], [-83.3666424, 33.9413433], [-83.3665897, 33.9412646], [-83.3665316, 33.9411886], [-83.3664684, 33.9411155], [-83.3664001, 33.9410456], [-83.3663272, 33.940979], [-83.3662488, 33.9409169], [-83.3661656, 33.9408594], [-83.366078, 33.9408066], [-83.3659863, 33.9407588], [-83.3658909, 33.9407163], [-83.3658327, 33.9406953], [-83.3656037, 33.9406339], [-83.3651136, 33.9404436], [-83.36506, 33.940412], [-83.3650152, 33.9403851], [-83.3649458, 33.9403615], [-83.3647478, 33.9402656], [-83.3651541, 33.9394293], [-83.3654245, 33.9388006]]]}}