{"type": "Feature", "properties": {"market_key": 121, "university": "Vanderbilt University", "osm_type": "way", "osm_id": 131042264, "osm_name": "Vanderbilt University"}, "geometry": {"type": "Polygon", "coordinates": [[[-86.8030921, 36.1494035], [-86.8021621, 36.1498536], [-86.8013109, 36.150279], [-86.8012789, 36.1502924], [-86.801258, 36.1502998], [-86.8012354, 36.1503062], [-86.8011786, 36.1502871], [-86.8011625, 36.1502674], [-86.8011427, 36.150239], [-86.8008439, 36.1499679], [-86.7999059, 36.1504185], [-86.799629, 36.1505515], [-86.7994416, 36.1506416], [-86.7992245, 36.1503658], [-86.7991935, 36.1503256], [-86.7984025, 36.1492862], [-86.7985877, 36.149123], [-86.7991625, 36.1486164], [-86.7992207, 36.1485018], [-86.7992357, 36.1482265], [-86.7993774, 36.1482354], [-86.7994464, 36.1482456], [-86.7995092, 36.1482601], [-86.7995586, 36.1482931], [-86.7996346, 36.14837], [-86.7995622, 36.1482782], [-86.7995282, 36.1482559], [-86.7994743, 36.1482389], [-86.7994246, 36.1482295], [-86.7993598, 36.1482215], [-86.7992376, 36.1482114], [-86.7992504, 36.1481233], [-86.7992896, 36.1478526], [-86.7993395, 36.1475075], [-86.7993497, 36.1474367], [-86.7993598, 36.1473904], [-86.7993854, 36.1472219], [-86.7994137, 36.1470362], [-86.7994549, 36.1467766], [-86.7995062, 36.1464534], [-86.7995566, 36.1461356], [-86.7995669, 36.146071], [-86.7972988, 36.1458617], [-86.797312, 36.1457894], [-86.7974203, 36.1451985], [-86.7954314, 36.1449639], [-86.7954397, 36.144922], [-86.7954613, 36.1448129], [-86.7956328, 36.1440063], [-86.7956783, 36.1437294], [-86.7956891, 36.1436639], [-86.795031, 36.1436067], [-86.7951367, 36.1430661], [-86.7945139, 36.1430026], [-86.7946663, 36.1421927], [-86.7946663, 36.1421712], [-86.795286, 36.1422449], [-86.795514, 36.1409148], [-86.7950045, 36.1408579], [-86.7951643, 36.1399241], [-86.7958098, 36.1399961], [-86.7963992, 36.1400619], [-86.7965551, 36.1391501], [-86.7972241, 36.1392247], [-86.7973239, 36.138519], [-86.7996025, 36.1387412], [-86.7996896, 36.1387497], [-86.7999302, 36.1387724], [-86.7999633, 36.1387755], [-86.8001603, 36.1387941], [-86.8005014, 36.1388263], [-86.8005853, 36.1388342], [-86.8007532, 36.1387474], [-86.8006647, 36.1383367], [-86.8007648, 36.1375804], [-86.8018426, 36.1376958], [-86.8032709, 36.1378488], [-86.8033921, 36.1368766], [-86.8037023, 36.1369029], [-86.804001, 36.1369333], [-86.8043434, 36.1369682], [-86.8046792, 36.1370001], [-86.8050989, 36.1370404], [-86.8051899, 36.1370491], [-86.8051794, 36.1371151], [-86.8051153, 36.137516], [-86.8050507, 36.13792], [-86.8050333, 36.1380286], [-86.805154, 36.1380418], [-86.8051702, 36.1380442], [-86.8060564, 36.1381333], [-86.8070904, 36.1382372], [-86.8071494, 36.1382434], [-86.8079445, 36.138329], [-86.8085719, 36.1383965], [-86.8102698, 36.1385921], [-86.8108479, 36.1386587], [-86.8119561, 36.138892], [-86.8123337, 36.1390532], [-86.8130182, 36.1395462], [-86.8138336, 36.1405556], [-86.8143808, 36.1412574], [-86.8120473, 36.1423447], [-86.8123836, 36.1428083], [-86.8119904, 36.1430036], [-86.8124354, 36.1435885], [-86.8117455, 36.1439306], [-86.8121878, 36.1445125], [-86.8115813, 36.1447984], [-86.8115581, 36.1447667], [-86.8112776, 36.1444035], [-86.8110437, 36.1440948], [-86.810925, 36.1439423], [-86.8108736, 36.1438727], [-86.8104476, 36.1433067], [-86.8104062, 36.1432633], [-86.8103644, 36.143302], [-86.8101197, 36.1434183], [-86.8100503, 36.143449], [-86.8098143, 36.1445001], [-86.8097895, 36.1446649], [-86.8097609, 36.1461276], [-86.8087219, 36.1466344], [-86.807825, 36.1471074], [-86.8064621, 36.1477642], [-86.8059051, 36.1480326], [-86.8054518, 36.1482554], [-86.8045708, 36.1486885], [-86.8044845, 36.1487309], [-86.8044, 36.1487706], [-86.8030921, 36.1494035]]]}}