{"type": "Feature", "properties": {"market_key": 122, "university": "University of Oklahoma", "osm_type": "way", "osm_id": 392003756, "osm_name": "University of Oklahoma"}, "geometry": {"type": "Polygon", "coordinates": [[[-97.4489573, 35.2110693], [-97.4489802, 35.2075519], [-97.4508514, 35.2075606], [-97.450857, 35.2064962], [-97.4500965, 35.2064898], [-97.4500998, 35.2057448], [-97.4478763, 35.205734], [-97.4478876, 35.2039805], [-97.447321, 35.2039741], [-97.4471668, 35.2039552], [-97.4471779, 35.2021259], [-97.447068, 35.2020655], [-97.4470691, 35.2017999], [-97.4470724, 35.200973], [-97.447073, 35.2008145], [-97.4479754, 35.2008179], [-97.4479792, 35.2020381], [-97.4501178, 35.2020468], [-97.4500346, 35.1922579], [-97.4503154, 35.192265], [-97.451275, 35.1922622], [-97.4512832, 35.1905209], [-97.451491, 35.1903515], [-97.452574, 35.1903484], [-97.4535353, 35.1903457], [-97.4535892, 35.1903072], [-97.4536603, 35.1902827], [-97.4538046, 35.19027], [-97.4539161, 35.1902414], [-97.4539168, 35.1895362], [-97.4539137, 35.1894961], [-97.4502648, 35.1895354], [-97.4497654, 35.1891393], [-97.4497874, 35.1852572], [-97.4412529, 35.18529], [-97.441242, 35.1807023], [-97.4391362, 35.1801023], [-97.4382048, 35.1798802], [-97.4372519, 35.1797012], [-97.4364574, 35.1795886], [-97.4356514, 35.1795016], [-97.4346766, 35.1794393], [-97.4336953, 35.1794201], [-97.4329348, 35.1794387], [-97.4321868, 35.1794785], [-97.4322301, 35.1819477], [-97.432218, 35.1851093], [-97.4322593, 35.1872217], [-97.4314725, 35.1872219], [-97.4311055, 35.1872188], [-97.4311289, 35.1887068], [-97.4311341, 35.1891869], [-97.4322618, 35.1891994], [-97.4322979, 35.1912132], [-97.4414677, 35.1912709], [-97.4414716, 35.1917273], [-97.4413557, 35.1925567], [-97.44135, 35.1956015], [-97.4413505, 35.1963741], [-97.4413478, 35.1964883], [-97.441345, 35.1968354], [-97.4413392, 35.2007312], [-97.4402204, 35.2007289], [-97.4402224, 35.2017759], [-97.440214, 35.2039693], [-97.4369014, 35.2039715], [-97.436939, 35.2074578], [-97.4401344, 35.2074478], [-97.4401526, 35.2082968], [-97.4401606, 35.2087417], [-97.4389255, 35.2087603], [-97.4389297, 35.2092144], [-97.4389211, 35.2110523], [-97.4451529, 35.2110732], [-97.4451531, 35.2111862], [-97.445155, 35.2117877], [-97.445652, 35.21179], [-97.4457175, 35.2117905], [-97.4457144, 35.2120291], [-97.4465035, 35.2120284], [-97.4464992, 35.2122453], [-97.4457237, 35.2122442], [-97.4457279, 35.2123981], [-97.4465148, 35.2123942], [-97.4465094, 35.2129384], [-97.4472619, 35.212942], [-97.4472688, 35.2120558], [-97.4468024, 35.212055], [-97.4468171, 35.2110635], [-97.4477141, 35.2110477], [-97.4489573, 35.2110693]]]}}