{"type": "Feature", "properties": {"market_key": 1242, "university": "Florida Institute of Technology", "osm_type": "way", "osm_id": 282186715, "osm_name": "Florida Institute of Technology"}, "geometry": {"type": "Polygon", "coordinates": [[[-80.6256151, 28.0579101], [-80.6256012, 28.0606793], [-80.6255948, 28.0609732], [-80.6251848, 28.0609789], [-80.6251662, 28.0611967], [-80.6251806, 28.0635905], [-80.62555, 28.0635849], [-80.6255643, 28.0638829], [-80.6261209, 28.0638799], [-80.6261067, 28.0644029], [-80.6257292, 28.064418], [-80.6256329, 28.0664916], [-80.625576, 28.0675343], [-80.6255876, 28.0682279], [-80.6254519, 28.0682379], [-80.625478, 28.0704238], [-80.6249253, 28.0704279], [-80.6249245, 28.0696923], [-80.6237444, 28.0696603], [-80.6233965, 28.0696587], [-80.6214315, 28.0696499], [-80.6214366, 28.0694436], [-80.62143, 28.0688918], [-80.6214395, 28.0686345], [-80.6214539, 28.0678727], [-80.6200222, 28.0678786], [-80.6200315, 28.0676163], [-80.6200352, 28.0673879], [-80.6198722, 28.0673873], [-80.6198755, 28.0671785], [-80.6198815, 28.066789], [-80.6198869, 28.0664449], [-80.6198829, 28.0662688], [-80.6198887, 28.0662284], [-80.6198993, 28.0661936], [-80.6198903, 28.0659728], [-80.6198942, 28.065586], [-80.619895, 28.0655135], [-80.6198973, 28.0652892], [-80.6198983, 28.0651894], [-80.6198977, 28.0641391], [-80.6199098, 28.0640563], [-80.6199083, 28.0639398], [-80.6197166, 28.0638289], [-80.6197369, 28.0625584], [-80.6215555, 28.0625657], [-80.6215685, 28.0620341], [-80.6215731, 28.0619322], [-80.6215931, 28.0602708], [-80.6215921, 28.0601831], [-80.6215951, 28.0597154], [-80.6200575, 28.0597204], [-80.6200688, 28.0588222], [-80.6212233, 28.0588034], [-80.6216009, 28.0587973], [-80.6216055, 28.0579488], [-80.6216635, 28.0579075], [-80.6236142, 28.0579257], [-80.6256151, 28.0579101]]]}}