{"type": "Feature", "properties": {"market_key": 1258, "university": "Central Connecticut State University", "osm_type": "relation", "osm_id": 11578305, "osm_name": "Central Connecticut State University"}, "geometry": {"type": "MultiPolygon", "coordinates": [[[[-72.7607015, 41.6927021], [-72.7606208, 41.6922412], [-72.7607516, 41.6919865], [-72.7606675, 41.6914666], [-72.762401, 41.6912817], [-72.7627094, 41.6913131], [-72.7635177, 41.6914282], [-72.7638167, 41.6914108], [-72.7641064, 41.691348], [-72.7643961, 41.6912503], [-72.7646297, 41.6911526], [-72.7648493, 41.6910479], [-72.7650829, 41.6908874], [-72.7652932, 41.6907165], [-72.7655175, 41.6905071], [-72.7656904, 41.6903082], [-72.7657301, 41.6902481], [-72.7658679, 41.6900396], [-72.7659021, 41.6899706], [-72.7657254, 41.6899201], [-72.7654234, 41.6897893], [-72.7655373, 41.6896427], [-72.7658076, 41.6897597], [-72.7659843, 41.6898102], [-72.766063, 41.6896399], [-72.7661669, 41.689415], [-72.7663912, 41.6891429], [-72.7665968, 41.6889509], [-72.7668725, 41.6887904], [-72.7671575, 41.6886753], [-72.7673372, 41.6886358], [-72.7674502, 41.6886179], [-72.7675489, 41.6886086], [-72.7675384, 41.6884672], [-72.767609, 41.6884493], [-72.7676676, 41.6884149], [-72.7677074, 41.6883678], [-72.7677238, 41.6883134], [-72.7677149, 41.6882581], [-72.7676826, 41.6882093], [-72.7676283, 41.6881694], [-72.76762, 41.6881608], [-72.7676153, 41.6881512], [-72.7676156, 41.6881435], [-72.7676232, 41.6881311], [-72.7676453, 41.6881082], [-72.7677644, 41.6880322], [-72.767892, 41.6879743], [-72.7680231, 41.6879389], [-72.76815, 41.6879162], [-72.7693076, 41.6877947], [-72.7693795, 41.6881116], [-72.7696339, 41.6880833], [-72.769744, 41.6885811], [-72.7702179, 41.6885322], [-72.7703207, 41.688595], [-72.7710076, 41.6913584], [-72.7711959, 41.692247], [-72.7711991, 41.6922621], [-72.7711244, 41.6923354], [-72.7696479, 41.6925412], [-72.7691433, 41.6926843], [-72.7688489, 41.6928483], [-72.7685452, 41.6930716], [-72.7683162, 41.6933262], [-72.7681434, 41.6935391], [-72.7681355, 41.69355], [-72.7680022, 41.6937339], [-72.767564, 41.694338], [-72.7672556, 41.6946241], [-72.7668678, 41.6948369], [-72.7663679, 41.6949765], [-72.7659333, 41.6950253], [-72.7658657, 41.6950302], [-72.7648017, 41.6951071], [-72.7646999, 41.6951148], [-72.7645537, 41.6951258], [-72.7633261, 41.6952137], [-72.7627421, 41.6953393], [-72.7620807, 41.6956444], [-72.761654, 41.696033], [-72.7615317, 41.6962484], [-72.7614584, 41.6963894], [-72.7613952, 41.6965578], [-72.7613562, 41.6967038], [-72.7612529, 41.6974985], [-72.7608592, 41.6975948], [-72.760758, 41.6976195], [-72.7603228, 41.6979254], [-72.7588722, 41.6968295], [-72.7586588, 41.6948288], [-72.7596394, 41.6947219], [-72.759261, 41.6937128], [-72.7591255, 41.6937461], [-72.7588785, 41.6932471], [-72.759534, 41.6926708], [-72.7595821, 41.6926432], [-72.7596314, 41.6926229], [-72.7596895, 41.6926115], [-72.7597784, 41.6926138], [-72.7601461, 41.6926857], [-72.7601645, 41.6927848], [-72.7600536, 41.6928011], [-72.7596551, 41.6930072], [-72.7597121, 41.6934384], [-72.7593521, 41.6936806], [-72.7597338, 41.694692], [-72.7598691, 41.6946256], [-72.7601989, 41.6945969], [-72.7611226, 41.6945155], [-72.7619648, 41.6942585], [-72.7620382, 41.6940985], [-72.7621355, 41.692657], [-72.7621328, 41.6926342], [-72.7621243, 41.6926199], [-72.7621102, 41.6926109], [-72.7620862, 41.6926029], [-72.7608582, 41.6927381], [-72.7607015, 41.6927021]]], [[[-72.7615867, 41.6974207], [-72.761917, 41.6973177], [-72.7620156, 41.6970637], [-72.7620304, 41.6966661], [-72.7619392, 41.6964766], [-72.7617913, 41.6963201], [-72.7617062, 41.696469], [-72.7616525, 41.6966154], [-72.7616116, 41.6967709], [-72.7615989, 41.6969728], [-72.7615867, 41.6974207]]]]}}