{"type": "Feature", "properties": {"market_key": 1299, "university": "University of Oregon", "osm_type": "relation", "osm_id": 4770158, "osm_name": "University of Oregon"}, "geometry": {"type": "MultiPolygon", "coordinates": [[[[-123.0615382, 44.0453025], [-123.0614409, 44.0454965], [-123.0614339, 44.0455222], [-123.061446, 44.0455486], [-123.0614694, 44.0455642], [-123.061994, 44.0457745], [-123.062198, 44.0455095], [-123.0615382, 44.0453025]]], [[[-123.0835337, 44.0476232], [-123.0835352, 44.047323], [-123.0831207, 44.0473219], [-123.0831212, 44.0472104], [-123.0827986, 44.0472095], [-123.0827981, 44.0473023], [-123.082608, 44.0473018], [-123.0826066, 44.0475731], [-123.0828982, 44.0476215], [-123.0835337, 44.0476232]]], [[[-123.0629357, 44.0449291], [-123.0629955, 44.0449148], [-123.0630453, 44.0448879], [-123.0630653, 44.0448395], [-123.0630644, 44.0433849], [-123.0608033, 44.0433696], [-123.0607979, 44.043458], [-123.0607979, 44.043469], [-123.0607981, 44.0437018], [-123.0610152, 44.0437018], [-123.0610128, 44.0438821], [-123.0609992, 44.044234], [-123.0609369, 44.0443021], [-123.0608946, 44.0443469], [-123.0608771, 44.0444006], [-123.0608821, 44.0444597], [-123.0609344, 44.0445135], [-123.0629357, 44.0449291]]], [[[-123.0791799, 44.0460783], [-123.0787847, 44.0460794], [-123.0787827, 44.0463076], [-123.0790141, 44.0463077], [-123.0790108, 44.046525], [-123.0791794, 44.0465243], [-123.0791815, 44.046085], [-123.0791799, 44.0460783]]], [[[-123.0788324, 44.0444942], [-123.078829, 44.0449464], [-123.079212, 44.0449503], [-123.080077, 44.0449507], [-123.0800802, 44.0445112], [-123.0800772, 44.0444991], [-123.0798981, 44.0444984], [-123.0788324, 44.0444942]]], [[[-123.0837466, 44.0484911], [-123.0837368, 44.0485494], [-123.0837334, 44.0485696], [-123.0837329, 44.0485755], [-123.0837235, 44.0486786], [-123.083724, 44.049072], [-123.0837228, 44.0492788], [-123.0838559, 44.0492792], [-123.0838629, 44.0492789], [-123.0838629, 44.0492942], [-123.0839456, 44.0492942], [-123.0839457, 44.0492734], [-123.0839903, 44.0492734], [-123.0839903, 44.0492806], [-123.0840247, 44.0492806], [-123.0840505, 44.0493245], [-123.0842445, 44.0493243], [-123.0842446, 44.0493881], [-123.0842645, 44.0493881], [-123.0842645, 44.0493767], [-123.0842968, 44.0493766], [-123.0842969, 44.0493881], [-123.0843076, 44.0493881], [-123.0843076, 44.049374], [-123.0843998, 44.049374], [-123.0843998, 44.0493796], [-123.0844902, 44.0493795], [-123.084478, 44.049368], [-123.0846535, 44.0493675], [-123.0846692, 44.0493585], [-123.0846722, 44.0493432], [-123.0846749, 44.0493267], [-123.0846873, 44.0493266], [-123.0846874, 44.0492609], [-123.0846792, 44.0492609], [-123.0846793, 44.0491867], [-123.0846903, 44.0491867], [-123.0846902, 44.0490041], [-123.0847851, 44.0490041], [-123.0848571, 44.0490044], [-123.0848572, 44.0489332], [-123.0848586, 44.0488481], [-123.0848587, 44.0488406], [-123.0848606, 44.0487276], [-123.0847087, 44.0486643], [-123.0844375, 44.0485996], [-123.0843644, 44.0485822], [-123.0842312, 44.0485605], [-123.0841268, 44.0485434], [-123.0837466, 44.0484911]]], [[[-123.0785274, 44.0429561], [-123.0787976, 44.0429595], [-123.0787976, 44.0428899], [-123.0796721, 44.0428905], [-123.0796702, 44.0432264], [-123.0800901, 44.0432256], [-123.0800926, 44.0428454], [-123.0800929, 44.0420794], [-123.080094, 44.0420239], [-123.0800953, 44.0419155], [-123.0801088, 44.0401053], [-123.0800984, 44.0401001], [-123.0773019, 44.0400992], [-123.0773041, 44.0420201], [-123.077303, 44.0424451], [-123.0773035, 44.0429316], [-123.074824, 44.0429258], [-123.0748231, 44.0424852], [-123.0748331, 44.0401019], [-123.0744153, 44.040107], [-123.0706316, 44.040085], [-123.0706282, 44.0395398], [-123.0704596, 44.0395404], [-123.0704566, 44.0396297], [-123.0695341, 44.0396225], [-123.069535, 44.0392286], [-123.0690896, 44.0392272], [-123.0690939, 44.0393075], [-123.0688597, 44.0393075], [-123.0688746, 44.0411832], [-123.0671899, 44.0411796], [-123.066507, 44.0411724], [-123.0656671, 44.0411742], [-123.065673, 44.0419147], [-123.0662568, 44.0419173], [-123.0662564, 44.0420721], [-123.0656644, 44.0420707], [-123.0656541, 44.0432003], [-123.0657994, 44.0432019], [-123.0658019, 44.0428435], [-123.0662777, 44.0428446], [-123.0662798, 44.043769], [-123.064993, 44.0437561], [-123.0649939, 44.0443129], [-123.0649888, 44.0445264], [-123.0649876, 44.0451971], [-123.0650539, 44.0453198], [-123.0650769, 44.0453305], [-123.0663684, 44.045557], [-123.0666237, 44.0455975], [-123.0666605, 44.0456321], [-123.0667157, 44.0456599], [-123.0678777, 44.0458653], [-123.0685276, 44.046011], [-123.0694909, 44.0462338], [-123.0699361, 44.0463287], [-123.0699882, 44.046346], [-123.070062, 44.0463727], [-123.0700442, 44.046777], [-123.0699668, 44.0467756], [-123.0699519, 44.0472757], [-123.0696549, 44.0472745], [-123.068674, 44.0475466], [-123.0683985, 44.0476039], [-123.0677941, 44.0476182], [-123.0671679, 44.047637], [-123.0667945, 44.04765], [-123.0665698, 44.0476589], [-123.0662278, 44.047648], [-123.0659894, 44.0476075], [-123.0659216, 44.0475999], [-123.0657593, 44.0475676], [-123.0655454, 44.0475149], [-123.065528, 44.0475536], [-123.0654989, 44.0476218], [-123.0653752, 44.0479059], [-123.0651722, 44.0483722], [-123.0651263, 44.0484777], [-123.0657294, 44.048698], [-123.0662678, 44.0488592], [-123.0668709, 44.0490223], [-123.0676709, 44.0491835], [-123.0683687, 44.0492945], [-123.0690291, 44.0493644], [-123.0694952, 44.0494163], [-123.0698948, 44.0494316], [-123.0700559, 44.0494378], [-123.0712862, 44.0494287], [-123.0713968, 44.0494278], [-123.0715311, 44.0494268], [-123.0719196, 44.049424], [-123.0733204, 44.0494136], [-123.0755383, 44.0493971], [-123.0767865, 44.0494407], [-123.0777256, 44.0495449], [-123.0777254, 44.0495082], [-123.0777243, 44.0492603], [-123.077611, 44.0490981], [-123.0769238, 44.0488059], [-123.0760565, 44.0484579], [-123.0748308, 44.0482595], [-123.0746601, 44.0481959], [-123.074197, 44.0481272], [-123.0736875, 44.0480765], [-123.073692, 44.0479421], [-123.0738391, 44.0478812], [-123.0739712, 44.0478006], [-123.0740385, 44.0477236], [-123.0740707, 44.0476641], [-123.0740783, 44.0476501], [-123.0747113, 44.0477755], [-123.0752646, 44.0478848], [-123.0755238, 44.0479421], [-123.0757207, 44.0480371], [-123.0757455, 44.0481378], [-123.0759258, 44.0481291], [-123.0761952, 44.0482404], [-123.0765674, 44.0485021], [-123.0767212, 44.0485843], [-123.0768327, 44.0486278], [-123.0768529, 44.0486364], [-123.0770347, 44.0484138], [-123.0770551, 44.0483732], [-123.0768076, 44.0482595], [-123.077011, 44.0479968], [-123.0775737, 44.0482632], [-123.0779147, 44.0484452], [-123.0785392, 44.0487784], [-123.078586, 44.0486475], [-123.0785539, 44.0478277], [-123.0785057, 44.0478121], [-123.0784981, 44.0476171], [-123.0785266, 44.0475997], [-123.0785112, 44.0468387], [-123.0785058, 44.0460054], [-123.0785083, 44.0455718], [-123.0785062, 44.0454023], [-123.0785293, 44.0453737], [-123.0785331, 44.0447917], [-123.078524, 44.0439138], [-123.0785295, 44.0432486], [-123.0785274, 44.0429561]]], [[[-123.067452, 44.0557766], [-123.0670652, 44.0554916], [-123.066784, 44.0553447], [-123.0663937, 44.0552349], [-123.0659927, 44.0551984], [-123.0656051, 44.0552045], [-123.06508, 44.055208], [-123.0646762, 44.0552461], [-123.0643135, 44.0553646], [-123.0631851, 44.0558361], [-123.0622281, 44.0562432], [-123.0616658, 44.0564833], [-123.0623374, 44.0581661], [-123.0625372, 44.0586252], [-123.0627402, 44.0590289], [-123.0630142, 44.059383], [-123.0632294, 44.0595759], [-123.0634841, 44.0597189], [-123.0636616, 44.0597916], [-123.0637823, 44.059841], [-123.0638573, 44.0598629], [-123.0640469, 44.0599182], [-123.0644036, 44.0599889], [-123.0647585, 44.0600115], [-123.0651639, 44.0600238], [-123.0655159, 44.0600142], [-123.0667879, 44.0599735], [-123.0677423, 44.0599432], [-123.0687715, 44.059903], [-123.0699616, 44.0598465], [-123.0701125, 44.0598416], [-123.0718773, 44.0597844], [-123.0750731, 44.0597112], [-123.0750574, 44.0594486], [-123.0749981, 44.0592431], [-123.0748493, 44.0589996], [-123.0746294, 44.0587318], [-123.0745616, 44.0585366], [-123.0745554, 44.057893], [-123.0744102, 44.0577001], [-123.0742113, 44.0575789], [-123.0734915, 44.0574091], [-123.072981, 44.0573031], [-123.0723613, 44.0571856], [-123.0722546, 44.0571653], [-123.0717993, 44.0570784], [-123.0712323, 44.0569443], [-123.0706366, 44.0568051], [-123.0703895, 44.0567429], [-123.0701253, 44.0566828], [-123.0692169, 44.0564923], [-123.0682485, 44.0562557], [-123.0679387, 44.0561353], [-123.067452, 44.0557766]]]]}}