{"type": "Feature", "properties": {"market_key": 13, "university": "Auburn University", "osm_type": "relation", "osm_id": 8457841, "osm_name": "Auburn University"}, "geometry": {"type": "MultiPolygon", "coordinates": [[[[-85.5018394, 32.606228], [-85.5018378, 32.6070433], [-85.4990526, 32.6071927], [-85.498911, 32.6071927], [-85.4989043, 32.6073788], [-85.4975685, 32.6073858], [-85.4975834, 32.6063591], [-85.4966392, 32.6063288], [-85.4952696, 32.6063481], [-85.4932089, 32.6063495], [-85.4928785, 32.6063553], [-85.4928049, 32.6063563], [-85.4923783, 32.6063605], [-85.4921903, 32.6063626], [-85.4914703, 32.6063684], [-85.4908979, 32.6063721], [-85.4907193, 32.6063733], [-85.4905589, 32.6063743], [-85.4903894, 32.6063776], [-85.4902706, 32.6063784], [-85.4901757, 32.6063798], [-85.4900303, 32.6063963], [-85.4896769, 32.6064714], [-85.489507, 32.6064765], [-85.4887233, 32.6064904], [-85.488558, 32.6064899], [-85.4875332, 32.6065005], [-85.4874535, 32.6065018], [-85.4871664, 32.6065043], [-85.4869872, 32.6065058], [-85.4868497, 32.6065069], [-85.4865526, 32.6065093], [-85.4862969, 32.6065133], [-85.4860376, 32.606516], [-85.4856146, 32.6065212], [-85.4852412, 32.6065257], [-85.4850327, 32.6065271], [-85.4849497, 32.6065276], [-85.4841764, 32.6065316], [-85.4839678, 32.6065337], [-85.4838951, 32.6065337], [-85.4838495, 32.606534], [-85.4837062, 32.606536], [-85.4834813, 32.6065376], [-85.4830068, 32.6065416], [-85.4828643, 32.6065425], [-85.4824241, 32.6065468], [-85.4818793, 32.6065522], [-85.4817292, 32.6065502], [-85.4816695, 32.6064437], [-85.4816922, 32.60429], [-85.4817498, 32.6041317], [-85.4817444, 32.6039764], [-85.4817567, 32.602455], [-85.4817626, 32.6014346], [-85.4817642, 32.601368], [-85.4817585, 32.6012685], [-85.4817358, 32.6000851], [-85.4817281, 32.5967847], [-85.4817337, 32.5963193], [-85.481743, 32.596017], [-85.481775, 32.59581], [-85.481876, 32.595401], [-85.482019, 32.595001], [-85.482189, 32.594606], [-85.482354, 32.594245], [-85.4824161, 32.5942659], [-85.4827828, 32.59347], [-85.4829536, 32.5931], [-85.4829675, 32.5930765], [-85.4829821, 32.5930602], [-85.4830146, 32.5930429], [-85.4830498, 32.593036], [-85.483089, 32.5930391], [-85.4834233, 32.5931494], [-85.4834362, 32.5931601], [-85.4834471, 32.5931716], [-85.4834512, 32.5931828], [-85.4834474, 32.5931994], [-85.4833796, 32.5933399], [-85.4839305, 32.5935293], [-85.4842353, 32.5932599], [-85.484458, 32.5931496], [-85.4853923, 32.5923299], [-85.4851865, 32.5903965], [-85.4854279, 32.5889501], [-85.48167, 32.588878], [-85.4817434, 32.5854002], [-85.4831486, 32.5855383], [-85.4840506, 32.5866065], [-85.4846165, 32.5869606], [-85.4850966, 32.587161], [-85.4854238, 32.5871625], [-85.4857456, 32.5871202], [-85.4861879, 32.5870638], [-85.486506, 32.5867202], [-85.4876502, 32.5857456], [-85.4888338, 32.5850366], [-85.4889349, 32.5850404], [-85.4901491, 32.5852804], [-85.4909995, 32.5852758], [-85.4937683, 32.5852607], [-85.4937683, 32.5841038], [-85.4912009, 32.5840533], [-85.4906137, 32.5840418], [-85.4925824, 32.5829066], [-85.4942161, 32.581889], [-85.4945587, 32.5816267], [-85.4951328, 32.5811643], [-85.4953522, 32.5809483], [-85.4958784, 32.5804803], [-85.4963759, 32.5799434], [-85.4968367, 32.5794273], [-85.4970439, 32.5792853], [-85.4974429, 32.5787497], [-85.4977592, 32.5782044], [-85.4982746, 32.5774565], [-85.4982972, 32.5772131], [-85.4983146, 32.5769925], [-85.4984831, 32.576654], [-85.4991266, 32.5766453], [-85.5080923, 32.5765243], [-85.5079989, 32.5809133], [-85.5125933, 32.580921], [-85.5125772, 32.5836828], [-85.5116545, 32.583728], [-85.5117323, 32.5852467], [-85.5118173, 32.5869062], [-85.5121293, 32.5877291], [-85.5173464, 32.5840776], [-85.5172912, 32.5912717], [-85.5225751, 32.5911881], [-85.5227991, 32.5915789], [-85.5230203, 32.5919444], [-85.5236694, 32.5929885], [-85.523863, 32.5933313], [-85.5194321, 32.5933131], [-85.5167651, 32.5933712], [-85.5168158, 32.5984957], [-85.5137201, 32.5985213], [-85.5112029, 32.5984535], [-85.5103803, 32.5984549], [-85.5080445, 32.59845], [-85.5080616, 32.5973451], [-85.5078724, 32.5957874], [-85.5076616, 32.5949904], [-85.5073869, 32.5942415], [-85.5103011, 32.594212], [-85.5102932, 32.5928802], [-85.5102845, 32.5926413], [-85.5102451, 32.5924674], [-85.5101459, 32.5922916], [-85.5097601, 32.5918885], [-85.5090121, 32.5910914], [-85.5089283, 32.5910021], [-85.5088474, 32.5909266], [-85.5084799, 32.5906081], [-85.5083917, 32.5905376], [-85.5080217, 32.5908571], [-85.5077852, 32.5910614], [-85.5075943, 32.5912193], [-85.5073799, 32.5913967], [-85.5072389, 32.5915149], [-85.5070928, 32.5916286], [-85.5069415, 32.5917375], [-85.5067855, 32.5918414], [-85.5066276, 32.5919387], [-85.506588, 32.5919613], [-85.5064656, 32.592031], [-85.5062983, 32.5921186], [-85.5061408, 32.5921936], [-85.5059964, 32.592267], [-85.5058578, 32.592332], [-85.5055479, 32.5924708], [-85.5053595, 32.5925596], [-85.504751, 32.592835], [-85.504336, 32.593061], [-85.503933, 32.593307], [-85.5035746, 32.5935572], [-85.5033427, 32.5937397], [-85.5032284, 32.5938308], [-85.503188, 32.593863], [-85.5029962, 32.5940243], [-85.501596, 32.595202], [-85.500921, 32.595757], [-85.5005093, 32.5961025], [-85.5003639, 32.5962255], [-85.5015434, 32.59648], [-85.5032576, 32.5963973], [-85.5065879, 32.596241], [-85.5067993, 32.595734], [-85.507401, 32.5958573], [-85.5075497, 32.6006461], [-85.5050972, 32.6005563], [-85.5033159, 32.6005091], [-85.5032983, 32.6011665], [-85.503303, 32.6015595], [-85.5026925, 32.6020225], [-85.503443, 32.6024675], [-85.5034158, 32.6061448], [-85.5018394, 32.606228]]], [[[-85.426352, 32.5847], [-85.4261439, 32.580532], [-85.4234957, 32.5785491], [-85.423074, 32.5789768], [-85.4217277, 32.5785953], [-85.4202725, 32.5786087], [-85.4202567, 32.5772092], [-85.415548, 32.576924], [-85.4155473, 32.5850434], [-85.4130307, 32.5850714], [-85.4132978, 32.5911856], [-85.4214126, 32.591209], [-85.426294, 32.591304], [-85.425948, 32.584673], [-85.426352, 32.5847]]], [[[-85.4828002, 32.665357], [-85.4827877, 32.6584216], [-85.4878641, 32.6584216], [-85.4893125, 32.6611807], [-85.487083, 32.661063], [-85.487054, 32.662783], [-85.4901954, 32.6629704], [-85.4901692, 32.6633952], [-85.4891358, 32.6633602], [-85.489177, 32.6657448], [-85.485181, 32.6656009], [-85.4828002, 32.665357]]], [[[-85.4886176, 32.6468623], [-85.4881776, 32.646827], [-85.4878802, 32.6467], [-85.4866483, 32.6473739], [-85.4857391, 32.6478043], [-85.4849807, 32.6477549], [-85.4850771, 32.6470669], [-85.4848927, 32.6470564], [-85.483686, 32.6477937], [-85.4835687, 32.6498328], [-85.4836006, 32.6503139], [-85.4841021, 32.6512578], [-85.4850894, 32.6528973], [-85.4859972, 32.6545387], [-85.4877002, 32.6574704], [-85.4886593, 32.6570775], [-85.4890676, 32.6570175], [-85.489424, 32.65615], [-85.4899748, 32.6562428], [-85.4905127, 32.6561555], [-85.4913163, 32.6565156], [-85.4921652, 32.6563628], [-85.493403, 32.6570448], [-85.4944335, 32.6575592], [-85.4953442, 32.6575646], [-85.4954971, 32.6581544], [-85.4953824, 32.6592053], [-85.4948538, 32.6595967], [-85.4945816, 32.66184], [-85.493008, 32.6631076], [-85.4928452, 32.6639184], [-85.4936863, 32.6643409], [-85.494785, 32.6641125], [-85.4954633, 32.6642724], [-85.4957257, 32.6649478], [-85.4976568, 32.6646944], [-85.4981386, 32.6645387], [-85.4981173, 32.6631575], [-85.4981027, 32.6627387], [-85.4971443, 32.6626586], [-85.497254, 32.6615069], [-85.4978905, 32.6610819], [-85.497693, 32.660121], [-85.4974442, 32.658883], [-85.4957103, 32.6559505], [-85.4935001, 32.6545775], [-85.4923629, 32.6531322], [-85.4898952, 32.6535478], [-85.488007, 32.651434], [-85.4870199, 32.6513256], [-85.4862669, 32.6506826], [-85.4871645, 32.6503998], [-85.4878709, 32.6498879], [-85.4886236, 32.6485277], [-85.4887973, 32.6481864], [-85.48878, 32.6473819], [-85.4886176, 32.6468623]]]]}}