{"type": "Feature", "properties": {"market_key": 1353, "university": "University of South Carolina Upstate", "osm_type": "way", "osm_id": 194672109, "osm_name": "University of South Carolina Upstate"}, "geometry": {"type": "Polygon", "coordinates": [[[-81.9733883, 34.9948375], [-81.9724401, 34.9945925], [-81.9696875, 34.9935763], [-81.9683927, 34.9942946], [-81.9682592, 34.9943787], [-81.9677164, 34.9947206], [-81.9670028, 34.9953275], [-81.9665134, 34.9959622], [-81.9661464, 34.9967361], [-81.9659595, 34.9975991], [-81.9656094, 35.0024151], [-81.9658303, 35.0024206], [-81.9658847, 35.0038514], [-81.9671442, 35.0048626], [-81.9687903, 35.0061841], [-81.9695991, 35.0071027], [-81.9731334, 35.0072252], [-81.975757, 35.0072975], [-81.9759133, 35.0072224], [-81.976158, 35.006983], [-81.9763619, 35.0067575], [-81.9764808, 35.0065877], [-81.9765522, 35.0063372], [-81.9764638, 35.005452], [-81.9764298, 35.0048702], [-81.9764502, 35.0044778], [-81.9765148, 35.0040129], [-81.9765692, 35.0035118], [-81.9765454, 35.0031806], [-81.9764536, 35.0028382], [-81.9762905, 35.0023733], [-81.9759235, 35.0014213], [-81.9758555, 35.0010455], [-81.9758793, 35.000717], [-81.9761376, 34.9999264], [-81.97644, 34.9992583], [-81.9774179, 34.9971674], [-81.9774179, 34.9969351], [-81.9765672, 34.9964351], [-81.9754765, 34.9956768], [-81.9735055, 34.9948472], [-81.9733883, 34.9948375]]]}}