{"type": "Feature", "properties": {"market_key": 14, "university": "University of Alabama", "osm_type": "way", "osm_id": 89748187, "osm_name": "University of Alabama"}, "geometry": {"type": "Polygon", "coordinates": [[[-87.5515764, 33.206475], [-87.5515758, 33.2066563], [-87.5521549, 33.2066867], [-87.5521525, 33.2068166], [-87.5517305, 33.2068077], [-87.5515769, 33.206807], [-87.5515949, 33.2069444], [-87.5515912, 33.207211], [-87.5517259, 33.2072173], [-87.5521564, 33.207228], [-87.5521554, 33.2073666], [-87.5516648, 33.2073549], [-87.5515925, 33.207347], [-87.5515908, 33.2076259], [-87.5521639, 33.2076494], [-87.5521668, 33.2079559], [-87.5519442, 33.2079556], [-87.5519377, 33.2083645], [-87.5515888, 33.2083538], [-87.5515991, 33.2098315], [-87.5515931, 33.2100197], [-87.5515936, 33.2100427], [-87.5516014, 33.2104315], [-87.5516041, 33.2105685], [-87.5522346, 33.2106642], [-87.5520779, 33.2116993], [-87.5520584, 33.2118499], [-87.5527075, 33.2118947], [-87.5525918, 33.2121333], [-87.5527623, 33.2122115], [-87.553, 33.2122392], [-87.5536333, 33.2123131], [-87.5535445, 33.2127155], [-87.553276, 33.2126823], [-87.5531125, 33.21362], [-87.5524275, 33.2135619], [-87.5523591, 33.214079], [-87.5522297, 33.2142026], [-87.5515344, 33.2141575], [-87.5513492, 33.2140894], [-87.5511862, 33.2140879], [-87.5505933, 33.2143804], [-87.5508796, 33.2147891], [-87.5515198, 33.2146683], [-87.5514378, 33.2175336], [-87.5518336, 33.2177993], [-87.5519938, 33.2185418], [-87.5519612, 33.2197048], [-87.5516717, 33.2197845], [-87.551255, 33.2198969], [-87.5494409, 33.2203904], [-87.5493724, 33.2201798], [-87.5485922, 33.2206034], [-87.5481777, 33.220742], [-87.5471093, 33.2213986], [-87.547149, 33.2215041], [-87.5459885, 33.2219124], [-87.5459067, 33.2217737], [-87.5442966, 33.2222154], [-87.5428618, 33.2225007], [-87.542699, 33.2221809], [-87.5425029, 33.221883], [-87.5425412, 33.2209423], [-87.5425008, 33.2206176], [-87.5414984, 33.2207026], [-87.5404971, 33.2207129], [-87.5404531, 33.2223102], [-87.5393205, 33.2224168], [-87.5381193, 33.2222697], [-87.5369847, 33.2220082], [-87.5359037, 33.2215355], [-87.535068, 33.221084], [-87.5347336, 33.2209328], [-87.5344735, 33.2207879], [-87.534242, 33.220648], [-87.5335321, 33.2201387], [-87.5331322, 33.2198036], [-87.5313394, 33.2180108], [-87.5305241, 33.2168278], [-87.5293754, 33.217336], [-87.529027, 33.2177441], [-87.5288799, 33.2179164], [-87.5285968, 33.2187632], [-87.5272022, 33.2188655], [-87.5273148, 33.2183539], [-87.5272719, 33.2182013], [-87.5268749, 33.2179544], [-87.5266121, 33.2178467], [-87.5264136, 33.2178378], [-87.5263492, 33.2171466], [-87.52614, 33.2167472], [-87.5251637, 33.2174653], [-87.5236724, 33.2185334], [-87.5237367, 33.2164241], [-87.5261024, 33.2163433], [-87.5276098, 33.2160785], [-87.5275616, 33.2159618], [-87.5282712, 33.215672], [-87.5296373, 33.2151686], [-87.5293562, 33.2147847], [-87.5266806, 33.212031], [-87.5255764, 33.2117467], [-87.5246278, 33.2088863], [-87.5246986, 33.2078854], [-87.5251304, 33.2074116], [-87.5253683, 33.2067314], [-87.5255227, 33.2064387], [-87.5257014, 33.2063511], [-87.5274391, 33.2064903], [-87.5303045, 33.2067945], [-87.531691, 33.2070342], [-87.5317629, 33.2068529], [-87.5327416, 33.2070368], [-87.53382, 33.2072327], [-87.5339096, 33.20725], [-87.5344791, 33.2073505], [-87.5344707, 33.2068955], [-87.5339042, 33.2068058], [-87.5339067, 33.2066476], [-87.5339164, 33.2065298], [-87.5339514, 33.2064449], [-87.5340244, 33.2063534], [-87.534108, 33.2062653], [-87.5341612, 33.2061654], [-87.5341826, 33.2060837], [-87.5341767, 33.2060011], [-87.5336136, 33.2059721], [-87.5331668, 33.2058819], [-87.5331853, 33.2056138], [-87.5334133, 33.2054256], [-87.5334195, 33.2045774], [-87.5321932, 33.2045826], [-87.5321778, 33.2036648], [-87.5327955, 33.2036244], [-87.5333609, 33.2035875], [-87.5333744, 33.2022516], [-87.5378901, 33.201953], [-87.5423756, 33.2016683], [-87.542936, 33.2016136], [-87.5429905, 33.20453], [-87.5429919, 33.2048319], [-87.5429263, 33.2059176], [-87.542413, 33.2059245], [-87.542352, 33.2066252], [-87.5432017, 33.2066558], [-87.543197, 33.2060944], [-87.5454413, 33.2061903], [-87.5476614, 33.2062852], [-87.5477288, 33.2055425], [-87.5478432, 33.2037846], [-87.5504547, 33.2039185], [-87.5504526, 33.203936], [-87.5504449, 33.2040643], [-87.5502617, 33.2062578], [-87.5502526, 33.2063883], [-87.5515764, 33.206475]]]}}