{"type": "Feature", "properties": {"market_key": 1401, "university": "Sam Houston State University", "osm_type": "relation", "osm_id": 5624010, "osm_name": "Sam Houston State University"}, "geometry": {"type": "MultiPolygon", "coordinates": [[[[-95.5552347, 30.7098372], [-95.5552005, 30.7098457], [-95.5533022, 30.7098265], [-95.5528035, 30.709805], [-95.5526933, 30.7097782], [-95.5526663, 30.7097425], [-95.5532646, 30.7080297], [-95.5538683, 30.7064103], [-95.5541143, 30.7056763], [-95.5541829, 30.7055459], [-95.5542847, 30.7054405], [-95.5548104, 30.7051707], [-95.5568103, 30.7058639], [-95.556029, 30.7078435], [-95.5550025, 30.7075362], [-95.5544586, 30.7086362], [-95.5548465, 30.7086817], [-95.5548171, 30.7089773], [-95.555255, 30.708995], [-95.5552556, 30.7098118], [-95.5552347, 30.7098372]]], [[[-95.5504136, 30.7190137], [-95.5474203, 30.7189997], [-95.5460676, 30.7189819], [-95.5460697, 30.7185549], [-95.5456167, 30.7185353], [-95.5455896, 30.7184138], [-95.5450722, 30.7184281], [-95.5447086, 30.718153], [-95.5446899, 30.7178457], [-95.5444883, 30.7178225], [-95.5443574, 30.7177546], [-95.5432083, 30.716781], [-95.5429278, 30.7166113], [-95.5422981, 30.7163576], [-95.5416851, 30.7161414], [-95.5416581, 30.7165327], [-95.5412259, 30.7164934], [-95.5403656, 30.7164612], [-95.5403241, 30.7163505], [-95.5390253, 30.7138512], [-95.5385141, 30.7128597], [-95.5385204, 30.7128168], [-95.5385619, 30.7127936], [-95.5421073, 30.7125163], [-95.5421061, 30.7124213], [-95.5421362, 30.7114743], [-95.541872, 30.7114764], [-95.5418911, 30.7104005], [-95.5419843, 30.7103997], [-95.5432268, 30.7103884], [-95.5433352, 30.7103874], [-95.5433241, 30.7112029], [-95.5435778, 30.7111986], [-95.5441853, 30.7111883], [-95.544353, 30.711136], [-95.5443942, 30.7109238], [-95.5450179, 30.7108876], [-95.5451355, 30.7108308], [-95.5450782, 30.7106729], [-95.5449944, 30.7104076], [-95.5449724, 30.7102926], [-95.5449577, 30.7101928], [-95.5449606, 30.7100097], [-95.5449915, 30.7098644], [-95.5450341, 30.7097545], [-95.5450899, 30.7096155], [-95.5451855, 30.7094829], [-95.5452736, 30.7094033], [-95.546743, 30.7083914], [-95.5468576, 30.7087769], [-95.5469609, 30.7087544], [-95.5471138, 30.7087252], [-95.547131, 30.7087435], [-95.5475267, 30.7086866], [-95.5475453, 30.7084462], [-95.5475534, 30.7083207], [-95.5483962, 30.7083544], [-95.5483923, 30.7084491], [-95.5483942, 30.7087013], [-95.5485799, 30.7086993], [-95.5485835, 30.7086289], [-95.5485965, 30.7085709], [-95.5486747, 30.7085776], [-95.5488779, 30.7085838], [-95.5490122, 30.708585], [-95.5490792, 30.7085833], [-95.5490752, 30.7086387], [-95.5490918, 30.7105431], [-95.5492013, 30.7105729], [-95.5502531, 30.7105335], [-95.5511476, 30.7105139], [-95.5511691, 30.7115398], [-95.5508135, 30.711536], [-95.5508061, 30.7118013], [-95.5511794, 30.7118164], [-95.5511779, 30.712328], [-95.5511456, 30.7126691], [-95.5510015, 30.7138345], [-95.5509996, 30.714098], [-95.551007, 30.7142066], [-95.5512024, 30.7142294], [-95.5561185, 30.7141713], [-95.5561486, 30.7142195], [-95.5561222, 30.7164358], [-95.5560972, 30.7164585], [-95.5542462, 30.7164886], [-95.5527904, 30.7165122], [-95.5527895, 30.7177217], [-95.5504004, 30.7177331], [-95.5504136, 30.7190137]]]]}}