{"type": "Feature", "properties": {"market_key": 141, "university": "University of Central Florida", "osm_type": "relation", "osm_id": 1159228, "osm_name": "University of Central Florida"}, "geometry": {"type": "MultiPolygon", "coordinates": [[[[-81.1867242, 28.5979798], [-81.1866603, 28.5930504], [-81.1866305, 28.5907459], [-81.1869038, 28.5907422], [-81.1889422, 28.5907172], [-81.1992552, 28.590591], [-81.199198, 28.5892432], [-81.2001198, 28.5892296], [-81.2001413, 28.5905576], [-81.2015133, 28.5905436], [-81.2018028, 28.5905397], [-81.2022282, 28.5905339], [-81.2028534, 28.5905254], [-81.2035745, 28.5905156], [-81.2077748, 28.5904585], [-81.2077555, 28.5870482], [-81.2078145, 28.5870529], [-81.2081364, 28.5880563], [-81.2086514, 28.5895212], [-81.2087962, 28.5901853], [-81.2088391, 28.5906564], [-81.2088338, 28.5911274], [-81.2087855, 28.591556], [-81.2086943, 28.5919894], [-81.2085763, 28.5924934], [-81.2084261, 28.5929173], [-81.2078804, 28.59447], [-81.2077126, 28.5949473], [-81.2075839, 28.5954419], [-81.2075195, 28.5958941], [-81.2075088, 28.5963086], [-81.2075104, 28.5974383], [-81.2075113, 28.5980313], [-81.2075093, 28.5991667], [-81.2075141, 28.6000153], [-81.2074946, 28.6009904], [-81.2074909, 28.6011719], [-81.207464, 28.602513], [-81.2074604, 28.6026939], [-81.2074283, 28.6042965], [-81.2074238, 28.6073044], [-81.2074229, 28.6078946], [-81.2074337, 28.6117139], [-81.2069776, 28.6117172], [-81.1946735, 28.6118076], [-81.193662, 28.611815], [-81.186904, 28.6118646], [-81.1868199, 28.6053703], [-81.1867242, 28.5979798]], [[-81.1927254, 28.6112767], [-81.1927482, 28.6112766], [-81.1927473, 28.6111776], [-81.1927224, 28.6111778], [-81.1927163, 28.6107713], [-81.1933733, 28.6107637], [-81.1933825, 28.6113852], [-81.1927271, 28.6113926], [-81.1927254, 28.6112767]], [[-81.1927473, 28.6111776], [-81.1927224, 28.6111778], [-81.1926722, 28.6111781], [-81.1926731, 28.6112771], [-81.1927254, 28.6112767], [-81.1927482, 28.6112766], [-81.1927473, 28.6111776]]]]}}