{"type": "Feature", "properties": {"market_key": 1447, "university": "Utah Valley University", "osm_type": "way", "osm_id": 28337037, "osm_name": "Utah Valley University"}, "geometry": {"type": "Polygon", "coordinates": [[[-111.7055422, 40.27566], [-111.7055376, 40.2757729], [-111.7055211, 40.2761878], [-111.7048705, 40.2761701], [-111.704903, 40.276417], [-111.7049104, 40.2765765], [-111.7049146, 40.2767722], [-111.7049221, 40.27685], [-111.7049294, 40.2770715], [-111.7049329, 40.2771463], [-111.7049447, 40.277679], [-111.7049418, 40.2779963], [-111.7053019, 40.2779745], [-111.7054265, 40.2779669], [-111.7055401, 40.27796], [-111.7056724, 40.277952], [-111.7057416, 40.2779456], [-111.7059315, 40.2778751], [-111.7063472, 40.2774381], [-111.7063601, 40.2774245], [-111.7080584, 40.2774991], [-111.708059, 40.2778806], [-111.7080913, 40.2784125], [-111.7082562, 40.2787906], [-111.7084001, 40.278939], [-111.7071615, 40.2793295], [-111.7067975, 40.2794916], [-111.7054961, 40.2795096], [-111.7052552, 40.2795019], [-111.7050276, 40.2795006], [-111.7049754, 40.2795091], [-111.7049888, 40.2799321], [-111.7049926, 40.2800544], [-111.7050072, 40.2805343], [-111.7050186, 40.2808775], [-111.7050793, 40.2808772], [-111.7055553, 40.2808767], [-111.7055595, 40.2810871], [-111.7061553, 40.2810922], [-111.7081963, 40.2811099], [-111.7085556, 40.2809513], [-111.7084554, 40.2807546], [-111.7089761, 40.280528], [-111.7095687, 40.2805485], [-111.7100114, 40.280147], [-111.7107916, 40.2798294], [-111.7121907, 40.2796475], [-111.713097, 40.2799264], [-111.7134415, 40.2802324], [-111.7133479, 40.2802576], [-111.713349, 40.2805953], [-111.7136591, 40.2806165], [-111.7137561, 40.2806231], [-111.713816, 40.2805551], [-111.7139573, 40.2804953], [-111.7141766, 40.2804806], [-111.7143233, 40.2805054], [-111.7144581, 40.2805282], [-111.7144418, 40.28023], [-111.7144341, 40.2800889], [-111.7142928, 40.2799869], [-111.7139256, 40.2799987], [-111.7135993, 40.2799644], [-111.7135068, 40.2799243], [-111.71331, 40.2798164], [-111.7131134, 40.2796406], [-111.7129516, 40.2795479], [-111.7127332, 40.279138], [-111.7128304, 40.2789318], [-111.7130303, 40.2788529], [-111.7131213, 40.2788159], [-111.7134106, 40.2787059], [-111.713467, 40.278683], [-111.7139534, 40.2793059], [-111.7143373, 40.279813], [-111.7145651, 40.2799594], [-111.7146602, 40.2800901], [-111.7149516, 40.2801102], [-111.7151322, 40.280199], [-111.7151792, 40.2802352], [-111.7152694, 40.280358], [-111.7158581, 40.2812544], [-111.7162198, 40.2817989], [-111.7164079, 40.2820746], [-111.7165158, 40.2821601], [-111.716469, 40.2822009], [-111.7165974, 40.2822833], [-111.716638, 40.2822417], [-111.7167582, 40.2822969], [-111.7169562, 40.2823671], [-111.7171094, 40.2823942], [-111.717097, 40.2824428], [-111.7171693, 40.2824352], [-111.7171906, 40.2825164], [-111.7174003, 40.2825825], [-111.7178956, 40.2827252], [-111.7179206, 40.2835522], [-111.7181894, 40.2835482], [-111.7182253, 40.2844042], [-111.7183557, 40.2844626], [-111.7192096, 40.2844449], [-111.7212421, 40.2844029], [-111.7234693, 40.2843568], [-111.723479, 40.2847017], [-111.7240068, 40.2846895], [-111.7239467, 40.2829069], [-111.7241216, 40.2826477], [-111.7241929, 40.282542], [-111.7239157, 40.2821116], [-111.7236452, 40.2816917], [-111.7234578, 40.2814409], [-111.7229353, 40.2807413], [-111.7222495, 40.2799932], [-111.72185, 40.2795354], [-111.7207617, 40.2782884], [-111.7200265, 40.277446], [-111.7190738, 40.2765488], [-111.7175794, 40.2758861], [-111.7165981, 40.2756434], [-111.7158494, 40.2756224], [-111.7149375, 40.27561], [-111.7145835, 40.2755875], [-111.7140551, 40.2755088], [-111.7134916, 40.2754364], [-111.7130916, 40.2753713], [-111.7129482, 40.2755938], [-111.7127029, 40.2756791], [-111.7122396, 40.2756393], [-111.7117076, 40.2754591], [-111.7111115, 40.275474], [-111.7084275, 40.2754568], [-111.7084309, 40.2753003], [-111.7082029, 40.2750128], [-111.7084554, 40.2748654], [-111.708772, 40.2746806], [-111.7085177, 40.2744328], [-111.7084153, 40.274333], [-111.7081448, 40.2740695], [-111.7077204, 40.2743128], [-111.7073246, 40.2745397], [-111.7072886, 40.275282], [-111.7072878, 40.2754353], [-111.7057231, 40.2753839], [-111.7056236, 40.2753855], [-111.7055774, 40.2753888], [-111.7055317, 40.2753952], [-111.7054593, 40.2754122], [-111.7052574, 40.2754898], [-111.7052466, 40.2754972], [-111.7052392, 40.2755068], [-111.705236, 40.2755177], [-111.7052373, 40.2755287], [-111.705243, 40.275539], [-111.7052524, 40.2755474], [-111.705299, 40.275576], [-111.7053455, 40.2755952], [-111.7053956, 40.275608], [-111.7054396, 40.2756193], [-111.7054821, 40.2756336], [-111.7055422, 40.27566]]]}}