{"type": "Feature", "properties": {"market_key": 149, "university": "College of Charleston", "osm_type": "relation", "osm_id": 19747747, "osm_name": "College of Charleston"}, "geometry": {"type": "MultiPolygon", "coordinates": [[[[-79.9366949, 32.7834952], [-79.9366862, 32.7835035], [-79.9366816, 32.7835166], [-79.9366804, 32.7835322], [-79.9366891, 32.7835546], [-79.937688, 32.785193], [-79.9377151, 32.78521], [-79.937748, 32.7852133], [-79.9377886, 32.7852117], [-79.9392712, 32.7846924], [-79.9392867, 32.784677], [-79.9392896, 32.7846534], [-79.9392896, 32.7846258], [-79.9382332, 32.782743], [-79.9382196, 32.7827259], [-79.9382032, 32.7827243], [-79.9381829, 32.7827219], [-79.9381607, 32.7827267], [-79.9366949, 32.7834952]]], [[[-79.9450077, 32.7806492], [-79.9447263, 32.780143], [-79.9442954, 32.7803123], [-79.9445758, 32.780817], [-79.9450077, 32.7806492]]], [[[-79.9596439, 32.78816], [-79.9591522, 32.7877734], [-79.9583055, 32.7885385], [-79.9587974, 32.7889167], [-79.9588093, 32.788906], [-79.9596439, 32.78816]]], [[[-79.926859, 32.7907726], [-79.9269126, 32.790764], [-79.9269517, 32.7907744], [-79.9269733, 32.7907882], [-79.9269918, 32.790822], [-79.9270454, 32.7915248], [-79.925367, 32.7922666], [-79.9250519, 32.7916157], [-79.9261158, 32.7911487], [-79.9260698, 32.7910834], [-79.926859, 32.7907726]]], [[[-79.9373805, 32.7830524], [-79.9373559, 32.7830535], [-79.9373365, 32.7830437], [-79.9373119, 32.7830187], [-79.9368101, 32.7823667], [-79.9366526, 32.782162], [-79.9364722, 32.7819276], [-79.9362742, 32.7816284], [-79.9362742, 32.7816056], [-79.9362949, 32.7815936], [-79.9369653, 32.7813343], [-79.9373158, 32.7811987], [-79.9373456, 32.781202], [-79.9373611, 32.7812107], [-79.9375476, 32.7815422], [-79.9376047, 32.7816437], [-79.9381517, 32.7826162], [-79.9381543, 32.7826412], [-79.9381232, 32.7826619], [-79.9373805, 32.7830524]]], [[[-79.937255, 32.7830513], [-79.9372615, 32.7830742], [-79.9372615, 32.7831003], [-79.9372498, 32.7831166], [-79.9366559, 32.7834288], [-79.9366261, 32.7834299], [-79.9365899, 32.7834179], [-79.9354512, 32.7819809], [-79.9354383, 32.7819559], [-79.9354435, 32.7819298], [-79.9361435, 32.7816458], [-79.9361707, 32.7816437], [-79.9361914, 32.7816589], [-79.9364295, 32.782032], [-79.937255, 32.7830513]]], [[[-79.9382735, 32.7826381], [-79.938585, 32.7831885], [-79.938784, 32.7831102], [-79.9387117, 32.7829798], [-79.9388705, 32.7829176], [-79.9386366, 32.7824957], [-79.9382735, 32.7826381]]], [[[-79.9386551, 32.7833187], [-79.9386395, 32.7832853], [-79.9386395, 32.7832591], [-79.9386664, 32.7832365], [-79.9387374, 32.783202], [-79.9397561, 32.7828122], [-79.9400991, 32.783389], [-79.9403241, 32.7833032], [-79.940647, 32.783892], [-79.9404038, 32.7839871], [-79.9405002, 32.7841622], [-79.9407481, 32.7840763], [-79.940869, 32.7842968], [-79.9408701, 32.7843207], [-79.940846, 32.7843373], [-79.9394444, 32.7846495], [-79.9394203, 32.7846447], [-79.9393991, 32.7846233], [-79.9386551, 32.7833187]]], [[[-79.9358734, 32.7827113], [-79.935899, 32.7827099], [-79.9365258, 32.7834702], [-79.9365242, 32.7834984], [-79.9364971, 32.7835212], [-79.9357937, 32.7838778], [-79.9357618, 32.7838577], [-79.9352259, 32.7830572], [-79.9352371, 32.7830344], [-79.9358734, 32.7827113]]], [[[-79.9354302, 32.7844376], [-79.9353118, 32.7842567], [-79.9353088, 32.7842238], [-79.9365258, 32.7835882], [-79.936564, 32.7835869], [-79.9365943, 32.783607], [-79.9376055, 32.7852093], [-79.9376199, 32.7852442], [-79.9376103, 32.7852737], [-79.9368477, 32.7855393], [-79.9367203, 32.785334], [-79.9368607, 32.785275], [-79.9367778, 32.7851436], [-79.9369373, 32.7850659], [-79.9363679, 32.7841742], [-79.9359723, 32.7843565], [-79.9358942, 32.7842345], [-79.9354302, 32.7844376]]], [[[-79.934942, 32.7858743], [-79.9347927, 32.7856435], [-79.9344445, 32.7858103], [-79.9345193, 32.7859261], [-79.9348133, 32.7863809], [-79.934972, 32.7863109], [-79.9347494, 32.7859666], [-79.934942, 32.7858743]]], [[[-79.9346872, 32.7844841], [-79.9349719, 32.7848736], [-79.9350851, 32.7848209], [-79.9351635, 32.7849365], [-79.9350571, 32.7849902], [-79.9351079, 32.7850596], [-79.9348028, 32.7852103], [-79.9349899, 32.7855146], [-79.9339414, 32.7860214], [-79.9339198, 32.7860286], [-79.9339054, 32.7860165], [-79.9333408, 32.7852022], [-79.9333288, 32.7851717], [-79.9333372, 32.7851271], [-79.9333585, 32.7851129], [-79.9346872, 32.7844841]]], [[[-79.9334506, 32.7855722], [-79.9332348, 32.7856793], [-79.9330216, 32.7857851], [-79.9330858, 32.7858765], [-79.9329879, 32.7859251], [-79.9330849, 32.786063], [-79.9336123, 32.7858055], [-79.9334506, 32.7855722]]], [[[-79.9349236, 32.782134], [-79.9353014, 32.7819855], [-79.9353323, 32.7819893], [-79.9353573, 32.7820034], [-79.9358462, 32.7826059], [-79.9358533, 32.7826319], [-79.9358348, 32.782659], [-79.935081, 32.7830348], [-79.9348075, 32.782634], [-79.9351817, 32.7824476], [-79.9349236, 32.782134]]], [[[-79.9371852, 32.7807167], [-79.9370772, 32.7805258], [-79.9373319, 32.7804262], [-79.9372799, 32.7803326], [-79.9375222, 32.7802375], [-79.9375743, 32.7803314], [-79.9377797, 32.780251], [-79.9378163, 32.7803157], [-79.9374909, 32.7804434], [-79.9375608, 32.7805694], [-79.9371852, 32.7807167]]], [[[-79.9348597, 32.7820626], [-79.9352309, 32.7819134], [-79.935251, 32.7818928], [-79.9352449, 32.7818669], [-79.9345947, 32.7810494], [-79.9345728, 32.7810367], [-79.9345466, 32.7810326], [-79.9341737, 32.781176], [-79.9348597, 32.7820626]]], [[[-79.9366302, 32.7807875], [-79.9368163, 32.7807127], [-79.9370298, 32.7806222], [-79.9372767, 32.7810692], [-79.9372828, 32.781091], [-79.9372687, 32.7811109], [-79.9368937, 32.7812587], [-79.9366302, 32.7807875]]], [[[-79.9354032, 32.7813551], [-79.9355177, 32.781508], [-79.9356867, 32.7817344], [-79.9365385, 32.7813987], [-79.9362824, 32.7809225], [-79.9355716, 32.7812033], [-79.9355981, 32.7812437], [-79.9354032, 32.7813551]]], [[[-79.936879, 32.7856652], [-79.9376353, 32.7853981], [-79.9376763, 32.7854005], [-79.9377153, 32.7854181], [-79.9377446, 32.7854555], [-79.9386457, 32.7867962], [-79.9386457, 32.7868208], [-79.9386257, 32.7868407], [-79.93783, 32.7870573], [-79.9374119, 32.7864459], [-79.936879, 32.7856652]]], [[[-79.9393574, 32.7848069], [-79.939391, 32.7848232], [-79.9399129, 32.7857577], [-79.9394911, 32.7858993], [-79.9398259, 32.7865446], [-79.9387913, 32.7868078], [-79.9387683, 32.7868021], [-79.9378226, 32.7853818], [-79.9378142, 32.7853513], [-79.9378267, 32.7853279], [-79.9378644, 32.7853115], [-79.9393254, 32.7848057], [-79.9393574, 32.7848069]]], [[[-79.9407557, 32.7853551], [-79.9403476, 32.7845666], [-79.9394968, 32.7847571], [-79.9394816, 32.7847782], [-79.9399079, 32.7855377], [-79.9399401, 32.7855454], [-79.9407557, 32.7853551]]], [[[-79.9383306, 32.7870031], [-79.9386872, 32.7869087], [-79.9387158, 32.7869101], [-79.9387446, 32.7869431], [-79.9390545, 32.7874128], [-79.9388723, 32.7874645], [-79.938663, 32.7875227], [-79.9386527, 32.7875067], [-79.9383306, 32.7870031]]], [[[-79.9378704, 32.788032], [-79.9378554, 32.7880157], [-79.9377237, 32.7878258], [-79.9382404, 32.7876893], [-79.9382053, 32.7876345], [-79.9383107, 32.7875955], [-79.9384949, 32.7878759], [-79.9378944, 32.788031], [-79.9378704, 32.788032]]], [[[-79.9380741, 32.7883474], [-79.9379364, 32.7881521], [-79.9379206, 32.7881248], [-79.9379394, 32.7880995], [-79.9392514, 32.7877536], [-79.9392877, 32.7877568], [-79.9393081, 32.7877792], [-79.9394286, 32.78795], [-79.939141, 32.7880394], [-79.9392213, 32.7882186], [-79.939131, 32.788246], [-79.9391548, 32.7883093], [-79.9395934, 32.7881836], [-79.9398124, 32.788494], [-79.9398032, 32.7885202], [-79.9397844, 32.7885402], [-79.9397597, 32.7885483], [-79.9391118, 32.7887156], [-79.9389554, 32.7883989], [-79.9387622, 32.7884601], [-79.9385841, 32.7882007], [-79.9380741, 32.7883474]]]]}}