{"type": "Feature", "properties": {"market_key": 1492, "university": "West Chester University of Pennsylvania", "osm_type": "way", "osm_id": 152243534, "osm_name": "West Chester University (South Campus)"}, "geometry": {"type": "Polygon", "coordinates": [[[-75.6092094, 39.9360614], [-75.6105148, 39.9356357], [-75.6102941, 39.9366003], [-75.6101911, 39.9370013], [-75.6103455, 39.9373151], [-75.6104502, 39.9376968], [-75.6100982, 39.9378589], [-75.6097755, 39.9382694], [-75.6097276, 39.9383303], [-75.6044254, 39.9397612], [-75.6041322, 39.9390764], [-75.6039966, 39.9387596], [-75.6037999, 39.9383002], [-75.6022278, 39.9387087], [-75.6023982, 39.9405215], [-75.6032948, 39.94001], [-75.6041869, 39.9412626], [-75.5986761, 39.9437289], [-75.5982291, 39.9431551], [-75.5961511, 39.9404672], [-75.5934043, 39.9417192], [-75.5929053, 39.9403754], [-75.5917536, 39.9409024], [-75.5916957, 39.9407319], [-75.5910778, 39.9410133], [-75.5908712, 39.9404277], [-75.591027, 39.9402786], [-75.5911037, 39.9401857], [-75.5911745, 39.9400869], [-75.5912374, 39.9399844], [-75.5913369, 39.9397739], [-75.5913843, 39.9395859], [-75.5913905, 39.9395388], [-75.5913967, 39.9394911], [-75.5914014, 39.939396], [-75.5913732, 39.9391089], [-75.5913085, 39.9389114], [-75.5912642, 39.938817], [-75.5912118, 39.9387236], [-75.5911492, 39.9386324], [-75.5910466, 39.9384986], [-75.5909621, 39.9384149], [-75.5908928, 39.9383542], [-75.5908292, 39.9383062], [-75.5907626, 39.9382597], [-75.5903303, 39.9380069], [-75.5902754, 39.9379627], [-75.5902671, 39.9379568], [-75.5902407, 39.9379377], [-75.5901468, 39.9378631], [-75.5898482, 39.9375901], [-75.5897231, 39.9374634], [-75.5916172, 39.9369698], [-75.5936432, 39.9364408], [-75.596265, 39.9357567], [-75.5977304, 39.9353842], [-75.5991796, 39.9347101], [-75.5999537, 39.9343492], [-75.600347, 39.9341671], [-75.6005826, 39.9340561], [-75.601571, 39.9335956], [-75.6024726, 39.9331715], [-75.601906, 39.9320124], [-75.6027296, 39.9316191], [-75.6039773, 39.9315409], [-75.6045048, 39.9314922], [-75.6051558, 39.931392], [-75.6058019, 39.9312213], [-75.6064708, 39.9311043], [-75.6067335, 39.9311899], [-75.6067568, 39.931179], [-75.6076821, 39.9329111], [-75.6081844, 39.9339475], [-75.6092094, 39.9360614]]]}}