{"type": "Feature", "properties": {"market_key": 15, "university": "University of Mississippi", "osm_type": "way", "osm_id": 32945199, "osm_name": "University of Mississippi"}, "geometry": {"type": "Polygon", "coordinates": [[[-89.529508, 34.369601], [-89.530469, 34.370205], [-89.531063, 34.370579], [-89.531191, 34.370659], [-89.531578, 34.370899], [-89.531583, 34.370902], [-89.531713, 34.370969], [-89.531762, 34.370994], [-89.5321946, 34.371024], [-89.5331512, 34.3714259], [-89.5337763, 34.371632], [-89.5342371, 34.37175], [-89.5349202, 34.3718799], [-89.5354533, 34.3719282], [-89.5359236, 34.3719588], [-89.5363596, 34.3719566], [-89.5367173, 34.3719414], [-89.5371378, 34.3718992], [-89.5376712, 34.3718416], [-89.5381215, 34.3717465], [-89.5385558, 34.3716326], [-89.5390547, 34.3714707], [-89.5395871, 34.3712927], [-89.5402902, 34.3709906], [-89.5410113, 34.3706894], [-89.5425806, 34.3700063], [-89.5438651, 34.3694661], [-89.5441045, 34.3693539], [-89.5443645, 34.3692441], [-89.5445182, 34.369166], [-89.5449349, 34.3689879], [-89.5451962, 34.3688685], [-89.5461733, 34.368422], [-89.5477515, 34.3677048], [-89.5480706, 34.3675608], [-89.54817, 34.367424], [-89.548269, 34.367177], [-89.548261, 34.36699], [-89.548256, 34.366836], [-89.548662, 34.366846], [-89.5487702, 34.3668489], [-89.548849, 34.366851], [-89.548846, 34.366729], [-89.54887, 34.366487], [-89.548974, 34.366348], [-89.549079, 34.366273], [-89.549164, 34.366151], [-89.549219, 34.366037], [-89.549226, 34.365916], [-89.549215, 34.365851], [-89.549156, 34.365796], [-89.549061, 34.365706], [-89.548997, 34.365645], [-89.548878, 34.365566], [-89.5486428, 34.3653018], [-89.5488439, 34.3638948], [-89.5497466, 34.3638503], [-89.5498403, 34.3631454], [-89.5476956, 34.3631139], [-89.5475661, 34.3629515], [-89.5475483, 34.3616723], [-89.5477622, 34.3609719], [-89.5531046, 34.3609906], [-89.5532452, 34.3582846], [-89.5551725, 34.3599449], [-89.5555821, 34.3596042], [-89.5560216, 34.3582046], [-89.5567224, 34.3585414], [-89.557623, 34.3591557], [-89.5579128, 34.3593312], [-89.5590572, 34.3597125], [-89.5596901, 34.3602036], [-89.56032, 34.3599691], [-89.5607809, 34.3600368], [-89.5612944, 34.3610617], [-89.5619822, 34.3608584], [-89.5628553, 34.361094], [-89.5628633, 34.3606485], [-89.562906, 34.3582841], [-89.5612921, 34.3579616], [-89.5605092, 34.3577279], [-89.5578609, 34.3573832], [-89.5536145, 34.3574299], [-89.5468246, 34.3574504], [-89.5453753, 34.3574548], [-89.544304, 34.357458], [-89.544308, 34.357297], [-89.544161, 34.357297], [-89.544059, 34.357297], [-89.543767, 34.357303], [-89.542892, 34.357323], [-89.542601, 34.35733], [-89.541826, 34.357343], [-89.539503, 34.357385], [-89.538729, 34.3574], [-89.538122, 34.357806], [-89.537825, 34.358006], [-89.5371481, 34.3584599], [-89.536304, 34.359026], [-89.536251, 34.359063], [-89.535738, 34.359486], [-89.535061, 34.360033], [-89.535001, 34.360074], [-89.533105, 34.361387], [-89.53271, 34.361726], [-89.531996, 34.362342], [-89.5318626, 34.3625308], [-89.5317629, 34.3626404], [-89.5309976, 34.3636035], [-89.5307464, 34.36395], [-89.5306444, 34.3641037], [-89.530354, 34.364461], [-89.530381, 34.364484], [-89.530444, 34.364539], [-89.530613, 34.364686], [-89.530535, 34.364797], [-89.530468, 34.364896], [-89.529917, 34.365725], [-89.529585, 34.366226], [-89.529939, 34.366381], [-89.528777, 34.367853], [-89.528699, 34.367951], [-89.528082, 34.368733], [-89.528681, 34.369096], [-89.528816, 34.369178], [-89.52932, 34.369483], [-89.529508, 34.369601]]]}}