{"type": "Feature", "properties": {"market_key": 154, "university": "Rutgers University Newark", "osm_type": "relation", "osm_id": 13105018, "osm_name": "Rutgers University Newark"}, "geometry": {"type": "MultiPolygon", "coordinates": [[[[-74.1728279, 40.7415844], [-74.1722711, 40.7414061], [-74.1722623, 40.7413824], [-74.1725589, 40.7408854], [-74.172661, 40.7407239], [-74.1724276, 40.7406502], [-74.1714263, 40.7403156], [-74.1717973, 40.7395996], [-74.1730431, 40.7400133], [-74.1729994, 40.7400919], [-74.1731888, 40.7401554], [-74.1731922, 40.7401494], [-74.1734426, 40.7402315], [-74.1734549, 40.7402355], [-74.1734648, 40.7402177], [-74.1736844, 40.7402878], [-74.173792, 40.7403188], [-74.1741801, 40.7395673], [-74.1721919, 40.7389141], [-74.1726811, 40.7380405], [-74.173646, 40.7383092], [-74.1739215, 40.7383972], [-74.1749971, 40.738729], [-74.1752249, 40.7388076], [-74.175234, 40.7388236], [-74.1754184, 40.7389], [-74.1754444, 40.7388962], [-74.1778506, 40.7396339], [-74.1773497, 40.7405437], [-74.1773013, 40.7405657], [-74.1757621, 40.7433268], [-74.1734943, 40.7426408], [-74.1738624, 40.7419005], [-74.1733226, 40.7417333], [-74.1730886, 40.7421729], [-74.1726012, 40.7420196], [-74.1728279, 40.7415844]]], [[[-74.1718125, 40.7444257], [-74.1719476, 40.7442142], [-74.1720562, 40.7442542], [-74.1719226, 40.7444687], [-74.1724763, 40.7446776], [-74.1725795, 40.7444601], [-74.1733657, 40.7447722], [-74.1732066, 40.7450224], [-74.1723139, 40.744691], [-74.1718392, 40.7456028], [-74.1716393, 40.7455451], [-74.171685, 40.7454716], [-74.1712897, 40.7453437], [-74.1716614, 40.7447143], [-74.170466, 40.7442856], [-74.1706398, 40.7440042], [-74.1718125, 40.7444257]]]]}}