{"type": "Feature", "properties": {"market_key": 155, "university": "Ohio State University", "osm_type": "relation", "osm_id": 306632, "osm_name": "The Ohio State University"}, "geometry": {"type": "MultiPolygon", "coordinates": [[[[-83.0802187, 40.0738116], [-83.080215, 40.073866], [-83.0802108, 40.0739272], [-83.0801759, 40.0744326], [-83.0793605, 40.0743997], [-83.0793494, 40.0745609], [-83.0784763, 40.0745257], [-83.0784904, 40.0743198], [-83.0784975, 40.074217], [-83.0785301, 40.0737435], [-83.078584, 40.0737457], [-83.0802187, 40.0738116]]], [[[-83.0385945, 40.0187257], [-83.038468, 40.0185803], [-83.038239, 40.018317], [-83.0381421, 40.018217], [-83.0380269, 40.018098], [-83.0377833, 40.0177871], [-83.037609, 40.017443], [-83.0374906, 40.0171362], [-83.037442, 40.0169407], [-83.037405, 40.016743], [-83.0373485, 40.0161583], [-83.0373399, 40.0160714], [-83.0372482, 40.016074], [-83.0371816, 40.0160758], [-83.0371346, 40.0161049], [-83.0369943, 40.0161211], [-83.0367188, 40.0161352], [-83.0364286, 40.0161323], [-83.0358877, 40.0161119], [-83.0356585, 40.016102], [-83.03551, 40.0161186], [-83.0347832, 40.0161687], [-83.0347002, 40.016173], [-83.034262, 40.0144986], [-83.0342054, 40.0145102], [-83.0341333, 40.0145249], [-83.034087, 40.014537], [-83.0329323, 40.0146921], [-83.0327312, 40.0147191], [-83.0323944, 40.0147643], [-83.0326433, 40.0156517], [-83.0328665, 40.0162696], [-83.0329094, 40.0167363], [-83.032892, 40.0183653], [-83.0328874, 40.0185733], [-83.0328887, 40.0186308], [-83.032887, 40.0187473], [-83.0330238, 40.0192095], [-83.0336568, 40.0197424], [-83.0338901, 40.0199387], [-83.0345178, 40.0206659], [-83.0346465, 40.0208939], [-83.0318356, 40.0207296], [-83.0316322, 40.0206681], [-83.0290583, 40.0205532], [-83.0267897, 40.0204607], [-83.0269432, 40.0182893], [-83.0292767, 40.0183961], [-83.029332, 40.018325], [-83.02936, 40.0172353], [-83.0293604, 40.0172224], [-83.0293627, 40.0171325], [-83.0293642, 40.0170733], [-83.029375, 40.016779], [-83.0293735, 40.0166111], [-83.029373, 40.016553], [-83.0293304, 40.0163964], [-83.029274, 40.016239], [-83.028967, 40.015785], [-83.028822, 40.015563], [-83.028692, 40.015265], [-83.028656, 40.014998], [-83.028642, 40.014749], [-83.0286457, 40.014421], [-83.0286459, 40.0144069], [-83.0286473, 40.0142873], [-83.0286495, 40.0142011], [-83.0286662, 40.0135602], [-83.028672, 40.013339], [-83.0285681, 40.0133812], [-83.0285393, 40.014405], [-83.0285434, 40.0144822], [-83.0284174, 40.0144805], [-83.0277588, 40.0144708], [-83.0271062, 40.0144628], [-83.0269169, 40.01446], [-83.0269081, 40.0146844], [-83.0266237, 40.0148652], [-83.0257264, 40.0148433], [-83.0252408, 40.0148314], [-83.0249664, 40.0148242], [-83.0245574, 40.0145742], [-83.0244915, 40.01563], [-83.0244218, 40.0167458], [-83.0244122, 40.016899], [-83.024033, 40.016574], [-83.0237487, 40.0164077], [-83.0235422, 40.0163296], [-83.0234054, 40.0162865], [-83.0232151, 40.0162366], [-83.0231724, 40.0162194], [-83.0231329, 40.016183], [-83.0230774, 40.0160361], [-83.0230981, 40.015996], [-83.0226101, 40.0146749], [-83.02248, 40.0139898], [-83.0223298, 40.0127942], [-83.0222708, 40.0123454], [-83.0222587, 40.0117712], [-83.022307, 40.0114322], [-83.0225015, 40.0105694], [-83.0228394, 40.0091354], [-83.0230567, 40.0081657], [-83.0232592, 40.0073501], [-83.0234201, 40.0068478], [-83.0234239, 40.0068384], [-83.0235744, 40.0064687], [-83.0231767, 40.0064568], [-83.0226778, 40.0064418], [-83.0214581, 40.0063989], [-83.0207044, 40.0063742], [-83.0206738, 40.0063737], [-83.0194357, 40.0063537], [-83.0185592, 40.0063141], [-83.0185476, 40.0064965], [-83.0185286, 40.0069514], [-83.0191316, 40.0069822], [-83.0191301, 40.0070079], [-83.0190991, 40.0075493], [-83.0182052, 40.0075102], [-83.017343, 40.0074703], [-83.0173454, 40.0074318], [-83.0173673, 40.007139], [-83.0173777, 40.0070046], [-83.0173856, 40.0069015], [-83.0175957, 40.0069106], [-83.0177707, 40.0069182], [-83.0180994, 40.0069324], [-83.0181085, 40.0067936], [-83.0181192, 40.0066298], [-83.0181355, 40.0063796], [-83.0181401, 40.0062951], [-83.0166556, 40.0062274], [-83.0163981, 40.006216], [-83.0162093, 40.0061726], [-83.0161607, 40.0061626], [-83.0154473, 40.006138], [-83.015399, 40.0061821], [-83.0140972, 40.0061437], [-83.0138731, 40.0061353], [-83.012339, 40.0060609], [-83.0113483, 40.0060111], [-83.0111269, 40.0059961], [-83.0108553, 40.0059777], [-83.0101311, 40.0059469], [-83.0099248, 40.0059425], [-83.0094612, 40.0059641], [-83.009377, 40.0059551], [-83.00933, 40.0059251], [-83.0093124, 40.0058921], [-83.009286, 40.0058082], [-83.0092494, 40.0055882], [-83.0092461, 40.0055683], [-83.00924, 40.0055355], [-83.0092348, 40.0055079], [-83.0090388, 40.0043672], [-83.0091283, 40.0043715], [-83.0091674, 40.0043733], [-83.0100872, 40.0044172], [-83.01009, 40.0043764], [-83.0100921, 40.004344], [-83.0100929, 40.0043334], [-83.0101096, 40.0040855], [-83.010123, 40.0038871], [-83.0101249, 40.0038585], [-83.0101406, 40.0037312], [-83.0100723, 40.0037269], [-83.0089681, 40.0036758], [-83.0089606, 40.0036751], [-83.008942, 40.0036732], [-83.0089205, 40.0036702], [-83.0089044, 40.003664], [-83.0088863, 40.0036527], [-83.0088729, 40.0036346], [-83.0088697, 40.0036239], [-83.0088598, 40.0035903], [-83.0087168, 40.0028559], [-83.0087093, 40.002824], [-83.008707, 40.0028143], [-83.0087047, 40.0028047], [-83.0086971, 40.0027722], [-83.008608, 40.002328], [-83.0086024, 40.0023184], [-83.0085989, 40.0023051], [-83.0085143, 40.0018702], [-83.0085077, 40.0018362], [-83.0084732, 40.0016611], [-83.0084716, 40.0016553], [-83.0084338, 40.0014625], [-83.0084271, 40.0014286], [-83.0083774, 40.0011759], [-83.0083503, 40.0010384], [-83.0083207, 40.0008894], [-83.0083206, 40.0008855], [-83.0083176, 40.0008701], [-83.008314, 40.0008518], [-83.0083035, 40.0007981], [-83.0083027, 40.0007938], [-83.0082779, 40.0006677], [-83.0082616, 40.0005844], [-83.0082532, 40.0005413], [-83.0082102, 40.0003196], [-83.0081815, 40.0001716], [-83.0081769, 40.0001482], [-83.0081719, 40.0001225], [-83.0081521, 40.0000206], [-83.0081423, 39.9999702], [-83.0081391, 39.9999533], [-83.0081282, 39.9998972], [-83.0080794, 39.9996458], [-83.0080176, 39.9993279], [-83.0079679, 39.9990719], [-83.0079176, 39.9988127], [-83.0077492, 39.9979454], [-83.0077454, 39.9979258], [-83.0077412, 39.9979042], [-83.0075703, 39.9970241], [-83.0075193, 39.9967615], [-83.0075167, 39.9967479], [-83.0075106, 39.9967165], [-83.0075088, 39.9967072], [-83.007505, 39.9966873], [-83.0073395, 39.9958352], [-83.0073364, 39.9958191], [-83.0073329, 39.9958012], [-83.0073147, 39.9957072], [-83.007293, 39.9955956], [-83.0072886, 39.9955726], [-83.0072847, 39.9955526], [-83.0072531, 39.99539], [-83.0072638, 39.9953653], [-83.007296, 39.9953386], [-83.0073186, 39.9953296], [-83.0073269, 39.9953263], [-83.0073426, 39.9953256], [-83.0073738, 39.9953242], [-83.0073961, 39.995325], [-83.0077694, 39.9953386], [-83.0077909, 39.9952513], [-83.0076554, 39.9946749], [-83.0077483, 39.9946788], [-83.0078624, 39.9946837], [-83.0078811, 39.9944517], [-83.0078988, 39.9942311], [-83.0079019, 39.9941932], [-83.0079026, 39.9941838], [-83.0079034, 39.9941746], [-83.0079043, 39.9941632], [-83.0079065, 39.9941214], [-83.0081749, 39.9941312], [-83.0081716, 39.9941739], [-83.0081707, 39.994184], [-83.0081698, 39.9941939], [-83.008169, 39.994203], [-83.0081253, 39.9946983], [-83.0081244, 39.9947091], [-83.0083753, 39.99472], [-83.0091277, 39.9947529], [-83.0091567, 39.9943167], [-83.0091617, 39.9942426], [-83.0091625, 39.9942309], [-83.0091629, 39.9942246], [-83.0091637, 39.9942118], [-83.0091675, 39.9941552], [-83.009652, 39.99418], [-83.0097818, 39.9941853], [-83.0108022, 39.9942267], [-83.0109154, 39.9942313], [-83.011071, 39.9942376], [-83.011417, 39.9942516], [-83.011587, 39.9942585], [-83.0118873, 39.9942707], [-83.01213, 39.9942805], [-83.012215, 39.994284], [-83.0122192, 39.9942279], [-83.0122359, 39.9940049], [-83.0122435, 39.9939038], [-83.0122549, 39.9937521], [-83.0123373, 39.9937546], [-83.0125086, 39.9937597], [-83.0126643, 39.9937644], [-83.0127492, 39.9937669], [-83.0127798, 39.9937678], [-83.0131651, 39.9937792], [-83.013299, 39.9937832], [-83.0133996, 39.9937862], [-83.0134078, 39.9936581], [-83.0134313, 39.9932932], [-83.0134352, 39.9932199], [-83.0135053, 39.9932225], [-83.0137345, 39.993231], [-83.0141062, 39.9932449], [-83.0141153, 39.9932452], [-83.0142442, 39.99325], [-83.014386, 39.9932547], [-83.0147664, 39.9932673], [-83.0149605, 39.9932737], [-83.0149481, 39.9932103], [-83.0148677, 39.9927997], [-83.0148614, 39.9927675], [-83.0148461, 39.9926895], [-83.0148436, 39.9926765], [-83.014834, 39.9926276], [-83.0148236, 39.9925743], [-83.0148186, 39.9925488], [-83.0147808, 39.9923555], [-83.0147601, 39.9922541], [-83.0147476, 39.9921862], [-83.0148841, 39.9921912], [-83.0149819, 39.9921948], [-83.0157051, 39.9922213], [-83.0159537, 39.9922304], [-83.0161454, 39.9922375], [-83.0163199, 39.9922439], [-83.0163614, 39.9922454], [-83.0164325, 39.992248], [-83.0173248, 39.9922807], [-83.017424, 39.9922844], [-83.017515, 39.9922878], [-83.018531, 39.992325], [-83.0188339, 39.9923361], [-83.0192168, 39.9922495], [-83.0192893, 39.9911572], [-83.0196126, 39.9911698], [-83.0196472, 39.9906496], [-83.0203428, 39.9906816], [-83.0203912, 39.9906835], [-83.0205473, 39.9906889], [-83.0207083, 39.9906959], [-83.0207535, 39.9906976], [-83.0217745, 39.990737], [-83.0218192, 39.9907387], [-83.0220405, 39.9907473], [-83.022267, 39.9907541], [-83.0223221, 39.9907558], [-83.0229441, 39.9907746], [-83.0231909, 39.990782], [-83.0232665, 39.9907848], [-83.0234216, 39.99079], [-83.0235246, 39.99079], [-83.0240568, 39.9908163], [-83.0239942, 39.9917995], [-83.0240412, 39.9932797], [-83.0238501, 39.9951718], [-83.0235246, 39.9965634], [-83.0234925, 39.997222], [-83.023742, 39.9978809], [-83.0242542, 39.9979893], [-83.0245273, 39.9980497], [-83.024779, 39.9981048], [-83.024983, 39.9981554], [-83.0251688, 39.9982094], [-83.0253445, 39.9982668], [-83.0255388, 39.9983403], [-83.0256909, 39.9984046], [-83.025867, 39.998479], [-83.0259907, 39.9985312], [-83.026476, 39.998736], [-83.026882, 39.998892], [-83.02706, 39.998958], [-83.0276188, 39.9991931], [-83.028038, 39.999419], [-83.0284717, 39.9997191], [-83.028822, 40.000071], [-83.028852, 40.0001114], [-83.0290551, 40.0003887], [-83.0291802, 40.000396], [-83.029219, 40.0003962], [-83.0292981, 40.0003967], [-83.029435, 40.0003977], [-83.0296038, 40.0003988], [-83.0298047, 40.0004001], [-83.0299527, 40.0004012], [-83.0301029, 40.0004023], [-83.0301807, 40.0004028], [-83.0302452, 40.0004033], [-83.0302893, 40.0004031], [-83.0304704, 40.0004092], [-83.0345829, 40.0005524], [-83.034602, 40.000308], [-83.0346161, 40.0001411], [-83.0346196, 40.0000939], [-83.0346334, 39.999926], [-83.0371336, 40.0000558], [-83.041853, 40.0003009], [-83.0424664, 40.000303], [-83.0424815, 40.0002189], [-83.0425055, 39.999876], [-83.0425163, 39.9997883], [-83.0425248, 39.9996529], [-83.0425279, 39.9996282], [-83.0425394, 39.9995119], [-83.0425528, 39.9994057], [-83.0425622, 39.9992719], [-83.0425774, 39.9991072], [-83.0425856, 39.9989452], [-83.0425937, 39.9987864], [-83.0425963, 39.9987345], [-83.0425979, 39.9987033], [-83.0426215, 39.998239], [-83.042625, 39.9981703], [-83.042818, 39.998179], [-83.0430622, 39.9981906], [-83.0434331, 39.9982081], [-83.0435889, 39.9982155], [-83.044319, 39.99825], [-83.0444974, 39.9982581], [-83.0445273, 39.9982595], [-83.0445635, 39.9982611], [-83.0448986, 39.9982764], [-83.0450198, 39.9982819], [-83.045065, 39.998284], [-83.0453632, 39.9983032], [-83.0455125, 39.9983224], [-83.0456598, 39.9983465], [-83.0458643, 39.9983915], [-83.0459707, 39.99842], [-83.0462697, 39.9985081], [-83.0464383, 39.9985807], [-83.0466868, 39.9986623], [-83.046997, 39.9987345], [-83.0472949, 39.9987811], [-83.0475936, 39.9988073], [-83.0477432, 39.9988291], [-83.0477914, 39.9988364], [-83.0478065, 39.9988437], [-83.0478563, 39.9988677], [-83.0478757, 39.99888], [-83.047895, 39.9988923], [-83.0479651, 39.9989361], [-83.0480023, 39.9989666], [-83.0480205, 39.999045], [-83.0480466, 39.9990985], [-83.0481934, 39.9994002], [-83.0482399, 39.9994637], [-83.0483265, 39.999538], [-83.0483647, 39.999652], [-83.0483714, 39.999672], [-83.0483874, 39.9998076], [-83.048386, 39.999963], [-83.0483818, 40.0000527], [-83.0483794, 40.0000993], [-83.048358, 40.000538], [-83.0483531, 40.0006351], [-83.048339, 40.000916], [-83.048328, 40.001156], [-83.048306, 40.001437], [-83.0483012, 40.0015244], [-83.04828, 40.001888], [-83.048252, 40.002336], [-83.048212, 40.002967], [-83.048201, 40.003151], [-83.048195, 40.00323], [-83.048167, 40.003755], [-83.048149, 40.004133], [-83.0481174, 40.0046463], [-83.048094, 40.005027], [-83.0480658, 40.0054285], [-83.048059, 40.005526], [-83.0480372, 40.0058343], [-83.0480319, 40.0059091], [-83.0480308, 40.0059249], [-83.0480296, 40.0059415], [-83.0480225, 40.0060211], [-83.0480115, 40.006144], [-83.0471725, 40.0061184], [-83.0458137, 40.0060492], [-83.0452058, 40.0060182], [-83.0441698, 40.0059654], [-83.0441013, 40.0066759], [-83.0440875, 40.0069644], [-83.0440937, 40.007003], [-83.0441044, 40.0071201], [-83.0444326, 40.0070994], [-83.0448073, 40.007075], [-83.0448075, 40.0071365], [-83.0448081, 40.0072985], [-83.045461, 40.0073229], [-83.0454636, 40.007389], [-83.0466446, 40.0074434], [-83.0466425, 40.0077028], [-83.0465598, 40.0090152], [-83.0478445, 40.0090745], [-83.047842, 40.00913], [-83.0478175, 40.0094746], [-83.0478127, 40.0095415], [-83.047797, 40.0097621], [-83.047792, 40.009832], [-83.047787, 40.009888], [-83.0477635, 40.010253], [-83.0477465, 40.0105169], [-83.047725, 40.010851], [-83.047701, 40.011269], [-83.0476982, 40.0113123], [-83.047639, 40.012219], [-83.0475763, 40.013234], [-83.047561, 40.013482], [-83.0475627, 40.0135569], [-83.0475752, 40.0136298], [-83.047609, 40.013739], [-83.0475126, 40.0137813], [-83.0474353, 40.0154904], [-83.0445342, 40.0153918], [-83.0445256, 40.016746], [-83.0431867, 40.0169432], [-83.0437875, 40.0189612], [-83.0410924, 40.0188757], [-83.0386348, 40.0187786], [-83.0385945, 40.0187257]]]]}}