{"type": "Feature", "properties": {"market_key": 1558, "university": "University of Colorado Denver", "osm_type": "way", "osm_id": 1316262537, "osm_name": "CU Denver Comcast Media & Technology Center"}, "geometry": {"type": "Polygon", "coordinates": [[[-105.0057607, 39.7455086], [-105.0057907, 39.7454948], [-105.0057936, 39.7454936], [-105.0058175, 39.7454834], [-105.005821, 39.7454819], [-105.0058507, 39.7454689], [-105.0059146, 39.7455545], [-105.0059147, 39.7455546], [-105.0059177, 39.7455583], [-105.005925, 39.7455684], [-105.0059281, 39.7455725], [-105.0059332, 39.7455794], [-105.0059605, 39.7456155], [-105.0059718, 39.7456304], [-105.0059898, 39.7456562], [-105.0060371, 39.7457177], [-105.0059409, 39.74576], [-105.0059612, 39.7457872], [-105.0059553, 39.7457899], [-105.0058858, 39.7458212], [-105.0058103, 39.7458551], [-105.0057907, 39.7458295], [-105.005782, 39.7458332], [-105.0057111, 39.745864], [-105.0056605, 39.7457964], [-105.0056435, 39.7457736], [-105.0056779, 39.7457589], [-105.0056751, 39.7457553], [-105.0056658, 39.7457429], [-105.0056634, 39.7457397], [-105.0056585, 39.7457332], [-105.0056523, 39.7457251], [-105.0056478, 39.745719], [-105.0056459, 39.7457165], [-105.0056116, 39.7457309], [-105.0055935, 39.7457067], [-105.0055429, 39.7456391], [-105.0056217, 39.7456056], [-105.0056117, 39.7455928], [-105.0056011, 39.7455791], [-105.0056224, 39.7455698], [-105.0056472, 39.745559], [-105.0057043, 39.7455337], [-105.0057293, 39.7455226], [-105.0057607, 39.7455086]]]}}