{"type": "Feature", "properties": {"market_key": 1574, "university": "Missouri State University", "osm_type": "relation", "osm_id": 11511527, "osm_name": "Missouri State University"}, "geometry": {"type": "MultiPolygon", "coordinates": [[[[-93.2766007, 37.1967213], [-93.2767317, 37.1967277], [-93.2770424, 37.1967566], [-93.2771193, 37.1967673], [-93.2772669, 37.1968055], [-93.2773007, 37.1968131], [-93.2775149, 37.1968232], [-93.2775619, 37.1968192], [-93.2776691, 37.1968012], [-93.2777187, 37.196795], [-93.281393, 37.1968262], [-93.2819381, 37.1968365], [-93.2822393, 37.1968542], [-93.2826023, 37.1968814], [-93.2828873, 37.1968901], [-93.2831733, 37.1968934], [-93.2842386, 37.1969031], [-93.2852707, 37.1968939], [-93.2853292, 37.1968976], [-93.2853657, 37.1969093], [-93.2853906, 37.1969347], [-93.2853919, 37.1969728], [-93.2853733, 37.1980437], [-93.2853801, 37.1982139], [-93.2853787, 37.198483], [-93.2853643, 37.1990276], [-93.2853468, 37.1995563], [-93.2853361, 37.200031], [-93.2853297, 37.2002806], [-93.2853046, 37.2013421], [-93.2852962, 37.2016007], [-93.2852903, 37.2018397], [-93.2852799, 37.201867], [-93.2852673, 37.2018813], [-93.2852611, 37.2018945], [-93.2852506, 37.2022022], [-93.2852544, 37.2022204], [-93.2852701, 37.2022481], [-93.2852762, 37.2022668], [-93.2852657, 37.2027124], [-93.2852418, 37.2028425], [-93.285297, 37.2028435], [-93.2853913, 37.2028451], [-93.2864992, 37.2028646], [-93.2864911, 37.2031437], [-93.2867784, 37.2031585], [-93.2867444, 37.2041802], [-93.2867339, 37.2042209], [-93.2867154, 37.2052922], [-93.2849823, 37.2052714], [-93.2849782, 37.2053701], [-93.284951, 37.2060406], [-93.2830415, 37.205998], [-93.2827089, 37.2059959], [-93.2824304, 37.2059942], [-93.2824052, 37.2066482], [-93.2822667, 37.2066464], [-93.2822369, 37.2066414], [-93.2822067, 37.2066271], [-93.2821838, 37.2066093], [-93.2821681, 37.2065884], [-93.2821859, 37.2060303], [-93.2821806, 37.2059422], [-93.2821573, 37.2058445], [-93.282143, 37.2057515], [-93.2821626, 37.2053883], [-93.2821673, 37.2052155], [-93.2819554, 37.2052106], [-93.2804024, 37.2051771], [-93.2804024, 37.2051544], [-93.2804174, 37.2046583], [-93.2801102, 37.2046508], [-93.2801051, 37.2039601], [-93.2787128, 37.2039414], [-93.2786176, 37.2039446], [-93.2786088, 37.2044916], [-93.2779604, 37.2044774], [-93.2779426, 37.2045936], [-93.2774576, 37.204585], [-93.2774586, 37.20394], [-93.2767834, 37.2039352], [-93.2768143, 37.2034736], [-93.2762041, 37.2034589], [-93.2762073, 37.2025633], [-93.2762213, 37.20205], [-93.276268, 37.2015032], [-93.2762676, 37.201472], [-93.2762633, 37.2011163], [-93.27624, 37.2008857], [-93.2762476, 37.2004275], [-93.2762692, 37.1991253], [-93.2762811, 37.198704], [-93.2762871, 37.1984676], [-93.2762931, 37.1982337], [-93.2762969, 37.1981818], [-93.2763283, 37.1977235], [-93.276377, 37.1974782], [-93.2763928, 37.1973737], [-93.2764108, 37.1969196], [-93.2764182, 37.1968004], [-93.2764423, 37.1967561], [-93.2764816, 37.1967357], [-93.2765275, 37.1967259], [-93.2766007, 37.1967213]]], [[[-93.2846198, 37.2073816], [-93.28462, 37.207439], [-93.2844914, 37.2076493], [-93.2844416, 37.2087898], [-93.2855788, 37.2087999], [-93.2856043, 37.207437], [-93.2857022, 37.207437], [-93.2857183, 37.2074175], [-93.28573, 37.2073966], [-93.2857329, 37.2073883], [-93.2857335, 37.207358], [-93.2857491, 37.2069428], [-93.2857532, 37.2068298], [-93.2840538, 37.2068215], [-93.2840427, 37.2073714], [-93.2846198, 37.2073816]]], [[[-93.2855547, 37.2053841], [-93.286075, 37.2053894], [-93.2860576, 37.2060506], [-93.2857666, 37.2060474], [-93.2857545, 37.2067438], [-93.2855507, 37.206747], [-93.2854058, 37.2067427], [-93.2853777, 37.2067289], [-93.2852945, 37.2067257], [-93.2853106, 37.2060495], [-93.2855292, 37.2060581], [-93.2855547, 37.2053841]]], [[[-93.2831368, 37.1966611], [-93.2831274, 37.1966856], [-93.2831059, 37.1967059], [-93.2830778, 37.1967156], [-93.2830268, 37.1967188], [-93.2810192, 37.1966974], [-93.2786468, 37.1966803], [-93.277822, 37.1966696], [-93.2777308, 37.1966654], [-93.2775927, 37.1966429], [-93.277417, 37.1966013], [-93.2773258, 37.1965842], [-93.2765318, 37.1964934], [-93.2764862, 37.1964752], [-93.27645, 37.1964517], [-93.2764286, 37.1964154], [-93.2764165, 37.1963427], [-93.2764044, 37.1962306], [-93.2764031, 37.1961633], [-93.276387, 37.1958919], [-93.2763655, 37.1955073], [-93.2763642, 37.1954507], [-93.2763748, 37.1951979], [-93.2775013, 37.1952064], [-93.2777321, 37.1951911], [-93.2808569, 37.1952103], [-93.283177, 37.1952328], [-93.2831368, 37.1966611]]]]}}