{"type": "Feature", "properties": {"market_key": 16, "university": "Georgia College & State University", "osm_type": "way", "osm_id": 557481321, "osm_name": "Georgia College and State University"}, "geometry": {"type": "Polygon", "coordinates": [[[-83.2356708, 33.0755064], [-83.2363843, 33.0781293], [-83.2333679, 33.0787043], [-83.2334022, 33.0788316], [-83.2336974, 33.0799258], [-83.2333102, 33.0800045], [-83.2328633, 33.0800956], [-83.2321648, 33.0802402], [-83.2328947, 33.0827943], [-83.2314129, 33.0830686], [-83.2317583, 33.0843348], [-83.2302285, 33.084642], [-83.2298946, 33.0833646], [-83.2292525, 33.0834981], [-83.228893, 33.0822073], [-83.229249, 33.0821265], [-83.2289546, 33.0809274], [-83.2306535, 33.0805322], [-83.2302938, 33.0792815], [-83.2314122, 33.0790633], [-83.2318127, 33.0789852], [-83.2314704, 33.077738], [-83.2310758, 33.0763589], [-83.2356708, 33.0755064]]]}}