{"type": "Feature", "properties": {"market_key": 1620, "university": "Kennesaw State University", "osm_type": "way", "osm_id": 34846140, "osm_name": "Kennesaw State University"}, "geometry": {"type": "Polygon", "coordinates": [[[-84.5794308, 34.037151], [-84.5794187, 34.0370021], [-84.5794173, 34.0368426], [-84.5794323, 34.036753], [-84.5794622, 34.03666], [-84.5795095, 34.0363232], [-84.5796289, 34.0360515], [-84.5796813, 34.0359749], [-84.579742, 34.0358933], [-84.5798132, 34.0358116], [-84.5798963, 34.0357242], [-84.580064, 34.0355625], [-84.5801181, 34.0355147], [-84.5804079, 34.035228], [-84.5806721, 34.0349781], [-84.5807567, 34.0348817], [-84.5808333, 34.0347741], [-84.5808979, 34.0346436], [-84.5809437, 34.0344874], [-84.5809498, 34.0343771], [-84.5809479, 34.0342669], [-84.58093, 34.0341652], [-84.5808867, 34.0340346], [-84.5808151, 34.0339068], [-84.5807302, 34.0337901], [-84.5804379, 34.0334604], [-84.5801022, 34.033136], [-84.5801426, 34.0329309], [-84.5803391, 34.0327983], [-84.5805719, 34.0326577], [-84.5807509, 34.0325386], [-84.5809554, 34.0324091], [-84.5811763, 34.032259], [-84.5814517, 34.0320321], [-84.5818613, 34.031751], [-84.582159, 34.031603], [-84.5825385, 34.0313678], [-84.5828993, 34.0310715], [-84.5832683, 34.0307231], [-84.5837569, 34.0301211], [-84.584105, 34.0294357], [-84.5851699, 34.0297736], [-84.5849258, 34.0300692], [-84.5847407, 34.0301915], [-84.5844322, 34.0302737], [-84.5841345, 34.0303382], [-84.5838583, 34.0304627], [-84.5837778, 34.0305271], [-84.5837, 34.0305983], [-84.5836517, 34.0306805], [-84.5836484, 34.0307884], [-84.5836953, 34.0308978], [-84.5840463, 34.0312915], [-84.5846087, 34.0309898], [-84.5850812, 34.0313366], [-84.5863895, 34.0335794], [-84.5856832, 34.0337645], [-84.5858688, 34.0342407], [-84.5861521, 34.0349077], [-84.5861617, 34.0349297], [-84.586243, 34.0351162], [-84.5864124, 34.0358511], [-84.5870891, 34.0357771], [-84.5872929, 34.0368416], [-84.5871301, 34.0368312], [-84.5871395, 34.0371513], [-84.5864576, 34.0371296], [-84.5864563, 34.037384], [-84.5864443, 34.0384991], [-84.5864411, 34.0390924], [-84.5864334, 34.0395085], [-84.5863715, 34.0397725], [-84.5863628, 34.0402605], [-84.5863759, 34.0402894], [-84.5863648, 34.0403229], [-84.5863213, 34.0404542], [-84.586418, 34.0406591], [-84.5855789, 34.0406685], [-84.58556, 34.042029], [-84.5855484, 34.0428655], [-84.5855359, 34.0439908], [-84.585533, 34.0442352], [-84.5855066, 34.0448786], [-84.5854688, 34.0456464], [-84.5853524, 34.0468807], [-84.5851984, 34.0473709], [-84.5847471, 34.0469727], [-84.5837784, 34.0461159], [-84.5830681, 34.0453738], [-84.58284, 34.0451355], [-84.5820774, 34.0443021], [-84.5819781, 34.0441933], [-84.5818459, 34.0440428], [-84.5814358, 34.0434014], [-84.5812607, 34.0430878], [-84.5812124, 34.0428989], [-84.581189, 34.0424172], [-84.5811805, 34.0422595], [-84.5811619, 34.0421018], [-84.5811281, 34.0419448], [-84.5811069, 34.0418684], [-84.581079, 34.0417921], [-84.5808514, 34.0413177], [-84.5807994, 34.0412139], [-84.5807581, 34.0410908], [-84.5807096, 34.0409485], [-84.5804778, 34.0404733], [-84.5803396, 34.0401264], [-84.580197, 34.0399893], [-84.5801276, 34.0398244], [-84.5800603, 34.0396208], [-84.5799746, 34.0391984], [-84.5799447, 34.0390434], [-84.5798976, 34.0388028], [-84.5797198, 34.0381912], [-84.5796536, 34.0379904], [-84.5795765, 34.0376813], [-84.5794852, 34.0374193], [-84.5794308, 34.037151]]]}}