{"type": "Feature", "properties": {"market_key": 1653, "university": "University of Montana", "osm_type": "relation", "osm_id": 13125112, "osm_name": "University of Montana"}, "geometry": {"type": "MultiPolygon", "coordinates": [[[[-113.9867774, 46.8650448], [-113.9867361, 46.8634736], [-113.9870539, 46.8634722], [-113.9873308, 46.8634709], [-113.9873136, 46.8639098], [-113.987671, 46.8639054], [-113.987671, 46.8634738], [-113.9881096, 46.863465], [-113.9880946, 46.8638966], [-113.989141, 46.8638922], [-113.989127, 46.8623395], [-113.98912, 46.8615585], [-113.9891002, 46.8589828], [-113.9890812, 46.8572202], [-113.9833039, 46.8572305], [-113.9832113, 46.8572577], [-113.982934, 46.8571818], [-113.9828924, 46.8570947], [-113.9828634, 46.8570331], [-113.9826837, 46.8570321], [-113.981426, 46.857025], [-113.9814211, 46.8561626], [-113.9830371, 46.8561605], [-113.9835326, 46.8561598], [-113.9835324, 46.8560615], [-113.9829792, 46.8560656], [-113.9831332, 46.855448], [-113.9832953, 46.8543686], [-113.9834894, 46.8539996], [-113.9840913, 46.853202], [-113.9840633, 46.8530712], [-113.9866806, 46.8530481], [-113.9866721, 46.8489082], [-113.9866919, 46.8488232], [-113.9867935, 46.8487441], [-113.9869065, 46.8487016], [-113.9971225, 46.8487154], [-113.9972044, 46.8486874], [-113.9972425, 46.8486497], [-113.9971251, 46.8427737], [-113.9971045, 46.8417146], [-113.9966637, 46.8416751], [-113.9962251, 46.8416034], [-113.9919847, 46.8416032], [-113.9897727, 46.8416031], [-113.9888224, 46.841603], [-113.9867675, 46.8416029], [-113.9868026, 46.8452467], [-113.9868164, 46.8466837], [-113.9868202, 46.8470759], [-113.9858272, 46.8470739], [-113.9841049, 46.8470705], [-113.9840927, 46.8488623], [-113.9811868, 46.8488776], [-113.9812003, 46.8533702], [-113.9812084, 46.8560529], [-113.9789869, 46.8560631], [-113.976096, 46.8560764], [-113.9761537, 46.8529754], [-113.976231, 46.8488267], [-113.9602103, 46.8486864], [-113.9549376, 46.8486654], [-113.9549133, 46.8596535], [-113.9762255, 46.8596873], [-113.9760393, 46.8632259], [-113.9762315, 46.8632718], [-113.9763174, 46.8633111], [-113.9765502, 46.8634183], [-113.9768371, 46.8635325], [-113.977089, 46.8635433], [-113.9812243, 46.8651251], [-113.9815186, 46.8653416], [-113.9815317, 46.8654742], [-113.9824582, 46.8658209], [-113.9825195, 46.8658438], [-113.9838873, 46.8662644], [-113.984, 46.8663002], [-113.9840707, 46.8663225], [-113.9842479, 46.8663508], [-113.9844215, 46.8664172], [-113.9845413, 46.8664631], [-113.9845903, 46.8664711], [-113.9846797, 46.8665146], [-113.9848377, 46.8667188], [-113.9848538, 46.8667366], [-113.9847984, 46.8668031], [-113.9847632, 46.8668478], [-113.9847879, 46.8668846], [-113.9848513, 46.8669358], [-113.9849262, 46.8669539], [-113.9850367, 46.8669198], [-113.9851967, 46.8668962], [-113.9852772, 46.8669085], [-113.9853378, 46.8669077], [-113.9855624, 46.8668878], [-113.9857568, 46.8668444], [-113.9861662, 46.8667977], [-113.9863311, 46.8667857], [-113.9864618, 46.8667775], [-113.9866215, 46.8667801], [-113.9867927, 46.8667758], [-113.9869793, 46.8667593], [-113.9872269, 46.8667458], [-113.9876495, 46.8667132], [-113.9877054, 46.866708], [-113.9878035, 46.8660446], [-113.9877774, 46.8659019], [-113.986954, 46.8658994], [-113.9869849, 46.8652277], [-113.9868503, 46.8651279], [-113.9867774, 46.8650448]]], [[[-113.9833488, 46.8570377], [-113.9838422, 46.8570393], [-113.9838526, 46.8567151], [-113.983855, 46.8566399], [-113.9833591, 46.8566414], [-113.9833488, 46.8570377]]], [[[-113.9890726, 46.864121], [-113.9870374, 46.8641307], [-113.9870451, 46.8648919], [-113.987489, 46.8648898], [-113.987485, 46.8644888], [-113.9876776, 46.864488], [-113.9876814, 46.8648769], [-113.9890801, 46.8648704], [-113.9890726, 46.864121]]]]}}