{"type": "Feature", "properties": {"market_key": 1666, "university": "University of Texas Rio Grande Valley", "osm_type": "way", "osm_id": 276326924, "osm_name": "University of Texas Rio Grande Valley"}, "geometry": {"type": "Polygon", "coordinates": [[[-98.1734656, 26.3116396], [-98.1736468, 26.3105967], [-98.1737189, 26.3101332], [-98.1734122, 26.3100927], [-98.1731637, 26.3099816], [-98.1730344, 26.3099556], [-98.1730975, 26.3095139], [-98.1722654, 26.3093831], [-98.1723195, 26.3090361], [-98.1723245, 26.3090042], [-98.1711929, 26.3088259], [-98.1710415, 26.3096637], [-98.1689851, 26.3093714], [-98.1690559, 26.3089239], [-98.1691117, 26.3085576], [-98.167878, 26.3083667], [-98.1677404, 26.3091985], [-98.1668175, 26.3090557], [-98.1669701, 26.3082299], [-98.1680894, 26.3083929], [-98.1682845, 26.3072851], [-98.1677017, 26.3072012], [-98.1680445, 26.3052072], [-98.168388, 26.3042377], [-98.1687783, 26.3038635], [-98.1688418, 26.3034891], [-98.1688972, 26.3034572], [-98.1689352, 26.3034174], [-98.1689683, 26.3033609], [-98.1691061, 26.3025209], [-98.1724897, 26.3030703], [-98.1728368, 26.3031501], [-98.1781325, 26.3039297], [-98.1776087, 26.3071055], [-98.181335, 26.3076647], [-98.1816753, 26.3077158], [-98.1810878, 26.3111961], [-98.1770044, 26.3106015], [-98.175714, 26.3104239], [-98.1746033, 26.3102711], [-98.1743136, 26.3117757], [-98.1734656, 26.3116396]]]}}