{"type": "Feature", "properties": {"market_key": 175, "university": "University of North Carolina at Asheville", "osm_type": "way", "osm_id": 205858867, "osm_name": "University of North Carolina - Asheville"}, "geometry": {"type": "Polygon", "coordinates": [[[-82.5631757, 35.6142073], [-82.5630657, 35.6143925], [-82.5630062, 35.6140758], [-82.5630596, 35.6132174], [-82.5626403, 35.6129881], [-82.5629028, 35.6127835], [-82.5625384, 35.6123958], [-82.5622279, 35.6126569], [-82.5620188, 35.6126601], [-82.5616383, 35.6125706], [-82.5617018, 35.6126418], [-82.5619916, 35.613552], [-82.5614349, 35.6137258], [-82.5611586, 35.6129287], [-82.5606303, 35.6129507], [-82.5605807, 35.6130611], [-82.5600673, 35.6136514], [-82.5607043, 35.6136948], [-82.5606532, 35.6141062], [-82.5624239, 35.6141967], [-82.5629494, 35.6145343], [-82.5626828, 35.6181051], [-82.5626049, 35.6195772], [-82.5629819, 35.6195608], [-82.5654881, 35.6193243], [-82.5654939, 35.6193238], [-82.5666071, 35.6192215], [-82.5663428, 35.6204709], [-82.5668591, 35.6203343], [-82.5672775, 35.620343], [-82.5675696, 35.6203999], [-82.5678136, 35.620488], [-82.5679957, 35.6206067], [-82.5680903, 35.6207469], [-82.5681972, 35.6215504], [-82.5682753, 35.6216443], [-82.5683666, 35.6216768], [-82.5686856, 35.6217092], [-82.5687627, 35.6215973], [-82.56876, 35.621077], [-82.5695738, 35.6210568], [-82.5696823, 35.6209901], [-82.5703843, 35.6210645], [-82.5705584, 35.6210983], [-82.5711762, 35.6199772], [-82.5714337, 35.6185712], [-82.5720845, 35.6184836], [-82.5721405, 35.6184137], [-82.5720295, 35.6180053], [-82.5724469, 35.6166764], [-82.572423, 35.6159547], [-82.5721332, 35.6150685], [-82.5720563, 35.6149323], [-82.5720892, 35.6146331], [-82.572154, 35.6145679], [-82.571704, 35.6142521], [-82.5716678, 35.6141924], [-82.5712951, 35.6139207], [-82.5709767, 35.6138486], [-82.5706704, 35.6137098], [-82.5699864, 35.6134467], [-82.5700315, 35.6133625], [-82.5692995, 35.6130993], [-82.568861, 35.6129416], [-82.567236, 35.6123869], [-82.5667729, 35.6121392], [-82.5664728, 35.6118828], [-82.5662797, 35.6116909], [-82.5661644, 35.6116089], [-82.5660866, 35.6117171], [-82.5658243, 35.6120988], [-82.5654754, 35.6124024], [-82.5648139, 35.6127866], [-82.5645408, 35.6129696], [-82.5632806, 35.614076], [-82.5631757, 35.6142073]]]}}