{"type": "Feature", "properties": {"market_key": 1760, "university": "Liberty University", "osm_type": "relation", "osm_id": 7112206, "osm_name": "Liberty University"}, "geometry": {"type": "MultiPolygon", "coordinates": [[[[-79.1826407, 37.3433745], [-79.1844039, 37.341576], [-79.1849825, 37.3408622], [-79.1851605, 37.3403322], [-79.1855242, 37.3391006], [-79.1868524, 37.3384502], [-79.1878758, 37.3380804], [-79.188567, 37.3379655], [-79.1886706, 37.3368537], [-79.187522, 37.3371657], [-79.1861167, 37.3352151], [-79.1849254, 37.3335102], [-79.1844002, 37.3334983], [-79.1826851, 37.3334745], [-79.1816377, 37.3334645], [-79.1814899, 37.3331923], [-79.1809574, 37.3321749], [-79.1804896, 37.3325167], [-79.1796718, 37.331854], [-79.1795338, 37.3317915], [-79.1787321, 37.3336364], [-79.1768571, 37.3379556], [-79.1762069, 37.3394212], [-79.1752289, 37.3403229], [-79.1766953, 37.3417219], [-79.1768357, 37.3419153], [-79.176991, 37.3422302], [-79.1771055, 37.3424963], [-79.1771867, 37.3428689], [-79.1772271, 37.3431928], [-79.1770963, 37.3440307], [-79.1767813, 37.3446434], [-79.1763012, 37.3451975], [-79.1742761, 37.3466045], [-79.173328, 37.3471948], [-79.1722208, 37.3479114], [-79.1718588, 37.3482725], [-79.1715961, 37.3486957], [-79.1713974, 37.3491866], [-79.1710922, 37.3499202], [-79.1709502, 37.3501402], [-79.1705953, 37.3508907], [-79.1703966, 37.3511277], [-79.1701197, 37.3513139], [-79.1698926, 37.3513421], [-79.169559, 37.3515114], [-79.1694099, 37.351675], [-79.169268, 37.3520135], [-79.1692112, 37.3523352], [-79.1692396, 37.352685], [-79.1693815, 37.3547557], [-79.1694028, 37.355066], [-79.1695377, 37.3551394], [-79.1699849, 37.3548855], [-79.1703753, 37.3546316], [-79.1706308, 37.354451], [-79.1712199, 37.3539037], [-79.1717381, 37.3534918], [-79.1722278, 37.3530856], [-79.1756644, 37.3501065], [-79.1757556, 37.3500274], [-79.1773668, 37.3486337], [-79.1777501, 37.3482838], [-79.1781121, 37.3479283], [-79.1785593, 37.3476123], [-79.1792904, 37.3468901], [-79.1800144, 37.3460211], [-79.1805113, 37.3453834], [-79.1809301, 37.3453721], [-79.1824632, 37.3435946], [-79.1826407, 37.3433745]], [[-79.1742509, 37.3451548], [-79.1736808, 37.344797], [-79.1741084, 37.3443825], [-79.1746823, 37.3447552], [-79.1742509, 37.3451548]]], [[[-79.1847679, 37.3425584], [-79.1846299, 37.3426632], [-79.1845846, 37.3426975], [-79.1840457, 37.3432302], [-79.1837308, 37.3437444], [-79.1832687, 37.3445744], [-79.1830518, 37.3449263], [-79.1817951, 37.3461964], [-79.1808914, 37.3472784], [-79.1796188, 37.3487822], [-79.1785413, 37.3496794], [-79.1771042, 37.3507386], [-79.1763228, 37.3513883], [-79.175941, 37.351692], [-79.1749338, 37.3526233], [-79.1748109, 37.353165], [-79.1747492, 37.3531965], [-79.1746676, 37.3532363], [-79.1739702, 37.3537655], [-79.1738128, 37.3540104], [-79.1736156, 37.3544905], [-79.1735835, 37.3545687], [-79.1733082, 37.3551716], [-79.1733808, 37.3554216], [-79.1730711, 37.355663], [-79.1729207, 37.3556638], [-79.1726369, 37.3559005], [-79.1721446, 37.3561986], [-79.1719394, 37.3563878], [-79.1717698, 37.3565911], [-79.1715369, 37.3569694], [-79.1713997, 37.3572748], [-79.1712758, 37.3574884], [-79.1710458, 37.3577712], [-79.1709749, 37.3578237], [-79.1710158, 37.3581035], [-79.1716281, 37.3585431], [-79.1718943, 37.3587876], [-79.1720541, 37.3590332], [-79.1720763, 37.3593318], [-79.1720407, 37.3595328], [-79.1719341, 37.3598254], [-79.171866, 37.360106], [-79.1718333, 37.3603937], [-79.1717856, 37.3610889], [-79.1716282, 37.3625709], [-79.1715533, 37.3632742], [-79.1715292, 37.363506], [-79.1715583, 37.3637448], [-79.1716308, 37.3639685], [-79.1717476, 37.3641923], [-79.1718038, 37.3642236], [-79.1726021, 37.3655686], [-79.1748529, 37.3632857], [-79.1765562, 37.3615495], [-79.1767926, 37.3615566], [-79.1769576, 37.3611622], [-79.1780727, 37.3598714], [-79.1784749, 37.3591673], [-79.1789418, 37.3585915], [-79.1797806, 37.3575572], [-79.1809576, 37.3550907], [-79.1815421, 37.3543083], [-79.1817228, 37.3539434], [-79.1818763, 37.3535677], [-79.1821643, 37.3528734], [-79.1825024, 37.3521973], [-79.1831671, 37.3510128], [-79.183505, 37.3503173], [-79.1836321, 37.3500027], [-79.1836456, 37.3497566], [-79.1837592, 37.3495263], [-79.183909, 37.3492672], [-79.183991, 37.3490746], [-79.1846165, 37.3478308], [-79.185508, 37.3460116], [-79.1855736, 37.3458778], [-79.1856486, 37.3457286], [-79.1861797, 37.34476], [-79.1866416, 37.3437532], [-79.1869362, 37.3431871], [-79.1866833, 37.3431038], [-79.1864082, 37.3430487], [-79.1858979, 37.3427043], [-79.185206, 37.3425683], [-79.1847679, 37.3425584]], [[-79.1742509, 37.3451548], [-79.1736808, 37.344797], [-79.1741084, 37.3443825], [-79.1746823, 37.3447552], [-79.1742509, 37.3451548]]], [[[-79.1694307, 37.3514059], [-79.1705065, 37.3502873], [-79.1714865, 37.3483877], [-79.1711123, 37.3484873], [-79.1704409, 37.3489297], [-79.1700544, 37.3492664], [-79.1698493, 37.3493326], [-79.1699139, 37.3497519], [-79.168962, 37.3507269], [-79.1677278, 37.3508323], [-79.1672283, 37.3508424], [-79.1659692, 37.3499871], [-79.1658045, 37.3487305], [-79.166762, 37.347755], [-79.1683852, 37.3475994], [-79.169719, 37.3483974], [-79.1698542, 37.3491436], [-79.1709948, 37.348339], [-79.1714518, 37.3482592], [-79.1719603, 37.3477497], [-79.1759209, 37.3452469], [-79.176207, 37.3449764], [-79.1764777, 37.3446326], [-79.1768808, 37.3438962], [-79.1770007, 37.3431085], [-79.1767917, 37.342391], [-79.1766412, 37.3420322], [-79.1764292, 37.3416857], [-79.172649, 37.3382321], [-79.1711572, 37.3368718], [-79.1700342, 37.3351081], [-79.1686024, 37.3330845], [-79.1645033, 37.3348157], [-79.1607708, 37.334864], [-79.1598455, 37.336458], [-79.1589565, 37.3369541], [-79.1536561, 37.3355872], [-79.1547564, 37.3331133], [-79.1498265, 37.331668], [-79.1495985, 37.3322947], [-79.1496582, 37.3333595], [-79.1484344, 37.3359006], [-79.148175, 37.3366783], [-79.1471516, 37.337808], [-79.1469605, 37.3382668], [-79.1466683, 37.3389684], [-79.1465177, 37.3405223], [-79.1458126, 37.3420362], [-79.1440085, 37.3440956], [-79.1417437, 37.345313], [-79.1424101, 37.3472217], [-79.1418046, 37.3481482], [-79.1403719, 37.3494259], [-79.1416229, 37.3501826], [-79.1421539, 37.3505293], [-79.1417017, 37.3509443], [-79.1414394, 37.3511705], [-79.1391615, 37.3506836], [-79.1387097, 37.3510784], [-79.1384903, 37.3510442], [-79.1381539, 37.3512742], [-79.1372667, 37.3517239], [-79.1365186, 37.3521392], [-79.136232, 37.3524319], [-79.1365025, 37.3524671], [-79.1367888, 37.3529316], [-79.1367113, 37.3531428], [-79.137443, 37.3538043], [-79.1360409, 37.3548512], [-79.1395753, 37.3574809], [-79.1384445, 37.3581306], [-79.1353238, 37.3558617], [-79.1347588, 37.3554532], [-79.1343666, 37.355915], [-79.1346233, 37.3560478], [-79.1341342, 37.3565984], [-79.1338591, 37.3564816], [-79.1333217, 37.3571172], [-79.1330443, 37.3575373], [-79.131428, 37.3570441], [-79.1311486, 37.3574938], [-79.1308714, 37.357853], [-79.1303759, 37.3583202], [-79.129897, 37.3586656], [-79.1296475, 37.3588783], [-79.1293418, 37.3593043], [-79.1308576, 37.3599806], [-79.1320919, 37.360673], [-79.1354276, 37.3626084], [-79.1340169, 37.3649528], [-79.1323954, 37.3644466], [-79.1314571, 37.3640198], [-79.129749, 37.3640236], [-79.1290407, 37.3642572], [-79.1286865, 37.3641423], [-79.127471, 37.3632304], [-79.1262255, 37.3628759], [-79.1257485, 37.3627131], [-79.1255974, 37.3632444], [-79.1252849, 37.3641617], [-79.125034, 37.3641687], [-79.1245812, 37.3647026], [-79.124382, 37.3650946], [-79.1235368, 37.3659016], [-79.1238354, 37.3661751], [-79.1243895, 37.3670773], [-79.1253031, 37.3662102], [-79.1272401, 37.3660305], [-79.1285627, 37.3668626], [-79.1259582, 37.3693991], [-79.1267791, 37.3700532], [-79.1276728, 37.3699833], [-79.1299722, 37.3677055], [-79.1308993, 37.3682895], [-79.1289526, 37.3704315], [-79.130189, 37.3708331], [-79.1309842, 37.3709248], [-79.1325174, 37.3720795], [-79.1328684, 37.3720309], [-79.1342038, 37.3727648], [-79.1356832, 37.3740339], [-79.1382084, 37.3760205], [-79.1397696, 37.3756765], [-79.1417245, 37.3751065], [-79.1445458, 37.3741084], [-79.14612, 37.3733189], [-79.1480984, 37.372175], [-79.1504867, 37.370636], [-79.151546, 37.3695807], [-79.1531747, 37.3692161], [-79.1564127, 37.3667543], [-79.1573804, 37.3660876], [-79.1612973, 37.3632716], [-79.1641292, 37.3613849], [-79.1664658, 37.3589245], [-79.1674436, 37.3578833], [-79.1678546, 37.3568154], [-79.1676131, 37.3567291], [-79.1677132, 37.3564072], [-79.1677093, 37.3560646], [-79.1679355, 37.3558234], [-79.1681746, 37.3557062], [-79.1680196, 37.3541254], [-79.1690594, 37.354089], [-79.1689972, 37.3523558], [-79.1689738, 37.3521996], [-79.1694307, 37.3514059]], [[-79.1742509, 37.3451548], [-79.1736808, 37.344797], [-79.1741084, 37.3443825], [-79.1746823, 37.3447552], [-79.1742509, 37.3451548]]]]}}