{"type": "Feature", "properties": {"market_key": 1771, "university": "New York University", "osm_type": "way", "osm_id": 108156090, "osm_name": "New York University"}, "geometry": {"type": "Polygon", "coordinates": [[[-73.999674, 40.7318616], [-73.9999256, 40.7315606], [-73.9998038, 40.7314996], [-74.0003257, 40.7308705], [-73.9998778, 40.7306453], [-74.0003047, 40.7301385], [-74.0000136, 40.7299929], [-74.0000558, 40.7299434], [-73.99987, 40.7298505], [-73.9998359, 40.7298906], [-73.9996488, 40.7297981], [-73.9993779, 40.7301261], [-73.9977822, 40.7293308], [-73.9996987, 40.7270368], [-73.9975834, 40.7259582], [-73.9973165, 40.726278], [-73.9965, 40.7258656], [-73.9963141, 40.7260797], [-73.9971363, 40.7264876], [-73.9961808, 40.7275913], [-73.995385, 40.7271999], [-73.9948769, 40.727804], [-73.9956713, 40.7281958], [-73.9948925, 40.7290798], [-73.993981, 40.7286293], [-73.9943399, 40.7282055], [-73.9936841, 40.7278815], [-73.9937458, 40.7278098], [-73.9928387, 40.7273587], [-73.9926514, 40.7275823], [-73.9932686, 40.7278835], [-73.9927843, 40.7284584], [-73.9919881, 40.7280614], [-73.9920986, 40.7279048], [-73.9915606, 40.7276541], [-73.9914629, 40.7279927], [-73.9918557, 40.7281807], [-73.9917677, 40.7282805], [-73.9918897, 40.7283413], [-73.9919191, 40.728307], [-73.9926141, 40.7286463], [-73.9916816, 40.7297518], [-73.9916705, 40.7297537], [-73.9916587, 40.7297579], [-73.9916402, 40.7297717], [-73.9916098, 40.729801], [-73.9916047, 40.7298135], [-73.9916059, 40.7298302], [-73.9916167, 40.7298412], [-73.9916345, 40.7298465], [-73.9916841, 40.7298547], [-73.9917228, 40.7298446], [-73.9927852, 40.7300034], [-73.9928068, 40.7300019], [-73.9928249, 40.7299955], [-73.9928383, 40.7299806], [-73.9932296, 40.7295127], [-73.9948898, 40.7303373], [-73.994137, 40.7312344], [-73.9941328, 40.7312475], [-73.9941344, 40.7312607], [-73.9941405, 40.7312708], [-73.9941542, 40.7312787], [-73.9951158, 40.7316866], [-73.9953986, 40.7312995], [-73.9965772, 40.7317918], [-73.9965895, 40.7317926], [-73.996604, 40.7317906], [-73.9966106, 40.7317845], [-73.9969375, 40.7313443], [-73.9971013, 40.7314233], [-73.9977524, 40.7317424], [-73.997421, 40.732198], [-73.9977498, 40.7323333], [-73.9985651, 40.7313204], [-73.999674, 40.7318616]]]}}