{"type": "Feature", "properties": {"market_key": 1780, "university": "California Polytechnic State University Pomona", "osm_type": "relation", "osm_id": 11352841, "osm_name": "California State Polytechnic University, Pomona"}, "geometry": {"type": "MultiPolygon", "coordinates": [[[[-117.8363387, 34.0544103], [-117.8359088, 34.0537099], [-117.8356727, 34.0527272], [-117.8344346, 34.0477048], [-117.833981, 34.0478135], [-117.8336335, 34.0479176], [-117.8334175, 34.0479878], [-117.8329391, 34.048186], [-117.8309386, 34.0489155], [-117.8282521, 34.04991], [-117.8270605, 34.0503508], [-117.8262954, 34.0505512], [-117.8254338, 34.0506544], [-117.8250101, 34.050678], [-117.8246233, 34.0506806], [-117.8208916, 34.0506379], [-117.8208307, 34.0506715], [-117.820534, 34.0506614], [-117.8204656, 34.0506184], [-117.820027, 34.0506165], [-117.8197742, 34.0506641], [-117.8197481, 34.0506568], [-117.8193445, 34.050651], [-117.8192667, 34.0506439], [-117.8190572, 34.0506123], [-117.8186026, 34.0506114], [-117.8185624, 34.0506209], [-117.8185295, 34.0506433], [-117.8183648, 34.0506664], [-117.8183184, 34.0506533], [-117.8178649, 34.0506224], [-117.8176662, 34.0505646], [-117.8172452, 34.0504946], [-117.8169915, 34.0504383], [-117.8168265, 34.0503995], [-117.8165415, 34.0505559], [-117.8150375, 34.0525133], [-117.8139904, 34.0536982], [-117.813998, 34.0537881], [-117.8138405, 34.0539455], [-117.8138248, 34.053959], [-117.8137607, 34.0539868], [-117.8109029, 34.0569269], [-117.8100869, 34.0577708], [-117.8096507, 34.0581112], [-117.8091385, 34.0584539], [-117.8085532, 34.0587523], [-117.8080157, 34.0589575], [-117.8059414, 34.0595988], [-117.8058865, 34.0596463], [-117.8056956, 34.0597089], [-117.8056131, 34.0597011], [-117.8053365, 34.0597926], [-117.8054723, 34.0600497], [-117.8059138, 34.0610414], [-117.8064532, 34.0621401], [-117.8066733, 34.0624447], [-117.8069217, 34.0627372], [-117.8074485, 34.0630729], [-117.8078695, 34.0632668], [-117.808304, 34.063375], [-117.8088623, 34.0634254], [-117.8118429, 34.0635485], [-117.8118159, 34.0632668], [-117.8172197, 34.0634035], [-117.8192626, 34.0633648], [-117.8205975, 34.0633922], [-117.8242463, 34.0636313], [-117.8260346, 34.0638058], [-117.8263262, 34.062591], [-117.8260186, 34.0622876], [-117.8336676, 34.0599442], [-117.8349117, 34.0573622], [-117.8363387, 34.0544103]]], [[[-117.8125276, 34.0487756], [-117.8122781, 34.0488512], [-117.809789, 34.0520802], [-117.8097756, 34.0521602], [-117.8097245, 34.0522302], [-117.8096312, 34.0523595], [-117.8095979, 34.0524069], [-117.8095349, 34.0524047], [-117.8093418, 34.0526224], [-117.8093016, 34.0527469], [-117.8090897, 34.0530347], [-117.8089381, 34.0531758], [-117.8087128, 34.0534514], [-117.8086256, 34.0536125], [-117.8085264, 34.0537314], [-117.8083386, 34.0539247], [-117.8088657, 34.0542869], [-117.8089623, 34.054238], [-117.8093525, 34.0544791], [-117.8094102, 34.0544136], [-117.8094826, 34.0544058], [-117.8096328, 34.0544969], [-117.8097468, 34.0545991], [-117.810581, 34.0549958], [-117.8109753, 34.0553036], [-117.8110866, 34.0552314], [-117.8115211, 34.055608], [-117.8134111, 34.0537261], [-117.8135523, 34.0534831], [-117.8136249, 34.0534046], [-117.8140996, 34.052914], [-117.8144849, 34.0524194], [-117.8147566, 34.052025], [-117.8151459, 34.0513931], [-117.8153786, 34.0510309], [-117.8154246, 34.0509283], [-117.8154777, 34.0508806], [-117.8156299, 34.0506856], [-117.8155927, 34.0504635], [-117.8158661, 34.0500918], [-117.8125276, 34.0487756]]], [[[-117.8126527, 34.0484713], [-117.812625, 34.0483973], [-117.8139006, 34.0467379], [-117.8175807, 34.048192], [-117.8166748, 34.0493269], [-117.8163846, 34.0497092], [-117.8161856, 34.0498827], [-117.8126527, 34.0484713]]], [[[-117.8097906, 34.0433009], [-117.8101118, 34.0435569], [-117.8103232, 34.0436883], [-117.8106244, 34.0439666], [-117.8112049, 34.0435209], [-117.8121109, 34.0442071], [-117.8113553, 34.0449655], [-117.8123075, 34.0460345], [-117.8117311, 34.046439], [-117.8099721, 34.0452543], [-117.8093032, 34.0459053], [-117.8083865, 34.0449288], [-117.8085529, 34.0447264], [-117.8097279, 34.0439493], [-117.809873, 34.0438642], [-117.8095226, 34.0435035], [-117.8097906, 34.0433009]]], [[[-117.8123075, 34.0460345], [-117.8113553, 34.0449655], [-117.8121109, 34.0442071], [-117.8112049, 34.0435209], [-117.8106244, 34.0439666], [-117.8103232, 34.0436883], [-117.8101118, 34.0435569], [-117.8097906, 34.0433009], [-117.8098313, 34.0431931], [-117.814339, 34.0385821], [-117.8166005, 34.0361566], [-117.820994, 34.0319042], [-117.8212623, 34.0317223], [-117.8217949, 34.0315842], [-117.823604, 34.0333664], [-117.8207541, 34.0369848], [-117.8177172, 34.0409264], [-117.8152779, 34.0439313], [-117.8129118, 34.0456156], [-117.8123075, 34.0460345]]], [[[-117.8119318, 34.0302304], [-117.8180349, 34.0343693], [-117.8144343, 34.0380341], [-117.8118097, 34.0406501], [-117.8104461, 34.0420742], [-117.8085921, 34.0439239], [-117.8065653, 34.0459863], [-117.8031562, 34.0438465], [-117.8017459, 34.0429178], [-117.8019, 34.0422677], [-117.8023904, 34.0412654], [-117.8033711, 34.0400464], [-117.804688, 34.0386688], [-117.8063785, 34.0369738], [-117.8065794, 34.0367609], [-117.8076815, 34.0351936], [-117.8092226, 34.0329412], [-117.8098271, 34.0321484], [-117.8100501, 34.031817], [-117.8119318, 34.0302304]]], [[[-117.8165331, 34.0498538], [-117.8168513, 34.049415], [-117.8169397, 34.0493002], [-117.8172979, 34.0488725], [-117.8176038, 34.0485037], [-117.8181791, 34.0478224], [-117.8190339, 34.0468177], [-117.8190847, 34.0468371], [-117.819354, 34.046507], [-117.8195024, 34.0463082], [-117.8196091, 34.0463478], [-117.8197199, 34.0463672], [-117.8196955, 34.0465348], [-117.8197382, 34.0467133], [-117.81983, 34.0469192], [-117.8199433, 34.0470409], [-117.8200866, 34.047104], [-117.8205733, 34.0471685], [-117.8204954, 34.0473444], [-117.8220351, 34.0477654], [-117.8229256, 34.0480003], [-117.8226121, 34.0485774], [-117.8220259, 34.0496035], [-117.8210769, 34.0493661], [-117.8207319, 34.0500043], [-117.8208181, 34.0500681], [-117.8208736, 34.0501447], [-117.8209013, 34.0503693], [-117.8205223, 34.0503514], [-117.8196968, 34.0503544], [-117.8183882, 34.0503121], [-117.8179371, 34.0502841], [-117.8174878, 34.0502259], [-117.8171227, 34.0501514], [-117.8169656, 34.0500952], [-117.8169325, 34.0500175], [-117.8166796, 34.0498697], [-117.8166072, 34.049964], [-117.8165052, 34.049987], [-117.8164821, 34.0499781], [-117.8165331, 34.0498538]]], [[[-117.8220259, 34.0496035], [-117.8226121, 34.0485774], [-117.8248773, 34.0484244], [-117.8252655, 34.0482088], [-117.8255451, 34.0480398], [-117.8259982, 34.0478127], [-117.8266634, 34.0475062], [-117.8273383, 34.0472678], [-117.8279391, 34.0472058], [-117.8285718, 34.047255], [-117.8297173, 34.0474609], [-117.8307225, 34.0486809], [-117.8281511, 34.0496642], [-117.8269782, 34.0500853], [-117.8259923, 34.0503127], [-117.8247585, 34.0503935], [-117.8235795, 34.0503884], [-117.8219838, 34.0503548], [-117.8209013, 34.0503693], [-117.8208736, 34.0501447], [-117.8208181, 34.0500681], [-117.8207319, 34.0500043], [-117.8210769, 34.0493661], [-117.8220259, 34.0496035]]], [[[-117.8219539, 34.0404623], [-117.8215917, 34.0402988], [-117.8211373, 34.040424], [-117.8206152, 34.0406866], [-117.8204745, 34.0418448], [-117.8213791, 34.0418171], [-117.82158, 34.041811], [-117.8220279, 34.0415884], [-117.8221871, 34.0413212], [-117.8221049, 34.0407509], [-117.8219539, 34.0404623]]]]}}