{"type": "Feature", "properties": {"market_key": 18, "university": "Florida State University", "osm_type": "relation", "osm_id": 18587875, "osm_name": "Florida State University"}, "geometry": {"type": "MultiPolygon", "coordinates": [[[[-84.2982957, 30.4463991], [-84.3010412, 30.4477867], [-84.3012619, 30.4478977], [-84.3014854, 30.4480103], [-84.3016831, 30.4481054], [-84.3018827, 30.4482006], [-84.3020777, 30.4482909], [-84.3024034, 30.4484238], [-84.3023921, 30.4489838], [-84.3019678, 30.4489976], [-84.2986337, 30.4489764], [-84.2982482, 30.448987], [-84.2981923, 30.4489435], [-84.2981868, 30.4465075], [-84.2981978, 30.4464617], [-84.2982326, 30.4464182], [-84.2982957, 30.4463991]]], [[[-84.2940595, 30.4445507], [-84.2940436, 30.4439746], [-84.2938968, 30.4439735], [-84.2935268, 30.4439757], [-84.2935302, 30.4441317], [-84.2933645, 30.4441317], [-84.2933628, 30.4442219], [-84.2927525, 30.444223], [-84.292136, 30.4442316], [-84.2921344, 30.4441587], [-84.2916568, 30.444155], [-84.2912222, 30.4441544], [-84.2912218, 30.4443551], [-84.2909338, 30.4443547], [-84.2907185, 30.4443541], [-84.2907013, 30.4445663], [-84.2886838, 30.4445732], [-84.2886398, 30.4445459], [-84.2886267, 30.444223], [-84.2885838, 30.4437274], [-84.28858, 30.4436024], [-84.2885122, 30.4436021], [-84.2885126, 30.442988], [-84.2885141, 30.4428598], [-84.2885168, 30.4427088], [-84.288514, 30.4425398], [-84.2885112, 30.4424214], [-84.2885057, 30.4422985], [-84.2885048, 30.4422521], [-84.2885034, 30.4421798], [-84.2885041, 30.4418012], [-84.2885045, 30.4417045], [-84.2885059, 30.4413829], [-84.2884983, 30.4412702], [-84.2884976, 30.4411908], [-84.2884583, 30.4411319], [-84.2884684, 30.4408384], [-84.2884686, 30.4407306], [-84.2884688, 30.4406267], [-84.2884695, 30.4403088], [-84.2884696, 30.4402548], [-84.2884674, 30.4400332], [-84.2884648, 30.4397783], [-84.2884704, 30.4397034], [-84.2884837, 30.4396297], [-84.2885056, 30.4395461], [-84.2885104, 30.4395309], [-84.2885342, 30.4394559], [-84.2885614, 30.4393924], [-84.2885941, 30.4393319], [-84.2889118, 30.4390407], [-84.2889494, 30.4390126], [-84.288986, 30.4389852], [-84.289079, 30.4389167], [-84.2892079, 30.4388245], [-84.2892658, 30.4387777], [-84.2893135, 30.4387348], [-84.2893645, 30.4386865], [-84.2893853, 30.4386668], [-84.2894419, 30.4386056], [-84.2894897, 30.4385439], [-84.2895357, 30.4384714], [-84.2895819, 30.4383717], [-84.2896161, 30.4382668], [-84.2896375, 30.4381596], [-84.2896495, 30.4380574], [-84.2896616, 30.4378925], [-84.2897037, 30.4373206], [-84.2897182, 30.4371237], [-84.2898025, 30.437177], [-84.2898184, 30.437187], [-84.2899153, 30.4372473], [-84.2900109, 30.4372996], [-84.2901067, 30.437345], [-84.2902212, 30.4373872], [-84.2903384, 30.4374202], [-84.290358, 30.4374248], [-84.2904613, 30.4374493], [-84.2905856, 30.437467], [-84.2906761, 30.4374764], [-84.290691, 30.437478], [-84.2907708, 30.4374832], [-84.2908432, 30.4374826], [-84.2914774, 30.4374776], [-84.291835, 30.4374748], [-84.2920627, 30.437473], [-84.2923267, 30.4374709], [-84.2930674, 30.437465], [-84.2931632, 30.437465], [-84.293764, 30.4374642], [-84.2940053, 30.4374639], [-84.2943, 30.4374636], [-84.2943683, 30.4374635], [-84.2944926, 30.4374634], [-84.2945836, 30.4374633], [-84.2946465, 30.4374632], [-84.2950418, 30.4374627], [-84.2952592, 30.4374629], [-84.2954592, 30.4374631], [-84.2956395, 30.4374633], [-84.2958504, 30.4374635], [-84.2959151, 30.4374648], [-84.2959468, 30.4374654], [-84.295991, 30.4374702], [-84.2960744, 30.4375301], [-84.2961929, 30.4376348], [-84.2974054, 30.4376348], [-84.2981742, 30.4376609], [-84.2981851, 30.4362604], [-84.2982128, 30.435952], [-84.2982189, 30.4358808], [-84.2982321, 30.4358159], [-84.2982556, 30.4357619], [-84.2982843, 30.4357132], [-84.2983205, 30.4356779], [-84.2983686, 30.4356535], [-84.2984307, 30.4356399], [-84.2984882, 30.4356278], [-84.2985557, 30.4356234], [-84.298746, 30.43564], [-84.2991145, 30.4356527], [-84.2991779, 30.4356502], [-84.299268, 30.4356395], [-84.2993193, 30.4356365], [-84.2993776, 30.435638], [-84.2998374, 30.4356727], [-84.2999381, 30.435679], [-84.3002356, 30.4356944], [-84.3008747, 30.4357161], [-84.3011221, 30.4357219], [-84.3013883, 30.4357188], [-84.3024178, 30.4357358], [-84.3025046, 30.4357385], [-84.3026029, 30.4357442], [-84.302694, 30.4357512], [-84.3027906, 30.4357611], [-84.3028841, 30.435772], [-84.3029832, 30.4357858], [-84.3031296, 30.4358108], [-84.3032442, 30.4358366], [-84.303368, 30.435867], [-84.3034609, 30.4358903], [-84.3038176, 30.4359975], [-84.3039906, 30.4360516], [-84.3040923, 30.436081], [-84.3042087, 30.4361111], [-84.304323, 30.4361357], [-84.30447, 30.4361622], [-84.3046603, 30.4361976], [-84.3050179, 30.4362511], [-84.305188, 30.4362818], [-84.3052891, 30.4363112], [-84.3053685, 30.4363413], [-84.3054502, 30.4363801], [-84.3057617, 30.4365444], [-84.3058937, 30.4366571], [-84.3059899, 30.4367646], [-84.3060681, 30.4368739], [-84.3061177, 30.4369631], [-84.3061663, 30.4370724], [-84.3062001, 30.437179], [-84.3062265, 30.4372911], [-84.3062434, 30.4374086], [-84.3062007, 30.4385167], [-84.3062186, 30.4385262], [-84.3062176, 30.4387321], [-84.3062218, 30.4388774], [-84.306236, 30.4390318], [-84.3062514, 30.4391611], [-84.3062783, 30.4392909], [-84.30631, 30.4394535], [-84.3063966, 30.4398686], [-84.3064145, 30.4399918], [-84.3064337, 30.4401554], [-84.3064433, 30.4402797], [-84.3064425, 30.4404198], [-84.3064257, 30.4413186], [-84.3064039, 30.4415146], [-84.3063919, 30.4459281], [-84.3063505, 30.4468448], [-84.3063474, 30.4469179], [-84.3063511, 30.4469796], [-84.3063668, 30.4470455], [-84.3063875, 30.4471125], [-84.3063668, 30.4476366], [-84.3058377, 30.4476419], [-84.3058422, 30.4484484], [-84.3054031, 30.448452], [-84.3054083, 30.4488683], [-84.3049117, 30.4488053], [-84.3046884, 30.4487687], [-84.3044566, 30.4487268], [-84.3042479, 30.4486881], [-84.3040501, 30.4486442], [-84.3038425, 30.4485898], [-84.3035476, 30.4485144], [-84.3032746, 30.4484307], [-84.3029736, 30.4483272], [-84.3027005, 30.4482257], [-84.3024238, 30.4481148], [-84.3021593, 30.4479997], [-84.3019008, 30.4478846], [-84.3016192, 30.4477455], [-84.2991932, 30.4465255], [-84.2990804, 30.4464639], [-84.2989594, 30.4463968], [-84.2988246, 30.4463189], [-84.298353, 30.4460564], [-84.2978366, 30.4458372], [-84.2972472, 30.4455396], [-84.2970094, 30.4454213], [-84.2967845, 30.4453137], [-84.2965091, 30.4451873], [-84.2964339, 30.445155], [-84.2963197, 30.4451059], [-84.2960928, 30.4450188], [-84.2958544, 30.4449348], [-84.2955338, 30.4448414], [-84.2945946, 30.4446137], [-84.2940595, 30.4445507]]], [[[-84.294123, 30.4462332], [-84.29413, 30.4458589], [-84.2940569, 30.4456595], [-84.2940559, 30.4448753], [-84.2940731, 30.4448385], [-84.2940978, 30.4448376], [-84.2943171, 30.4448612], [-84.2945874, 30.4448972], [-84.2948192, 30.4449331], [-84.2950346, 30.4449769], [-84.2952562, 30.4450286], [-84.2954452, 30.4450794], [-84.2956353, 30.445139], [-84.2958325, 30.4452047], [-84.2959992, 30.4452704], [-84.2961882, 30.4453554], [-84.2966429, 30.4455736], [-84.2962768, 30.4462419], [-84.2941694, 30.4462416], [-84.294123, 30.4462332]]]]}}