{"type": "Feature", "properties": {"market_key": 180, "university": "University of Arkansas", "osm_type": "relation", "osm_id": 12440820, "osm_name": "University of Arkansas"}, "geometry": {"type": "MultiPolygon", "coordinates": [[[[-94.1849895, 36.0489081], [-94.1850505, 36.0490856], [-94.1849966, 36.0511781], [-94.1829044, 36.0511555], [-94.1828498, 36.0523587], [-94.1809873, 36.0522954], [-94.181065, 36.048934], [-94.1811079, 36.04887], [-94.1811938, 36.0488245], [-94.181356, 36.048779], [-94.1842202, 36.0488461], [-94.1844485, 36.0488232], [-94.184659, 36.0487531], [-94.1847528, 36.048733], [-94.1848944, 36.0487874], [-94.1849895, 36.0489081]]], [[[-94.1807168, 36.0489278], [-94.1806814, 36.048873], [-94.1806044, 36.0488132], [-94.1805042, 36.0487871], [-94.1801145, 36.0487783], [-94.1796961, 36.0494605], [-94.1792401, 36.0499288], [-94.1786362, 36.0503722], [-94.1781679, 36.0506413], [-94.1781432, 36.0509975], [-94.1787964, 36.0512092], [-94.1794527, 36.0516626], [-94.1801089, 36.0522953], [-94.180414, 36.052771], [-94.1805588, 36.0530675], [-94.1807168, 36.0489278]]], [[[-94.1682105, 36.0564404], [-94.1678027, 36.0564278], [-94.1678069, 36.0563235], [-94.1678909, 36.0550345], [-94.1687546, 36.055054], [-94.1700242, 36.0548667], [-94.1699485, 36.0565022], [-94.1682105, 36.0564404]]], [[[-94.1747752, 36.0921681], [-94.1746666, 36.0956288], [-94.1770678, 36.0956776], [-94.1772616, 36.0957003], [-94.1773481, 36.0957919], [-94.1774292, 36.0959615], [-94.1774815, 36.0965857], [-94.1773535, 36.0987009], [-94.1773481, 36.0988158], [-94.1772019, 36.1012333], [-94.1771489, 36.1012891], [-94.1771217, 36.1018175], [-94.1764187, 36.1017797], [-94.1763821, 36.1027388], [-94.1652815, 36.1025473], [-94.1654274, 36.0974921], [-94.1642327, 36.0977404], [-94.1643059, 36.0987571], [-94.1624287, 36.098897], [-94.1621685, 36.0985619], [-94.1631948, 36.0981581], [-94.1631177, 36.0976627], [-94.1633519, 36.0960843], [-94.1635737, 36.0953051], [-94.1638202, 36.0951059], [-94.1643009, 36.0949366], [-94.1644149, 36.0944337], [-94.1646151, 36.0926138], [-94.1651574, 36.0919192], [-94.1726352, 36.0920979], [-94.1747752, 36.0921681]]], [[[-94.1750219, 36.092164], [-94.1750145, 36.0920136], [-94.1750152, 36.0918576], [-94.1750225, 36.091736], [-94.1751483, 36.0885641], [-94.1764971, 36.088602], [-94.1765286, 36.088563], [-94.1767295, 36.088571], [-94.1772422, 36.0885914], [-94.1773414, 36.0859203], [-94.1828668, 36.0860807], [-94.1872453, 36.0863533], [-94.1904595, 36.0863455], [-94.1904735, 36.0866206], [-94.1904741, 36.08701], [-94.1905023, 36.0870096], [-94.1904667, 36.0883246], [-94.1922484, 36.0883289], [-94.1926818, 36.0883321], [-94.192677, 36.0884679], [-94.1925925, 36.0885065], [-94.1924533, 36.0885983], [-94.1922743, 36.0890244], [-94.1919938, 36.0894712], [-94.1914287, 36.0913142], [-94.1907253, 36.0922078], [-94.1883104, 36.0952038], [-94.1877291, 36.0958904], [-94.1864688, 36.0958082], [-94.1864891, 36.0956768], [-94.1807393, 36.0955368], [-94.1804206, 36.1028108], [-94.1776847, 36.1027328], [-94.1775453, 36.1025725], [-94.1774762, 36.1022643], [-94.1774527, 36.1020812], [-94.1774383, 36.101831], [-94.1774493, 36.1015286], [-94.1774447, 36.1014554], [-94.1774762, 36.1005745], [-94.17768, 36.096512], [-94.177727, 36.0954738], [-94.1764905, 36.0940737], [-94.1762464, 36.0940542], [-94.1756147, 36.093417], [-94.1754109, 36.0931634], [-94.1753022, 36.0929879], [-94.1751802, 36.092731], [-94.1751172, 36.0925706], [-94.1750702, 36.0924439], [-94.175038, 36.0922737], [-94.1750219, 36.092164]]], [[[-94.1685453, 36.0654495], [-94.170243, 36.0654804], [-94.1702854, 36.065488], [-94.1703247, 36.0655082], [-94.1703533, 36.0647832], [-94.1703245, 36.0647824], [-94.1703115, 36.0643514], [-94.1703175, 36.0640709], [-94.1701858, 36.0639023], [-94.1701713, 36.0637902], [-94.1697572, 36.0637808], [-94.1697911, 36.0630147], [-94.1698222, 36.0630367], [-94.1707797, 36.0637152], [-94.1709108, 36.0637642], [-94.1709658, 36.0637689], [-94.1710806, 36.063772], [-94.1711804, 36.0637722], [-94.1714744, 36.0637728], [-94.17177, 36.0637734], [-94.1717538, 36.0642588], [-94.1716777, 36.0642569], [-94.1716598, 36.0645647], [-94.1720567, 36.0645747], [-94.1722381, 36.0645562], [-94.1722304, 36.0642384], [-94.1733559, 36.064286], [-94.1739737, 36.0643053], [-94.1739779, 36.0643054], [-94.1739893, 36.0639849], [-94.173975, 36.0639081], [-94.1737398, 36.0639027], [-94.1736245, 36.0638913], [-94.1734452, 36.0638548], [-94.1739952, 36.0634352], [-94.1736723, 36.0631564], [-94.1741172, 36.0628183], [-94.1742318, 36.062738], [-94.1743564, 36.0626506], [-94.1743723, 36.0626415], [-94.174407, 36.0626218], [-94.1746559, 36.0629882], [-94.1750812, 36.0627978], [-94.1753826, 36.0632416], [-94.1755113, 36.0631858], [-94.1757872, 36.0631111], [-94.1758057, 36.0625087], [-94.175891, 36.0623404], [-94.1758213, 36.0621467], [-94.1757827, 36.0621532], [-94.1757352, 36.0621458], [-94.1756968, 36.0621234], [-94.1756726, 36.0620879], [-94.1756698, 36.0620489], [-94.1756825, 36.0620195], [-94.1757035, 36.0619978], [-94.1757475, 36.0619774], [-94.1757202, 36.0618353], [-94.1757096, 36.0617804], [-94.1756991, 36.0615856], [-94.1756956, 36.061429], [-94.1756923, 36.0612204], [-94.1757037, 36.061023], [-94.1757147, 36.0608489], [-94.1757209, 36.0608139], [-94.1760734, 36.0605239], [-94.1760278, 36.0605239], [-94.1759882, 36.0605196], [-94.1759627, 36.0605093], [-94.1759252, 36.0604844], [-94.1758997, 36.0604405], [-94.1758923, 36.0604161], [-94.1759647, 36.0600204], [-94.1760157, 36.059732], [-94.1760278, 36.0594533], [-94.1760264, 36.0592777], [-94.176001, 36.0587432], [-94.1759889, 36.0586348], [-94.1756241, 36.057491], [-94.1755731, 36.0572427], [-94.1754712, 36.0569066], [-94.1759124, 36.0569332], [-94.1759661, 36.0568952], [-94.1766058, 36.056924], [-94.1769055, 36.0569267], [-94.1771704, 36.0569299], [-94.1772844, 36.0569999], [-94.1777531, 36.0569852], [-94.1781521, 36.0569787], [-94.1783056, 36.0569738], [-94.1789594, 36.0569424], [-94.1790962, 36.0569408], [-94.1793007, 36.0569104], [-94.1794375, 36.0569061], [-94.1802422, 36.0568746], [-94.1805788, 36.0568611], [-94.1809778, 36.0568454], [-94.1812038, 36.0568367], [-94.1812869, 36.0568334], [-94.1824946, 36.0567863], [-94.1829747, 36.0567678], [-94.1835929, 36.0567434], [-94.1837847, 36.0567369], [-94.1837659, 36.0575181], [-94.1837512, 36.0580157], [-94.1838016, 36.0587531], [-94.1837889, 36.0590699], [-94.183768, 36.059569], [-94.1837477, 36.0605238], [-94.1837179, 36.0611636], [-94.1837039, 36.0614644], [-94.1834516, 36.0614576], [-94.183232, 36.0614516], [-94.1825436, 36.0614329], [-94.1824036, 36.0614291], [-94.1818975, 36.0614154], [-94.1818883, 36.0616321], [-94.1818714, 36.062027], [-94.1818571, 36.0623531], [-94.1818375, 36.0629361], [-94.1818315, 36.063253], [-94.1822541, 36.0632581], [-94.1824757, 36.0632624], [-94.1823965, 36.0649429], [-94.1818592, 36.0649236], [-94.1818448, 36.0653758], [-94.1814351, 36.0653611], [-94.1814326, 36.0654315], [-94.1814055, 36.0654298], [-94.1814077, 36.065637], [-94.1814071, 36.0661195], [-94.1814069, 36.0662722], [-94.1813899, 36.0668293], [-94.1808173, 36.0668036], [-94.1807706, 36.0677175], [-94.1807832, 36.0677474], [-94.180754, 36.068664], [-94.1807507, 36.0689268], [-94.180734, 36.0696231], [-94.1809862, 36.0696289], [-94.1809799, 36.0698651], [-94.1809754, 36.069931], [-94.1809624, 36.0704717], [-94.1814088, 36.0704863], [-94.1814058, 36.0705806], [-94.1813968, 36.070869], [-94.181395, 36.070966], [-94.181391, 36.0711776], [-94.1813849, 36.0714974], [-94.1799695, 36.0714644], [-94.1799598, 36.0719696], [-94.179946, 36.0728714], [-94.1799351, 36.0735674], [-94.1799275, 36.0740509], [-94.1797278, 36.0740251], [-94.1789, 36.0740115], [-94.1786412, 36.0740063], [-94.178196, 36.0739974], [-94.1773743, 36.073981], [-94.1773287, 36.07398], [-94.1765685, 36.0739686], [-94.176242, 36.0739637], [-94.1756756, 36.0739552], [-94.1755732, 36.0739693], [-94.1754504, 36.0739783], [-94.1753464, 36.0739758], [-94.1749583, 36.0739667], [-94.1746633, 36.0739598], [-94.1742634, 36.0739502], [-94.174286, 36.0731225], [-94.1737596, 36.0731108], [-94.1737551, 36.073258], [-94.1732369, 36.0732462], [-94.1732372, 36.0732365], [-94.1732467, 36.0729506], [-94.1732516, 36.0728036], [-94.1727298, 36.0727955], [-94.1727368, 36.0725085], [-94.1721846, 36.0724967], [-94.172196, 36.072042], [-94.1721997, 36.0718957], [-94.1722009, 36.071849], [-94.1722023, 36.0717927], [-94.172214, 36.0714514], [-94.1727652, 36.0714644], [-94.1728224, 36.0712486], [-94.1728039, 36.0709818], [-94.1727958, 36.0707582], [-94.1725091, 36.0707511], [-94.1725288, 36.0702655], [-94.1722667, 36.0702586], [-94.1721131, 36.0702549], [-94.171667, 36.0702441], [-94.1716638, 36.0703333], [-94.1716479, 36.0709644], [-94.1716451, 36.0710401], [-94.1721485, 36.0710518], [-94.1721511, 36.0709634], [-94.1722355, 36.070964], [-94.1722261, 36.0711766], [-94.1716393, 36.0711635], [-94.171637, 36.0712481], [-94.1716313, 36.0714595], [-94.1716265, 36.0716359], [-94.1716227, 36.0717757], [-94.1710919, 36.0717654], [-94.1710297, 36.071764], [-94.1704262, 36.0717404], [-94.1702845, 36.0717369], [-94.1702102, 36.0717351], [-94.1697797, 36.0717245], [-94.1696002, 36.0717201], [-94.1696277, 36.0710369], [-94.1696264, 36.0709638], [-94.1696098, 36.0708354], [-94.1696076, 36.0708186], [-94.1696081, 36.0707831], [-94.1688877, 36.070776], [-94.1688907, 36.0706798], [-94.1689066, 36.0701743], [-94.1684622, 36.0701629], [-94.168451, 36.0706633], [-94.1681874, 36.0706982], [-94.1681975, 36.0707838], [-94.1681509, 36.0707827], [-94.1681694, 36.071], [-94.1674856, 36.0710017], [-94.1674617, 36.0709213], [-94.1672233, 36.0701191], [-94.1671992, 36.0700686], [-94.1667822, 36.0691961], [-94.1670416, 36.0691995], [-94.1678074, 36.0692094], [-94.1678984, 36.0692106], [-94.1678852, 36.0696138], [-94.1684063, 36.0696263], [-94.1684266, 36.0692168], [-94.168445, 36.0686552], [-94.168453, 36.0684072], [-94.1679253, 36.0683983], [-94.1679366, 36.068043], [-94.1675882, 36.0680355], [-94.1675976, 36.0677486], [-94.1672695, 36.0677415], [-94.1672821, 36.0673542], [-94.1674065, 36.0673561], [-94.1675104, 36.0673578], [-94.167549, 36.0673584], [-94.1676915, 36.0673606], [-94.1677896, 36.0673621], [-94.1678033, 36.0669682], [-94.1679715, 36.0669731], [-94.1679729, 36.0669707], [-94.1679779, 36.0668554], [-94.1685476, 36.0668684], [-94.1685453, 36.0654495]]]]}}