{"type": "Feature", "properties": {"market_key": 1804, "university": "Louisiana State University", "osm_type": "way", "osm_id": 38501878, "osm_name": "Louisiana State University"}, "geometry": {"type": "Polygon", "coordinates": [[[-91.169976, 30.4089432], [-91.1704175, 30.4088144], [-91.1706455, 30.4086541], [-91.1706927, 30.4081723], [-91.170554, 30.4079313], [-91.1701374, 30.4075694], [-91.170741, 30.406968], [-91.1713905, 30.4066476], [-91.1731948, 30.4048761], [-91.1734575, 30.4046181], [-91.1734972, 30.4043531], [-91.1749373, 30.4030517], [-91.179621, 30.4038211], [-91.18, 30.4038833], [-91.1811675, 30.4040751], [-91.1817535, 30.4010128], [-91.1801043, 30.3987903], [-91.1798934, 30.3983692], [-91.1789847, 30.3970253], [-91.179017, 30.3970167], [-91.1792302, 30.3969352], [-91.17925, 30.3969672], [-91.1805592, 30.3965208], [-91.1832009, 30.3956153], [-91.1832102, 30.3955844], [-91.187819, 30.3953701], [-91.1918111, 30.3951844], [-91.1927341, 30.3902891], [-91.1944536, 30.3908798], [-91.2058614, 30.3947991], [-91.2058927, 30.3948266], [-91.2059086, 30.3948634], [-91.2059088, 30.3949053], [-91.2058944, 30.3949487], [-91.2032833, 30.398157], [-91.2029023, 30.3986949], [-91.2025459, 30.399263], [-91.2013351, 30.4012769], [-91.2006809, 30.4023864], [-91.2005169, 30.4027155], [-91.2003706, 30.4030447], [-91.1999167, 30.4042131], [-91.19956, 30.4049863], [-91.1991963, 30.4057534], [-91.1986221, 30.4069401], [-91.1979502, 30.4083272], [-91.1974751, 30.4092482], [-91.1971169, 30.409899], [-91.1964326, 30.4111495], [-91.1961063, 30.4117975], [-91.1958046, 30.4124576], [-91.1954824, 30.4131498], [-91.1950407, 30.4140679], [-91.194854, 30.4144929], [-91.1947095, 30.4149179], [-91.1946258, 30.4152249], [-91.1945561, 30.4155319], [-91.1944414, 30.416167], [-91.194045, 30.4182776], [-91.1842294, 30.4177842], [-91.1840486, 30.4177714], [-91.184065, 30.418176], [-91.1841009, 30.4195837], [-91.1839945, 30.4195878], [-91.1836307, 30.4196019], [-91.1836319, 30.4197191], [-91.1841065, 30.4197041], [-91.184118, 30.4200568], [-91.1836434, 30.4200642], [-91.1836437, 30.4201772], [-91.1815007, 30.4198566], [-91.1815908, 30.4216429], [-91.1789542, 30.4217411], [-91.1789169, 30.4214742], [-91.1785877, 30.4214416], [-91.1779906, 30.4193878], [-91.1798556, 30.419496], [-91.1800938, 30.4174273], [-91.1730365, 30.4169801], [-91.1729124, 30.4170343], [-91.1728674, 30.4171621], [-91.1727146, 30.4182827], [-91.1726902, 30.4182979], [-91.1723414, 30.4182692], [-91.1721249, 30.4194953], [-91.1720381, 30.4194946], [-91.1715629, 30.4194314], [-91.1713528, 30.4194528], [-91.1710581, 30.4198854], [-91.1708246, 30.4201998], [-91.1706054, 30.4201192], [-91.1703025, 30.4200154], [-91.1701176, 30.4198887], [-91.1700295, 30.4196628], [-91.1700059, 30.4192851], [-91.1701899, 30.4191183], [-91.170193, 30.4190905], [-91.1702271, 30.4190277], [-91.1704289, 30.4189925], [-91.1707218, 30.4187312], [-91.1707918, 30.4185722], [-91.1706297, 30.4183698], [-91.1704449, 30.4179681], [-91.1701285, 30.4176919], [-91.1701037, 30.4170335], [-91.169688, 30.4166244], [-91.1690375, 30.4165132], [-91.1686661, 30.4163076], [-91.1684234, 30.4159818], [-91.168548, 30.4152966], [-91.1685372, 30.4149985], [-91.1684599, 30.4146467], [-91.1682044, 30.4138653], [-91.168009, 30.4136282], [-91.1676955, 30.4133431], [-91.1673305, 30.4129579], [-91.1671308, 30.4126005], [-91.1669956, 30.4119191], [-91.1668538, 30.4115598], [-91.1666606, 30.4106265], [-91.1664308, 30.4100117], [-91.1663256, 30.4096729], [-91.1662922, 30.4093468], [-91.166354, 30.4091986], [-91.16677, 30.4090111], [-91.1671699, 30.4090528], [-91.1674449, 30.4091409], [-91.1679671, 30.4092009], [-91.1688045, 30.4090505], [-91.1693923, 30.408988], [-91.16987, 30.4089741], [-91.169976, 30.4089432]]]}}