{"type": "Feature", "properties": {"market_key": 185, "university": "University of Minnesota Twin Cities", "osm_type": "relation", "osm_id": 2217609, "osm_name": "University of Minnesota, Twin Cities Campus"}, "geometry": {"type": "MultiPolygon", "coordinates": [[[[-93.1808047, 44.9783583], [-93.1808237, 44.9784886], [-93.1808044, 44.9800594], [-93.1808006, 44.9802239], [-93.1807913, 44.9803155], [-93.1807613, 44.9804446], [-93.1807343, 44.9805334], [-93.1806865, 44.9806583], [-93.180682, 44.9808144], [-93.1797295, 44.9808145], [-93.17968, 44.9808234], [-93.1796333, 44.9808523], [-93.1796129, 44.9808771], [-93.1796005, 44.980904], [-93.1795967, 44.9819849], [-93.1795775, 44.9823221], [-93.1795248, 44.9825809], [-93.1794205, 44.9828247], [-93.1793038, 44.9830564], [-93.1791434, 44.9832519], [-93.1788929, 44.9834765], [-93.1786472, 44.9836575], [-93.1783634, 44.9838153], [-93.1780727, 44.9839516], [-93.1777621, 44.9840525], [-93.1774649, 44.984134], [-93.1770673, 44.9841856], [-93.1750756, 44.9844217], [-93.1740908, 44.9844771], [-93.1718804, 44.9844969], [-93.1718142, 44.9845427], [-93.171796, 44.9880906], [-93.1717957, 44.9881584], [-93.1720086, 44.9881512], [-93.1720001, 44.9898509], [-93.171961, 44.9916109], [-93.1719592, 44.9916939], [-93.1719524, 44.9919051], [-93.1714465, 44.9919061], [-93.1714464, 44.99536], [-93.1701759, 44.9953606], [-93.1701765, 44.9970174], [-93.1679865, 44.9970238], [-93.1679862, 44.9988432], [-93.1767879, 44.9987899], [-93.1767558, 44.9918956], [-93.1767582, 44.991592], [-93.1780643, 44.9916007], [-93.1820989, 44.9915639], [-93.1821212, 44.9915638], [-93.1843656, 44.9915512], [-93.1843691, 44.9919037], [-93.1843802, 44.9930038], [-93.184379, 44.9945721], [-93.184379, 44.9948278], [-93.1843854, 44.9963462], [-93.1843896, 44.9978576], [-93.1843936, 44.9988646], [-93.1863514, 44.9988535], [-93.186916, 44.9988383], [-93.186951, 44.9988314], [-93.1869797, 44.9988152], [-93.1873062, 44.9988097], [-93.1881876, 44.998841], [-93.1972793, 44.9988352], [-93.197231, 44.9915389], [-93.197313, 44.9915384], [-93.197315, 44.9910817], [-93.1973161, 44.9908466], [-93.1973191, 44.9897115], [-93.1967587, 44.989771], [-93.1963137, 44.989832], [-93.1945139, 44.9898845], [-93.1940304, 44.9899069], [-93.1935936, 44.9899229], [-93.1929371, 44.9898979], [-93.1923177, 44.9898566], [-93.1923266, 44.9898293], [-93.1921725, 44.9898155], [-93.1921268, 44.9898114], [-93.188099, 44.9890565], [-93.1881035, 44.9881783], [-93.1873877, 44.9881752], [-93.1870611, 44.9881719], [-93.1871084, 44.984593], [-93.1871014, 44.9845812], [-93.1871034, 44.9844063], [-93.1871314, 44.9819874], [-93.1871444, 44.9808606], [-93.1871501, 44.9807003], [-93.187189, 44.9786412], [-93.1871968, 44.9785923], [-93.1872155, 44.9785343], [-93.1872256, 44.9785131], [-93.1872528, 44.9784568], [-93.1872893, 44.9784044], [-93.1873338, 44.9783528], [-93.1873472, 44.9783419], [-93.1873612, 44.9783292], [-93.1874273, 44.9782851], [-93.1875647, 44.9782262], [-93.1877423, 44.9781641], [-93.1882653, 44.977977], [-93.1883988, 44.9779283], [-93.1884496, 44.9779006], [-93.1885271, 44.9778267], [-93.1887347, 44.9776007], [-93.1887607, 44.9775748], [-93.1887632, 44.9775643], [-93.1887599, 44.9775507], [-93.1887446, 44.9775424], [-93.1887274, 44.9775366], [-93.188634, 44.9775011], [-93.1885675, 44.9774771], [-93.1883458, 44.9774134], [-93.1882213, 44.9773795], [-93.1881711, 44.97736], [-93.1881216, 44.9773379], [-93.1880822, 44.9773224], [-93.1873658, 44.9771502], [-93.1873209, 44.9771529], [-93.187061, 44.9770922], [-93.1869908, 44.9770756], [-93.1857803, 44.9767734], [-93.1854999, 44.9767033], [-93.1841928, 44.9763827], [-93.1840245, 44.9763453], [-93.1837126, 44.9762888], [-93.183594, 44.9762686], [-93.1835027, 44.97626], [-93.1831832, 44.9762394], [-93.182987, 44.9762339], [-93.1827587, 44.9762383], [-93.1825839, 44.976246], [-93.1824243, 44.9762536], [-93.1823342, 44.9762636], [-93.1821204, 44.9763103], [-93.1818227, 44.9763622], [-93.1808176, 44.9766206], [-93.1808243, 44.9766957], [-93.1808047, 44.9783583]]], [[[-93.2317792, 44.9831668], [-93.233405, 44.9810852], [-93.2340608, 44.9802222], [-93.2316554, 44.9804352], [-93.2312922, 44.9804729], [-93.2312464, 44.9804932], [-93.2312106, 44.9805408], [-93.2311977, 44.9805803], [-93.2302478, 44.9806846], [-93.2291695, 44.9807262], [-93.2272616, 44.9806411], [-93.2260605, 44.9805446], [-93.2260865, 44.981409], [-93.227985, 44.9824565], [-93.2283664, 44.9826543], [-93.2287443, 44.9828041], [-93.2298363, 44.9832703], [-93.229889, 44.983292], [-93.2300435, 44.9833545], [-93.2306323, 44.9835927], [-93.2311985, 44.9837916], [-93.231298, 44.9837547], [-93.2317792, 44.9831668]]], [[[-93.2423057, 44.9727636], [-93.243063, 44.9726389], [-93.2434764, 44.9725683], [-93.2436584, 44.9725358], [-93.2442418, 44.9724291], [-93.2446319, 44.9723798], [-93.2452383, 44.9722541], [-93.2453858, 44.9722518], [-93.2454582, 44.9722849], [-93.2456255, 44.9723077], [-93.245696, 44.9732665], [-93.2456959, 44.973394], [-93.2455831, 44.973416], [-93.2454741, 44.9734652], [-93.245437, 44.9735041], [-93.2454342, 44.9735162], [-93.2454289, 44.973539], [-93.2454295, 44.9737152], [-93.2454298, 44.9738181], [-93.2454293, 44.9739507], [-93.2454159, 44.9740005], [-93.245387, 44.9740558], [-93.2453477, 44.9741082], [-93.2453313, 44.9741222], [-93.2452793, 44.9741648], [-93.2452149, 44.974198], [-93.245104, 44.974232], [-93.2449927, 44.9742422], [-93.2445867, 44.97424], [-93.2444853, 44.9742412], [-93.2438351, 44.9742405], [-93.243782, 44.9742405], [-93.2437228, 44.9742404], [-93.2436232, 44.9742404], [-93.2426172, 44.9742406], [-93.2424119, 44.9742363], [-93.2424081, 44.9741144], [-93.242443, 44.9734071], [-93.2423498, 44.9734034], [-93.2423668, 44.9727946], [-93.2423073, 44.9727926], [-93.2423057, 44.9727636]]], [[[-93.2379212, 44.9799297], [-93.2383809, 44.9799209], [-93.2389183, 44.9798726], [-93.2397817, 44.9798638], [-93.241779, 44.9803471], [-93.2407508, 44.9811073], [-93.2379212, 44.9799297]]], [[[-93.2125835, 44.958846], [-93.2112424, 44.9570809], [-93.2095472, 44.958083], [-93.2092525, 44.9585649], [-93.209231, 44.9591002], [-93.209515, 44.9595217], [-93.2103522, 44.9600757], [-93.2107542, 44.9597912], [-93.2111512, 44.9598595], [-93.2125835, 44.958846]]], [[[-93.220749, 44.9744841], [-93.2217091, 44.9748693], [-93.2218426, 44.9749214], [-93.2218784, 44.9748767], [-93.2225574, 44.9740288], [-93.2225984, 44.9739776], [-93.2226757, 44.9738797], [-93.2227967, 44.973824], [-93.2228166, 44.9738148], [-93.2230156, 44.9737676], [-93.2233043, 44.9737192], [-93.2235389, 44.9736885], [-93.2235811, 44.9736903], [-93.2237223, 44.9736675], [-93.2239066, 44.9736664], [-93.2240596, 44.9736647], [-93.2241876, 44.9736653], [-93.2241874, 44.9736844], [-93.2241871, 44.9737229], [-93.2241873, 44.9737723], [-93.2242113, 44.9738302], [-93.2242942, 44.9739586], [-93.2244067, 44.9741332], [-93.2244914, 44.9742516], [-93.2249787, 44.9742496], [-93.2249787, 44.9740768], [-93.2256713, 44.9740762], [-93.2256696, 44.9742904], [-93.2256692, 44.9743463], [-93.2256711, 44.9745627], [-93.2256735, 44.9746569], [-93.2271227, 44.9746572], [-93.2271266, 44.9745718], [-93.2271267, 44.9744054], [-93.2271277, 44.9743407], [-93.2271296, 44.9740949], [-93.227129, 44.9737714], [-93.2271296, 44.9737214], [-93.2271992, 44.9737255], [-93.2272694, 44.9737297], [-93.2272906, 44.973731], [-93.2278174, 44.9737637], [-93.2281832, 44.9737775], [-93.2282349, 44.973777], [-93.2283049, 44.9737763], [-93.2285894, 44.9737734], [-93.2286943, 44.9737723], [-93.2286935, 44.9738419], [-93.228695, 44.9738944], [-93.2287054, 44.9744253], [-93.228703, 44.9746223], [-93.228699, 44.974696], [-93.228712, 44.9747258], [-93.2287339, 44.9747517], [-93.2287643, 44.9747649], [-93.2288116, 44.9747706], [-93.2302116, 44.9747678], [-93.2303193, 44.9747717], [-93.2303184, 44.9746858], [-93.2303166, 44.9745182], [-93.2303205, 44.9741564], [-93.2303218, 44.9740365], [-93.2303148, 44.9738835], [-93.2303097, 44.9738112], [-93.230305, 44.9737574], [-93.2303038, 44.9737337], [-93.2303011, 44.9736865], [-93.2302982, 44.9736339], [-93.230295, 44.9736051], [-93.2302929, 44.9735591], [-93.2303, 44.9733015], [-93.2302954, 44.9731869], [-93.2270061, 44.9732044], [-93.2270025, 44.9729443], [-93.2257268, 44.9729496], [-93.2256267, 44.9729382], [-93.2256335, 44.9735474], [-93.224023, 44.973538], [-93.223731, 44.973085], [-93.2234034, 44.9725953], [-93.2230427, 44.9720223], [-93.2243747, 44.9720215], [-93.224367, 44.9714009], [-93.2243638, 44.9703119], [-93.2256118, 44.9703181], [-93.2256173, 44.9714027], [-93.227169, 44.9714034], [-93.2271724, 44.9689906], [-93.2272433, 44.9687915], [-93.2286159, 44.9694885], [-93.2297807, 44.9699892], [-93.2303627, 44.9702155], [-93.2310558, 44.9704065], [-93.2316792, 44.9705573], [-93.2321397, 44.9706199], [-93.2325653, 44.9706637], [-93.2329598, 44.9707049], [-93.2349347, 44.9711881], [-93.2350176, 44.9711927], [-93.2351366, 44.9711752], [-93.235244, 44.9711547], [-93.2353323, 44.9711506], [-93.2354806, 44.9711619], [-93.2356417, 44.9712017], [-93.2364074, 44.9712464], [-93.2369002, 44.9713325], [-93.2373474, 44.9715346], [-93.2376211, 44.97175], [-93.237806, 44.9719939], [-93.2379425, 44.9723477], [-93.2380542, 44.9727678], [-93.238017, 44.9732757], [-93.238001, 44.9735337], [-93.2379941, 44.9743068], [-93.2379271, 44.9755455], [-93.2385804, 44.9755496], [-93.2385756, 44.9758002], [-93.2386188, 44.9759988], [-93.2388075, 44.976519], [-93.2389236, 44.9767763], [-93.2390316, 44.9769562], [-93.2391516, 44.9770768], [-93.2392955, 44.977238], [-93.2393987, 44.9773908], [-93.2395787, 44.9776862], [-93.2397179, 44.9777184], [-93.2397587, 44.9778033], [-93.2406292, 44.9782378], [-93.2402238, 44.9787008], [-93.2400561, 44.9788704], [-93.2399859, 44.9789036], [-93.2397372, 44.9789974], [-93.2395449, 44.9791141], [-93.2394597, 44.979152], [-93.2392018, 44.9792478], [-93.2389385, 44.9793274], [-93.2386315, 44.97939], [-93.2381753, 44.9794359], [-93.2381314, 44.9794403], [-93.2369783, 44.9795562], [-93.2369539, 44.9795576], [-93.2367238, 44.9795828], [-93.2366101, 44.9795928], [-93.2362574, 44.9796279], [-93.2361012, 44.979638], [-93.2359176, 44.9796442], [-93.235793, 44.9796419], [-93.2356248, 44.9796341], [-93.2355264, 44.9796365], [-93.2354407, 44.9796518], [-93.2353941, 44.9797122], [-93.2349469, 44.9797563], [-93.2346194, 44.9797903], [-93.2339269, 44.9798992], [-93.2335637, 44.9799386], [-93.2335728, 44.9799842], [-93.232556, 44.9800842], [-93.2325454, 44.9800295], [-93.2325375, 44.9799891], [-93.2312353, 44.9801019], [-93.2307165, 44.9801571], [-93.2303843, 44.9801775], [-93.2302879, 44.9803138], [-93.2298105, 44.9803171], [-93.2293003, 44.9802807], [-93.2287387, 44.9802623], [-93.2281771, 44.9802003], [-93.2246924, 44.9799827], [-93.2240432, 44.9799184], [-93.2227127, 44.9795905], [-93.2221476, 44.9793755], [-93.2222076, 44.9791026], [-93.2218155, 44.978994], [-93.2210693, 44.9785722], [-93.2203162, 44.9781465], [-93.2204488, 44.9780645], [-93.2197978, 44.9775761], [-93.218815, 44.9766006], [-93.2183927, 44.9760435], [-93.2182934, 44.9760871], [-93.2182567, 44.9761456], [-93.2182016, 44.9761774], [-93.2181155, 44.9761882], [-93.218036, 44.9761666], [-93.2179702, 44.9761113], [-93.2179524, 44.9760647], [-93.2179701, 44.9760056], [-93.2178659, 44.9760245], [-93.2172904, 44.976528], [-93.217154, 44.9764745], [-93.2164622, 44.9760976], [-93.2160142, 44.9757999], [-93.2159668, 44.9758301], [-93.2153692, 44.9754998], [-93.2153784, 44.9754089], [-93.2160344, 44.9749084], [-93.2164718, 44.9749028], [-93.2165669, 44.9749683], [-93.216612, 44.9749583], [-93.2166526, 44.9749696], [-93.2168608, 44.9750366], [-93.2169523, 44.9750085], [-93.2173047, 44.9751232], [-93.2175174, 44.9752028], [-93.2178839, 44.975411], [-93.2181961, 44.9758153], [-93.2181394, 44.9758373], [-93.2181852, 44.9758917], [-93.2182318, 44.9758778], [-93.2186607, 44.9757497], [-93.2192635, 44.9755697], [-93.2194557, 44.9755005], [-93.2195884, 44.9754473], [-93.2197785, 44.9753535], [-93.2199164, 44.9752541], [-93.2200684, 44.9751234], [-93.2201206, 44.9750635], [-93.2201445, 44.9750271], [-93.2201673, 44.9749924], [-93.2201973, 44.974957], [-93.2202189, 44.974924], [-93.2178757, 44.9740018], [-93.2178823, 44.9739899], [-93.2182314, 44.9735446], [-93.2182789, 44.9734855], [-93.2184866, 44.9735694], [-93.2189319, 44.9737493], [-93.2193844, 44.9739322], [-93.2196344, 44.9740332], [-93.2196905, 44.9740559], [-93.2204928, 44.9743794], [-93.2206072, 44.9744276], [-93.220749, 44.9744841]], [[-93.2345519, 44.9797523], [-93.2351826, 44.9789722], [-93.2350483, 44.9789206], [-93.2346793, 44.9787714], [-93.2345841, 44.978733], [-93.2338002, 44.9784161], [-93.2335685, 44.978322], [-93.2325425, 44.9779129], [-93.2324166, 44.9778627], [-93.2323616, 44.9779324], [-93.2322154, 44.9781177], [-93.2317036, 44.9787665], [-93.2316374, 44.9788505], [-93.2317649, 44.9788999], [-93.232124, 44.9790389], [-93.2321766, 44.9790593], [-93.2323373, 44.9788465], [-93.2324762, 44.9786627], [-93.2325503, 44.9785646], [-93.2334231, 44.9788988], [-93.2333367, 44.979007], [-93.2333246, 44.9790222], [-93.2332156, 44.979163], [-93.2330861, 44.9793301], [-93.233029, 44.9793927], [-93.2341129, 44.9798234], [-93.2345519, 44.9797523]], [[-93.2314359, 44.9782516], [-93.2315503, 44.9781203], [-93.2316292, 44.9780086], [-93.2316899, 44.9779297], [-93.2319003, 44.9776631], [-93.2310323, 44.9773096], [-93.2302286, 44.9769821], [-93.2296685, 44.9767538], [-93.2295953, 44.9767247], [-93.2295437, 44.9767935], [-93.2292751, 44.9770928], [-93.2292778, 44.9771962], [-93.2292509, 44.9772806], [-93.2292217, 44.9773173], [-93.2292725, 44.9773383], [-93.2295659, 44.9774594], [-93.229641, 44.9773755], [-93.2306461, 44.9777876], [-93.2306078, 44.9778349], [-93.23056, 44.977898], [-93.2310692, 44.9781036], [-93.2314359, 44.9782516]]], [[[-93.2402383, 44.9701426], [-93.2397219, 44.9698402], [-93.2397645, 44.9695745], [-93.2393853, 44.9692576], [-93.238756, 44.96884], [-93.2384129, 44.9687662], [-93.2374545, 44.9684733], [-93.2351261, 44.9680012], [-93.2351784, 44.9673879], [-93.2347286, 44.967346], [-93.2347158, 44.9666647], [-93.2359657, 44.966674], [-93.2363483, 44.9667078], [-93.2363234, 44.9656989], [-93.2373362, 44.9661336], [-93.2382891, 44.9665423], [-93.2399097, 44.9672423], [-93.2402326, 44.9673533], [-93.2408439, 44.9675694], [-93.2410132, 44.9676487], [-93.2411621, 44.9676906], [-93.2455798, 44.9695616], [-93.2455939, 44.9700377], [-93.2457628, 44.9700416], [-93.2462893, 44.9700537], [-93.2463149, 44.9710831], [-93.2463173, 44.9711801], [-93.2465651, 44.9711785], [-93.2466609, 44.9712115], [-93.2468353, 44.9713451], [-93.2467516, 44.9714228], [-93.2466608, 44.9714704], [-93.2465834, 44.9715015], [-93.2463095, 44.9715846], [-93.2460855, 44.9716673], [-93.2459134, 44.9717316], [-93.2455193, 44.9718582], [-93.2452003, 44.9719443], [-93.244794, 44.972032], [-93.2444841, 44.972092], [-93.2441238, 44.9721586], [-93.2423816, 44.9724916], [-93.2421712, 44.9725465], [-93.242007, 44.9714859], [-93.2416668, 44.9714865], [-93.2416515, 44.9709576], [-93.2410239, 44.9709589], [-93.2407132, 44.9705712], [-93.2402876, 44.9701776], [-93.2402383, 44.9701426]]]]}}