{"type": "Feature", "properties": {"market_key": 189, "university": "Southern Illinois University Carbondale", "osm_type": "relation", "osm_id": 12300999, "osm_name": "Southern Illinois University Carbondale"}, "geometry": {"type": "MultiPolygon", "coordinates": [[[[-89.2185604, 37.7005526], [-89.2183638, 37.7004873], [-89.2180924, 37.7004655], [-89.2174437, 37.7004499], [-89.2170976, 37.7004935], [-89.2159849, 37.7006024], [-89.2141879, 37.7005495], [-89.2129612, 37.7005246], [-89.213615, 37.705501], [-89.2157264, 37.7059124], [-89.2160176, 37.7059934], [-89.2158111, 37.7063277], [-89.2156005, 37.7066746], [-89.2154905, 37.7068794], [-89.2153832, 37.7071033], [-89.2152317, 37.707446], [-89.2151003, 37.7077961], [-89.2149675, 37.7082141], [-89.2149112, 37.7084231], [-89.2148776, 37.7086014], [-89.2148052, 37.708977], [-89.214765, 37.7092581], [-89.2147274, 37.7097823], [-89.2147397, 37.7102942], [-89.2147821, 37.7112176], [-89.2149745, 37.7127371], [-89.2150903, 37.7135872], [-89.2151059, 37.7136933], [-89.2151537, 37.7139838], [-89.215169, 37.7141426], [-89.2152245, 37.7142591], [-89.215235, 37.7143944], [-89.2152567, 37.7146435], [-89.2152459, 37.7148095], [-89.2152628, 37.7149349], [-89.2153108, 37.7152923], [-89.2153971, 37.7157989], [-89.2154439, 37.7160807], [-89.2155386, 37.7165021], [-89.2156323, 37.7169016], [-89.2157251, 37.7171791], [-89.2158113, 37.7174524], [-89.2159156, 37.7177836], [-89.2159809, 37.7180052], [-89.2159945, 37.7180512], [-89.2159957, 37.7180569], [-89.2160227, 37.7181906], [-89.2160523, 37.7184292], [-89.2160622, 37.7186165], [-89.2160876, 37.7187927], [-89.2161157, 37.7189432], [-89.2161482, 37.7190614], [-89.2162074, 37.7192309], [-89.2162609, 37.7193424], [-89.2163526, 37.7194817], [-89.2164202, 37.7195799], [-89.2164738, 37.7196345], [-89.2165302, 37.7196702], [-89.2165922, 37.719678], [-89.2166669, 37.719678], [-89.2169192, 37.719659], [-89.2170672, 37.7196546], [-89.2172082, 37.719649], [-89.2173548, 37.7196512], [-89.2174703, 37.7196534], [-89.2177382, 37.7196702], [-89.2178509, 37.7196735], [-89.2183992, 37.7196311], [-89.218667, 37.7196077], [-89.2188545, 37.7195888], [-89.2193225, 37.7195509], [-89.2203515, 37.7194661], [-89.2210534, 37.7194148], [-89.2213607, 37.7193881], [-89.2225349, 37.7192911], [-89.2227111, 37.7192755], [-89.2229042, 37.719261], [-89.2232974, 37.7192364], [-89.2236456, 37.7192208], [-89.2241784, 37.7192074], [-89.2247648, 37.7191952], [-89.225206, 37.7191851], [-89.225939, 37.7191628], [-89.2268773, 37.7191478], [-89.2277883, 37.7191093], [-89.2278292, 37.7190993], [-89.227832, 37.718941], [-89.2278328, 37.7185558], [-89.2278379, 37.7181576], [-89.2278409, 37.7180041], [-89.2278306, 37.7175829], [-89.2278433, 37.7171068], [-89.2278292, 37.7168581], [-89.2278433, 37.7163731], [-89.2278604, 37.7159077], [-89.2278717, 37.7156032], [-89.227839, 37.7154476], [-89.2280984, 37.7154577], [-89.2289935, 37.7154815], [-89.2299111, 37.7154902], [-89.2302254, 37.7155034], [-89.2304214, 37.7154989], [-89.2309856, 37.7155076], [-89.2313587, 37.7155134], [-89.2317432, 37.7155285], [-89.2321235, 37.715538], [-89.232929, 37.7155413], [-89.2334937, 37.7155507], [-89.233499, 37.7145693], [-89.2340258, 37.71457], [-89.2348482, 37.7145712], [-89.2362582, 37.7145732], [-89.2364926, 37.7147737], [-89.236583, 37.7148647], [-89.2366447, 37.7150042], [-89.2366233, 37.7156119], [-89.2368418, 37.7155988], [-89.2370101, 37.7155783], [-89.237241, 37.7155127], [-89.2374318, 37.7154184], [-89.2374919, 37.7153771], [-89.2375838, 37.7153545], [-89.2377251, 37.7153486], [-89.2376903, 37.715249], [-89.2376568, 37.7150157], [-89.2376366, 37.7148073], [-89.2376108, 37.7146349], [-89.237563, 37.7143389], [-89.2375385, 37.7140073], [-89.2375308, 37.7137624], [-89.2375347, 37.7132869], [-89.2375488, 37.7120991], [-89.2375992, 37.712098], [-89.2376911, 37.7121021], [-89.2422831, 37.7121069], [-89.2422801, 37.7114204], [-89.2415901, 37.7114128], [-89.2415871, 37.7110843], [-89.2400353, 37.7109866], [-89.2400173, 37.7114633], [-89.2399419, 37.7115277], [-89.2396258, 37.7113919], [-89.2387156, 37.7110009], [-89.2386764, 37.7102023], [-89.2402342, 37.7101618], [-89.2409965, 37.7091416], [-89.2402221, 37.7088555], [-89.2401708, 37.7082554], [-89.2397202, 37.7082615], [-89.2377294, 37.7081975], [-89.2376218, 37.7081976], [-89.2376339, 37.7072346], [-89.2376429, 37.706486], [-89.2376459, 37.7063716], [-89.2377683, 37.7016072], [-89.2377919, 37.7009601], [-89.2377919, 37.7008201], [-89.2376621, 37.700817], [-89.2377237, 37.6994284], [-89.2377357, 37.6990273], [-89.2377545, 37.6985997], [-89.2377733, 37.6977815], [-89.2377865, 37.6972018], [-89.2375775, 37.6972], [-89.2370869, 37.6971904], [-89.2363289, 37.6971757], [-89.2348533, 37.6971468], [-89.2341053, 37.6971322], [-89.2337178, 37.6971247], [-89.2334911, 37.6972807], [-89.2334053, 37.6973921], [-89.2333637, 37.6975576], [-89.2334066, 37.6977412], [-89.2334134, 37.6978102], [-89.2333825, 37.6978792], [-89.2331183, 37.698033], [-89.2331841, 37.6982524], [-89.2331294, 37.6990201], [-89.2331066, 37.6993404], [-89.2330876, 37.699783], [-89.233077, 37.7000302], [-89.2330357, 37.700727], [-89.2330402, 37.7007704], [-89.2330459, 37.7008575], [-89.2308086, 37.7008046], [-89.2286617, 37.7007641], [-89.2265306, 37.7007019], [-89.2248673, 37.7006521], [-89.2233614, 37.7005868], [-89.2224295, 37.7005868], [-89.221938, 37.7005744], [-89.2215998, 37.7005588], [-89.2203337, 37.7005028], [-89.2196653, 37.7004873], [-89.2192621, 37.7004786], [-89.2190833, 37.7004748], [-89.2189575, 37.7004997], [-89.2185604, 37.7005526]]], [[[-89.2437592, 37.7010143], [-89.242917, 37.7010048], [-89.2429021, 37.7018303], [-89.2437444, 37.7018397], [-89.2437592, 37.7010143]]], [[[-89.2444329, 37.700934], [-89.2419183, 37.7008979], [-89.2419331, 37.7002525], [-89.242691, 37.7002634], [-89.2433893, 37.7002735], [-89.2433828, 37.7005572], [-89.2444412, 37.7005726], [-89.2444329, 37.700934]]], [[[-89.2632732, 37.7096011], [-89.2620097, 37.7095927], [-89.2620132, 37.7097593], [-89.2599215, 37.709662], [-89.2598897, 37.7109478], [-89.2618742, 37.7109712], [-89.2618842, 37.7105035], [-89.2633252, 37.7105282], [-89.2632732, 37.7096011]]], [[[-89.2682259, 37.7095659], [-89.2682341, 37.7086668], [-89.2675736, 37.7086629], [-89.2675652, 37.7095621], [-89.2682259, 37.7095659]]], [[[-89.2472693, 37.699068], [-89.2472503, 37.6998968], [-89.2470677, 37.6999032], [-89.2464133, 37.6999966], [-89.2461451, 37.7003277], [-89.2461451, 37.7005654], [-89.2470463, 37.7006248], [-89.2472419, 37.7006209], [-89.2483117, 37.700659], [-89.2482389, 37.6990729], [-89.2472693, 37.699068]]], [[[-89.2472863, 37.6975636], [-89.2472692, 37.6984452], [-89.2504624, 37.6987139], [-89.2504748, 37.6982873], [-89.2495676, 37.6978413], [-89.2472863, 37.6975636]]], [[[-89.2471643, 37.6953276], [-89.2471214, 37.6965331], [-89.2466171, 37.6965246], [-89.2465957, 37.6963378], [-89.2461518, 37.696336], [-89.2461558, 37.695353], [-89.2462416, 37.6953445], [-89.2471643, 37.6953276]]], [[[-89.2472057, 37.6934012], [-89.2472638, 37.6922531], [-89.2469206, 37.6922253], [-89.2468746, 37.692144], [-89.2464777, 37.6921524], [-89.2463382, 37.6921779], [-89.2463382, 37.692509], [-89.2460914, 37.692509], [-89.2461413, 37.6928482], [-89.2467459, 37.6931457], [-89.2467459, 37.6934004], [-89.2472057, 37.6934012]]], [[[-89.2484449, 37.6868663], [-89.2485495, 37.6871613], [-89.2483913, 37.6873672], [-89.2482895, 37.687554], [-89.2480078, 37.6877238], [-89.2479326, 37.6877365], [-89.247922, 37.6876432], [-89.2480534, 37.6875094], [-89.2480078, 37.6874139], [-89.2478952, 37.6874818], [-89.2477878, 37.6875816], [-89.2478281, 37.6876856], [-89.2477638, 37.6877153], [-89.2475948, 37.6876432], [-89.2474981, 37.6875052], [-89.247659, 37.6874458], [-89.2475517, 37.687346], [-89.2474418, 37.6872717], [-89.2473775, 37.6870276], [-89.2474982, 37.6869788], [-89.2474392, 37.6868387], [-89.2475598, 37.6866179], [-89.2477155, 37.6864842], [-89.2478952, 37.6863738], [-89.2479998, 37.6864524], [-89.2480721, 37.686412], [-89.2484449, 37.6868663]]], [[[-89.1755448, 37.6336576], [-89.1740662, 37.6336529], [-89.1740634, 37.6342072], [-89.172046, 37.6342008], [-89.1715965, 37.6339118], [-89.1706868, 37.6344566], [-89.170545, 37.6348463], [-89.1731652, 37.6348134], [-89.1731682, 37.6349619], [-89.174073, 37.6349507], [-89.1740822, 37.6354187], [-89.175258, 37.6354042], [-89.175305, 37.6365556], [-89.1767862, 37.6365327], [-89.1767778, 37.6353689], [-89.1780435, 37.6353534], [-89.1780209, 37.6341973], [-89.1757316, 37.6342254], [-89.1755422, 37.634164], [-89.1755448, 37.6336576]]], [[[-89.2089738, 37.7149673], [-89.2090972, 37.7124632], [-89.2091893, 37.7105946], [-89.2092636, 37.7087432], [-89.2092851, 37.7084568], [-89.2093495, 37.7057661], [-89.2091859, 37.7033825], [-89.2092422, 37.7023792], [-89.2094878, 37.7002662], [-89.2095666, 37.7001895], [-89.2101787, 37.7002183], [-89.2108999, 37.7003717], [-89.2118937, 37.7004964], [-89.2127422, 37.7005155], [-89.2129115, 37.7023877], [-89.2135041, 37.706931], [-89.2137054, 37.7084738], [-89.214028, 37.7106115], [-89.2142155, 37.7123001], [-89.2143833, 37.7138113], [-89.2145376, 37.7152009], [-89.2145408, 37.7152262], [-89.2145616, 37.7153913], [-89.2145863, 37.7155995], [-89.2146685, 37.7162954], [-89.2147754, 37.7171571], [-89.2146879, 37.7171643], [-89.2145369, 37.7171766], [-89.2145845, 37.7175021], [-89.2141702, 37.7175301], [-89.2139359, 37.7175305], [-89.2136872, 37.717526], [-89.2134769, 37.7175347], [-89.2135406, 37.7180977], [-89.2136568, 37.7191462], [-89.2136743, 37.7192912], [-89.213792, 37.7192805], [-89.2147339, 37.7191946], [-89.2147399, 37.7192388], [-89.2147547, 37.7193472], [-89.2147812, 37.7195419], [-89.2147519, 37.7196911], [-89.2146755, 37.7197972], [-89.2145466, 37.719947], [-89.2143789, 37.7200835], [-89.2145253, 37.7202683], [-89.2143331, 37.7204165], [-89.213904, 37.720778], [-89.213828, 37.7208252], [-89.21371, 37.720898], [-89.213501, 37.721003], [-89.213261, 37.721084], [-89.213042, 37.721143], [-89.2130364, 37.7211185], [-89.2130331, 37.721104], [-89.212961, 37.720791], [-89.2129092, 37.7203226], [-89.2128753, 37.7199193], [-89.2128609, 37.7198019], [-89.2112022, 37.7199298], [-89.2112089, 37.7203065], [-89.2102332, 37.7203305], [-89.2090333, 37.72034], [-89.2088689, 37.7203391], [-89.2089201, 37.718096], [-89.2089711, 37.7179221], [-89.2089724, 37.7176629], [-89.2089612, 37.7172969], [-89.2089622, 37.7171072], [-89.2089687, 37.7168509], [-89.2089796, 37.7163947], [-89.2089859, 37.7161256], [-89.2089884, 37.7159193], [-89.2089923, 37.7156839], [-89.2076938, 37.7156907], [-89.2077257, 37.714317], [-89.2089738, 37.7149673]]]]}}