{"type": "Feature", "properties": {"market_key": 1905, "university": "Northern Arizona University", "osm_type": "way", "osm_id": 201526317, "osm_name": "Northern Arizona University"}, "geometry": {"type": "Polygon", "coordinates": [[[-111.6552475, 35.1950899], [-111.6552835, 35.1950805], [-111.656128, 35.1942943], [-111.6571601, 35.1935987], [-111.6572175, 35.1928376], [-111.6572528, 35.1927955], [-111.6577354, 35.1932137], [-111.6585389, 35.1925969], [-111.6579686, 35.1920943], [-111.6579083, 35.1920411], [-111.6588008, 35.1911441], [-111.6586074, 35.1910035], [-111.6593195, 35.1902774], [-111.6597485, 35.1906015], [-111.6598027, 35.1905542], [-111.6601974, 35.1900168], [-111.6598133, 35.1898095], [-111.6598142, 35.1896059], [-111.6595525, 35.1895974], [-111.6583869, 35.1879325], [-111.6586768, 35.1877803], [-111.6586559, 35.1865711], [-111.658625, 35.1847858], [-111.6586222, 35.1846009], [-111.6578559, 35.1843262], [-111.6575678, 35.1845577], [-111.65722, 35.1845501], [-111.657214, 35.1825608], [-111.6571296, 35.1825401], [-111.6570963, 35.1813476], [-111.6575301, 35.1809612], [-111.6588016, 35.1809591], [-111.6588207, 35.1789035], [-111.6601775, 35.1788918], [-111.6610125, 35.1785692], [-111.6610157, 35.1784329], [-111.6608117, 35.178431], [-111.6607942, 35.1780972], [-111.6598164, 35.1783178], [-111.6596093, 35.1782225], [-111.6600599, 35.1781033], [-111.6608333, 35.1768411], [-111.6611645, 35.1762464], [-111.66124, 35.174838], [-111.6608891, 35.174788], [-111.6607262, 35.1751184], [-111.6599326, 35.17513], [-111.6599894, 35.1760967], [-111.6589657, 35.1765954], [-111.6581784, 35.1766057], [-111.6580618, 35.1758908], [-111.6582713, 35.1758568], [-111.6582022, 35.1724797], [-111.6571189, 35.172147], [-111.6555919, 35.172034], [-111.6541473, 35.1720728], [-111.6530595, 35.1722105], [-111.6519396, 35.1724132], [-111.6506641, 35.17276], [-111.6484906, 35.1734509], [-111.6528347, 35.1751101], [-111.6538279, 35.1744485], [-111.6553473, 35.1760639], [-111.6536587, 35.1770652], [-111.6525731, 35.1761065], [-111.6527305, 35.1751332], [-111.6483889, 35.1735278], [-111.6486056, 35.1791836], [-111.650378, 35.1785653], [-111.650392, 35.1812986], [-111.6485047, 35.1813074], [-111.6485481, 35.1836125], [-111.6527259, 35.1819514], [-111.6526939, 35.1838063], [-111.6494231, 35.1838271], [-111.6493923, 35.1846023], [-111.6527628, 35.1846067], [-111.6528298, 35.1883777], [-111.6527559, 35.1884062], [-111.6484491, 35.188375], [-111.6484509, 35.188507], [-111.6484594, 35.1891453], [-111.6484704, 35.1899711], [-111.6522534, 35.1911745], [-111.6521514, 35.1913935], [-111.6520044, 35.1917093], [-111.6518313, 35.192081], [-111.6527598, 35.1923805], [-111.6525619, 35.192768], [-111.6523927, 35.1927133], [-111.6520469, 35.1926128], [-111.6519339, 35.1928555], [-111.6522797, 35.1929617], [-111.6524516, 35.1930155], [-111.6521162, 35.193749], [-111.6520832, 35.193889], [-111.6520257, 35.1940297], [-111.6520561, 35.194099], [-111.6528701, 35.1943433], [-111.6529086, 35.1943011], [-111.6530853, 35.1943503], [-111.6531764, 35.1944371], [-111.6542751, 35.1947681], [-111.6545617, 35.1948241], [-111.6549434, 35.1949465], [-111.6552475, 35.1950899]]]}}