{"type": "Feature", "properties": {"market_key": 1924, "university": "University of Central Arkansas", "osm_type": "way", "osm_id": 511305587, "osm_name": "University of Central Arkansas"}, "geometry": {"type": "Polygon", "coordinates": [[[-92.4632345, 35.0706372], [-92.4632355, 35.0706144], [-92.463235, 35.0705875], [-92.463233, 35.0705745], [-92.4632284, 35.0705631], [-92.463221, 35.0705476], [-92.4632122, 35.0705332], [-92.4632016, 35.0705182], [-92.4631904, 35.0705071], [-92.4631708, 35.0704879], [-92.4631597, 35.0704775], [-92.4631458, 35.0704676], [-92.4631297, 35.0704584], [-92.463115, 35.0704524], [-92.4630918, 35.0704457], [-92.4630674, 35.0704412], [-92.463001, 35.0704362], [-92.4628375, 35.070428], [-92.4556405, 35.0702136], [-92.4547777, 35.0702405], [-92.4547546, 35.0702441], [-92.4547354, 35.0702495], [-92.4547034, 35.0702604], [-92.4546816, 35.0702731], [-92.4546627, 35.070285], [-92.4546451, 35.070298], [-92.4546277, 35.0703134], [-92.4546137, 35.0703287], [-92.4546005, 35.070354], [-92.4545934, 35.0703793], [-92.4543849, 35.0756387], [-92.4517757, 35.0755919], [-92.4517581, 35.0755941], [-92.4517431, 35.0755986], [-92.4517315, 35.0756087], [-92.4517267, 35.07562], [-92.4517221, 35.0756345], [-92.4517202, 35.075648], [-92.4516645, 35.0772733], [-92.4516637, 35.0772934], [-92.4516642, 35.0772993], [-92.451666, 35.0773052], [-92.4516761, 35.0773122], [-92.4516854, 35.077315], [-92.4516959, 35.0773168], [-92.4517455, 35.0773174], [-92.452975, 35.0773361], [-92.4529729, 35.077946], [-92.4529397, 35.0779692], [-92.4529091, 35.0779936], [-92.4528952, 35.0780126], [-92.4528866, 35.0780305], [-92.4528742, 35.0781379], [-92.4528134, 35.0790396], [-92.4527758, 35.0791641], [-92.4527462, 35.0793966], [-92.4527233, 35.0796203], [-92.4527156, 35.0796354], [-92.4527053, 35.0796506], [-92.4526613, 35.0796955], [-92.4524324, 35.0799321], [-92.4522409, 35.0803791], [-92.4522186, 35.0803973], [-92.4521989, 35.0804111], [-92.4521536, 35.080442], [-92.452109, 35.0804656], [-92.4520737, 35.0804815], [-92.4519848, 35.0805004], [-92.4518918, 35.0805188], [-92.451751, 35.080545], [-92.4517243, 35.0805548], [-92.451705, 35.0805657], [-92.4516887, 35.0805763], [-92.4516768, 35.0805892], [-92.4516648, 35.0806094], [-92.4516579, 35.0806285], [-92.4516271, 35.081058], [-92.4516159, 35.0811538], [-92.4515572, 35.0812176], [-92.4515477, 35.0812372], [-92.4515429, 35.0812552], [-92.4515441, 35.0813695], [-92.4515279, 35.0820263], [-92.4514057, 35.0825407], [-92.4541414, 35.0826051], [-92.454091, 35.0844246], [-92.4541037, 35.084507], [-92.454123, 35.0845524], [-92.4541583, 35.0846018], [-92.4542007, 35.0846406], [-92.4542542, 35.0846735], [-92.4543069, 35.0846946], [-92.4543944, 35.0847149], [-92.4624756, 35.0848524], [-92.46256, 35.0848453], [-92.462641, 35.0848181], [-92.4627068, 35.084775], [-92.4627375, 35.0847437], [-92.4627669, 35.0846986], [-92.4627884, 35.0846225], [-92.4631938, 35.0719268], [-92.4632345, 35.0706372]]]}}