{"type": "Feature", "properties": {"market_key": 194, "university": "Indiana University-Purdue University Indianapolis", "osm_type": "relation", "osm_id": 16128264, "osm_name": "Indiana University Indianapolis"}, "geometry": {"type": "MultiPolygon", "coordinates": [[[[-86.1751968, 39.7689052], [-86.1736082, 39.7683157], [-86.1733836, 39.7682723], [-86.1733827, 39.7695056], [-86.1701925, 39.7694247], [-86.1701266, 39.7715902], [-86.1670498, 39.7715207], [-86.1668174, 39.7756416], [-86.1699118, 39.7775534], [-86.1699995, 39.7766359], [-86.174788, 39.7767721], [-86.1747656, 39.779068], [-86.1746121, 39.7794755], [-86.1742345, 39.779948], [-86.17467, 39.780244], [-86.1751919, 39.7805184], [-86.1754957, 39.7807038], [-86.1755917, 39.7807442], [-86.1756763, 39.7807715], [-86.1757317, 39.7807807], [-86.1758346, 39.7807944], [-86.1761651, 39.7808122], [-86.176269, 39.7808083], [-86.1763768, 39.7807951], [-86.1764953, 39.7807726], [-86.1766182, 39.7807428], [-86.1767198, 39.7807122], [-86.1768255, 39.7806726], [-86.1769155, 39.7806331], [-86.1770566, 39.7805645], [-86.1774508, 39.7803704], [-86.1775862, 39.7803147], [-86.1777388, 39.7802522], [-86.1779049, 39.7801894], [-86.1780703, 39.7801375], [-86.1782257, 39.7800904], [-86.1784297, 39.7800352], [-86.1785956, 39.7799963], [-86.1785938, 39.7799837], [-86.1788685, 39.779931], [-86.1790289, 39.7799047], [-86.1792079, 39.779884], [-86.1794658, 39.7798658], [-86.1795551, 39.7798637], [-86.1806974, 39.7798334], [-86.1812496, 39.7797993], [-86.1885676, 39.7796469], [-86.189072, 39.7789291], [-86.1889786, 39.778039], [-86.1881753, 39.7764311], [-86.1864381, 39.7738756], [-86.1849997, 39.7721958], [-86.1832251, 39.7709755], [-86.182689, 39.7708137], [-86.1801803, 39.7700566], [-86.1770794, 39.7694679], [-86.1751968, 39.7689052]]]]}}