{"type": "Feature", "properties": {"market_key": 1967, "university": "Utah Tech University", "osm_type": "way", "osm_id": 54139202, "osm_name": "Utah Tech University"}, "geometry": {"type": "Polygon", "coordinates": [[[-113.5683185, 37.1062992], [-113.5657632, 37.1062838], [-113.5657657, 37.106539], [-113.5657616, 37.1072772], [-113.5641041, 37.1072771], [-113.5641106, 37.1079689], [-113.5640874, 37.1080015], [-113.564006, 37.1080089], [-113.5622738, 37.1079922], [-113.5622696, 37.1065616], [-113.5622995, 37.1065316], [-113.5623391, 37.1065216], [-113.5623471, 37.1062881], [-113.5622765, 37.1063018], [-113.5622777, 37.1061911], [-113.5622993, 37.1031139], [-113.5623068, 37.103103], [-113.562303, 37.1029167], [-113.5623031, 37.1014497], [-113.5623305, 37.1014291], [-113.5644417, 37.1014543], [-113.5644258, 37.1012315], [-113.5644128, 37.1001245], [-113.5632439, 37.1001153], [-113.5632427, 37.0996786], [-113.564418, 37.0996825], [-113.5644236, 37.0984417], [-113.5644319, 37.0983997], [-113.5644554, 37.0983588], [-113.564736, 37.0980805], [-113.5647645, 37.0980617], [-113.5647971, 37.0980467], [-113.5648725, 37.098035], [-113.5659709, 37.098039], [-113.5659704, 37.0980528], [-113.5662472, 37.0980527], [-113.5662808, 37.0980667], [-113.5665973, 37.0980625], [-113.5666207, 37.0980543], [-113.5684111, 37.0980586], [-113.5684084, 37.0986854], [-113.5684019, 37.0987564], [-113.5683971, 37.0992909], [-113.5686806, 37.0992901], [-113.569068, 37.0992908], [-113.5690848, 37.0992052], [-113.5693995, 37.0992041], [-113.5693987, 37.0995563], [-113.5693942, 37.0997561], [-113.5704803, 37.0997601], [-113.570512, 37.0997901], [-113.5705094, 37.1001613], [-113.5707928, 37.1001649], [-113.572172, 37.1001594], [-113.5721635, 37.1007472], [-113.5712618, 37.1007438], [-113.5712646, 37.1005058], [-113.5707889, 37.1005058], [-113.5704951, 37.1005041], [-113.570499, 37.1011815], [-113.5704808, 37.1011919], [-113.568687, 37.1011701], [-113.5683729, 37.1011667], [-113.5683627, 37.1038543], [-113.5683475, 37.1062793], [-113.5683185, 37.1062992]]]}}