{"type": "Feature", "properties": {"market_key": 1988, "university": "Purdue University Fort Wayne", "osm_type": "way", "osm_id": 1339491913, "osm_name": "Purdue University Fort Wayne"}, "geometry": {"type": "Polygon", "coordinates": [[[-85.120785, 41.1162615], [-85.1051541, 41.1114496], [-85.0994323, 41.1119154], [-85.0999527, 41.1191943], [-85.0901647, 41.1195127], [-85.0907623, 41.1267806], [-85.100081, 41.1265978], [-85.099926, 41.1228459], [-85.1106096, 41.1226502], [-85.11188, 41.1247083], [-85.111765, 41.127786], [-85.1130668, 41.1278574], [-85.1139049, 41.1260451], [-85.1214159, 41.1259171], [-85.1212183, 41.1186481], [-85.120785, 41.1162615]]]}}