{"type": "Feature", "properties": {"market_key": 1995, "university": "Indiana State University", "osm_type": "relation", "osm_id": 13534134, "osm_name": "Indiana State University"}, "geometry": {"type": "MultiPolygon", "coordinates": [[[[-87.4099785, 39.4746564], [-87.4099731, 39.4746346], [-87.4099611, 39.4746232], [-87.4084523, 39.4746284], [-87.4084383, 39.4746383], [-87.4084315, 39.4746509], [-87.4084312, 39.4750993], [-87.4084322, 39.4752242], [-87.4084403, 39.4752578], [-87.4084631, 39.4752754], [-87.4084872, 39.4752868], [-87.4085301, 39.4752868], [-87.4099229, 39.475277], [-87.4099584, 39.475262], [-87.4099825, 39.475235], [-87.4099825, 39.4752061], [-87.4099785, 39.4746564]]], [[[-87.4070016, 39.4695997], [-87.4069939, 39.469586], [-87.4069889, 39.4695826], [-87.4069728, 39.4695782], [-87.4058439, 39.4695857], [-87.4058325, 39.4695914], [-87.4058275, 39.4695989], [-87.4058573, 39.4733044], [-87.405858, 39.4733675], [-87.4058506, 39.4733986], [-87.405807, 39.4735016], [-87.4056675, 39.473852], [-87.4056575, 39.4739177], [-87.4056555, 39.4741263], [-87.4056608, 39.4750032], [-87.4056729, 39.4750265], [-87.4056883, 39.4750394], [-87.4057125, 39.4750477], [-87.4057285, 39.4750497], [-87.4060256, 39.4750549], [-87.4061771, 39.4750658], [-87.4064266, 39.4750855], [-87.4066439, 39.4751031], [-87.4068665, 39.4751082], [-87.4069805, 39.4751067], [-87.4070106, 39.4750963], [-87.4070274, 39.4750849], [-87.4070381, 39.4750606], [-87.4070415, 39.4750265], [-87.4070271, 39.4727474], [-87.4070016, 39.4695997]]], [[[-87.4069979, 39.4694418], [-87.4069972, 39.4694657], [-87.4069946, 39.4694729], [-87.4069811, 39.4694812], [-87.4058425, 39.4694864], [-87.4058291, 39.4694812], [-87.4058191, 39.4686012], [-87.4058318, 39.4685903], [-87.4058466, 39.4685836], [-87.4069744, 39.4685763], [-87.4069858, 39.4685825], [-87.4069925, 39.4685913], [-87.4069979, 39.4694418]]], [[[-87.4069929, 39.4684216], [-87.4069919, 39.468434], [-87.4069842, 39.4684498], [-87.4069731, 39.4684619], [-87.4069624, 39.4684687], [-87.4069456, 39.4684751], [-87.4069319, 39.4684782], [-87.4069087, 39.4684801], [-87.4058358, 39.4684842], [-87.4058238, 39.4684738], [-87.4058204, 39.4684604], [-87.405813, 39.4676208], [-87.4058238, 39.467598], [-87.4058452, 39.4675824], [-87.4059002, 39.4675783], [-87.4069255, 39.4675726], [-87.4069503, 39.4675757], [-87.4069671, 39.4675824], [-87.4069818, 39.4675959], [-87.4069858, 39.4676094], [-87.4069899, 39.4677672], [-87.4069597, 39.4677983], [-87.4069624, 39.4679474], [-87.4069885, 39.4679764], [-87.4069929, 39.4684216]]], [[[-87.4055428, 39.4749913], [-87.4055428, 39.4750104], [-87.4055361, 39.4750265], [-87.40552, 39.4750399], [-87.4055026, 39.4750482], [-87.4054697, 39.4750518], [-87.4042151, 39.4750606], [-87.4041903, 39.4750523], [-87.4041735, 39.4750394], [-87.4041655, 39.4750145], [-87.4041548, 39.4742904], [-87.4041675, 39.4742713], [-87.4041923, 39.4742609], [-87.4042191, 39.4742526], [-87.4054811, 39.4742449], [-87.4055099, 39.4742485], [-87.4055267, 39.4742583], [-87.4055354, 39.4742697], [-87.4055381, 39.4742863], [-87.4055428, 39.4749913]]], [[[-87.4057091, 39.4694719], [-87.4057051, 39.4694822], [-87.4056937, 39.4694874], [-87.4045772, 39.4694957], [-87.4045578, 39.4694915], [-87.404549, 39.4694864], [-87.4045323, 39.4675954], [-87.4045437, 39.4675855], [-87.4056675, 39.4675788], [-87.4056823, 39.467583], [-87.4056944, 39.4675928], [-87.4057091, 39.4694719]]], [[[-87.4057151, 39.4704673], [-87.4057148, 39.4704789], [-87.4057098, 39.4704841], [-87.4057037, 39.4704866], [-87.4056984, 39.4704877], [-87.4045806, 39.4704994], [-87.4045625, 39.4704901], [-87.4045564, 39.4704797], [-87.4045494, 39.4696057], [-87.4045547, 39.4696002], [-87.4045641, 39.4695951], [-87.4056876, 39.4695868], [-87.4056997, 39.4695914], [-87.4057104, 39.4696018], [-87.4057151, 39.4704673]]], [[[-87.4057292, 39.4723043], [-87.4057379, 39.4733292], [-87.4057319, 39.4733722], [-87.405687, 39.4734886], [-87.4055629, 39.473794], [-87.4055441, 39.4738593], [-87.4055321, 39.4739592], [-87.4055361, 39.4740999], [-87.4055354, 39.4741305], [-87.4055281, 39.4741393], [-87.405514, 39.4741434], [-87.4045926, 39.4741486], [-87.4045812, 39.4741419], [-87.4045759, 39.4741274], [-87.4045651, 39.4720435], [-87.4045598, 39.4711267], [-87.4045564, 39.4706055], [-87.4045631, 39.4705982], [-87.4045759, 39.4705925], [-87.4056984, 39.4705869], [-87.4057131, 39.4705936], [-87.4057172, 39.4706013], [-87.4057292, 39.4723043]]], [[[-87.4112961, 39.4735823], [-87.4112921, 39.473557], [-87.4112807, 39.4735414], [-87.4112687, 39.4735316], [-87.4112338, 39.4735223], [-87.4101602, 39.4735145], [-87.4101361, 39.4735187], [-87.410118, 39.4735295], [-87.4101012, 39.4735508], [-87.4100979, 39.4735678], [-87.4101093, 39.4752532], [-87.4101146, 39.4752635], [-87.4101247, 39.4752697], [-87.4101354, 39.4752744], [-87.4112787, 39.4752677], [-87.4112928, 39.4752646], [-87.4113049, 39.4752558], [-87.4113096, 39.4752423], [-87.4112961, 39.4735823]]], [[[-87.4126151, 39.4698901], [-87.4126131, 39.469902], [-87.4125615, 39.469945], [-87.4125279, 39.4699667], [-87.4124991, 39.4699781], [-87.4124743, 39.4699823], [-87.4122691, 39.4699833], [-87.4122068, 39.4699502], [-87.4121699, 39.4699346], [-87.4118447, 39.4699357], [-87.4117434, 39.4699797], [-87.411724, 39.4699828], [-87.4114054, 39.4699843], [-87.4113894, 39.4699791], [-87.4113847, 39.4699698], [-87.4113766, 39.4675845], [-87.411388, 39.4675731], [-87.4114008, 39.4675669], [-87.4114222, 39.4675669], [-87.4125186, 39.4675628], [-87.412538, 39.4675713], [-87.4125461, 39.4675804], [-87.4125467, 39.4675949], [-87.4126225, 39.4675943], [-87.4126279, 39.468113], [-87.4126319, 39.4683066], [-87.4126057, 39.4683284], [-87.4126084, 39.4687192], [-87.4126319, 39.4687425], [-87.4126319, 39.4688336], [-87.4126118, 39.4688517], [-87.4126151, 39.4698901]]], [[[-87.4125662, 39.4704528], [-87.4125642, 39.4704652], [-87.4125554, 39.4704709], [-87.4113981, 39.4704719], [-87.4113914, 39.4704626], [-87.411388, 39.4704512], [-87.4113873, 39.4700589], [-87.4114014, 39.470049], [-87.4114242, 39.4700454], [-87.4124971, 39.4700418], [-87.4125414, 39.4700558], [-87.4125608, 39.4700801], [-87.4126044, 39.4700873], [-87.4126339, 39.4700992], [-87.4126413, 39.4701153], [-87.4126332, 39.4701262], [-87.4126185, 39.4701355], [-87.4126178, 39.4704062], [-87.4126098, 39.4704134], [-87.4125668, 39.4704316], [-87.4125662, 39.4704528]]], [[[-87.4127184, 39.467562], [-87.4126973, 39.4675635], [-87.4126761, 39.4675744], [-87.4126641, 39.4675861], [-87.4126671, 39.4678767], [-87.4126701, 39.4679018], [-87.4126775, 39.4679122], [-87.4127194, 39.467936], [-87.4128545, 39.4680036], [-87.4129259, 39.4680398], [-87.4130466, 39.4681288], [-87.4131395, 39.4681956], [-87.4131365, 39.4682091], [-87.4131382, 39.4682171], [-87.4132991, 39.4683539], [-87.4134, 39.4684389], [-87.4134426, 39.4684573], [-87.4134872, 39.4684658], [-87.4136662, 39.4684648], [-87.4137591, 39.4684656], [-87.4137862, 39.4684586], [-87.4138043, 39.4684464], [-87.4138111, 39.4684197], [-87.4138107, 39.4676006], [-87.413806, 39.4675827], [-87.4137943, 39.4675711], [-87.4137742, 39.467562], [-87.4127184, 39.467562]]], [[[-87.4138302, 39.4704062], [-87.4138282, 39.4704393], [-87.4138161, 39.4704523], [-87.4137953, 39.4704631], [-87.4137691, 39.4704683], [-87.4127405, 39.4704725], [-87.4127157, 39.4704642], [-87.4126969, 39.4704502], [-87.4126862, 39.4704336], [-87.4126835, 39.4704129], [-87.4126688, 39.4680711], [-87.4126849, 39.4680659], [-87.4127177, 39.4680623], [-87.4127854, 39.4680633], [-87.4129544, 39.4681777], [-87.41311, 39.4683025], [-87.4132682, 39.4684252], [-87.4134044, 39.4685448], [-87.4134319, 39.4685561], [-87.4134835, 39.468566], [-87.4137705, 39.4685649], [-87.4137953, 39.4685727], [-87.4138094, 39.4685831], [-87.4138161, 39.4685924], [-87.4138302, 39.4704062]]], [[[-87.3650166, 39.4736455], [-87.3650133, 39.4732997], [-87.365022, 39.4732604], [-87.3650549, 39.4732247], [-87.3650939, 39.4732011], [-87.3673656, 39.4728344], [-87.3686101, 39.472634], [-87.3691895, 39.472574], [-87.3692424, 39.472574], [-87.3692981, 39.4725802], [-87.3693296, 39.4725932], [-87.3693605, 39.4726144], [-87.3693947, 39.4726465], [-87.3694128, 39.4726827], [-87.3694296, 39.4727303], [-87.3694249, 39.4727759], [-87.3694094, 39.4728156], [-87.3693795, 39.4729155], [-87.3693277, 39.4730401], [-87.369202, 39.473349], [-87.3691616, 39.4735078], [-87.3691418, 39.473663], [-87.369141, 39.4737876], [-87.3691513, 39.4739887], [-87.3691589, 39.4740294], [-87.3691788, 39.4742086], [-87.3691835, 39.4744171], [-87.3691614, 39.4746044], [-87.3691255, 39.474841], [-87.3691092, 39.4750028], [-87.3691075, 39.4752032], [-87.3691142, 39.4753283], [-87.3691372, 39.475483], [-87.3691743, 39.4756645], [-87.3691995, 39.4757568], [-87.3692617, 39.4759499], [-87.3693015, 39.4760761], [-87.3693524, 39.4762466], [-87.3693958, 39.476444], [-87.3694168, 39.4765823], [-87.3694282, 39.4767029], [-87.3694395, 39.4768169], [-87.369487, 39.4772665], [-87.369494, 39.4773287], [-87.3694879, 39.477365], [-87.3694711, 39.4773981], [-87.3694436, 39.4774208], [-87.3694081, 39.4774425], [-87.3693739, 39.4774565], [-87.3693464, 39.4774638], [-87.3690963, 39.4774628], [-87.3690829, 39.4774679], [-87.3684089, 39.4774964], [-87.36766, 39.4774927], [-87.3651501, 39.4774601], [-87.3651162, 39.4774575], [-87.3650955, 39.477454], [-87.3650857, 39.4774524], [-87.365065, 39.4774389], [-87.3650408, 39.4774162], [-87.3650322, 39.477398], [-87.3650339, 39.4767024], [-87.365022, 39.475247], [-87.3650193, 39.4740798], [-87.3650166, 39.4736455]]], [[[-87.4008315, 39.470473], [-87.4008268, 39.4704937], [-87.4008214, 39.470503], [-87.4008107, 39.4705123], [-87.400794, 39.4705144], [-87.3993818, 39.4705201], [-87.3993684, 39.4705108], [-87.3993603, 39.4704952], [-87.399359, 39.4704704], [-87.3993529, 39.469624], [-87.3993637, 39.4696178], [-87.3993804, 39.4696132], [-87.4007826, 39.4696085], [-87.4008067, 39.4696158], [-87.4008174, 39.4696297], [-87.4008241, 39.4696448], [-87.4008315, 39.470473]]], [[[-87.4081043, 39.4674732], [-87.4081043, 39.4674846], [-87.4080956, 39.467495], [-87.4080882, 39.4675001], [-87.4080648, 39.4675069], [-87.4078294, 39.4675063], [-87.4077778, 39.4674784], [-87.4074633, 39.4674784], [-87.4074183, 39.4675048], [-87.4071655, 39.4675043], [-87.4071414, 39.4674934], [-87.4071287, 39.4674784], [-87.407122, 39.4674644], [-87.4071146, 39.467057], [-87.4071293, 39.4670503], [-87.4080788, 39.4670451], [-87.4081043, 39.4670581], [-87.4081097, 39.4670705], [-87.4081117, 39.467189], [-87.4080983, 39.4672004], [-87.4081043, 39.4674732]]], [[[-87.411208, 39.4665435], [-87.411105, 39.4665443], [-87.4110775, 39.4665663], [-87.4102085, 39.4665673], [-87.410181, 39.4665461], [-87.4100945, 39.4665461], [-87.4100697, 39.4665559], [-87.4100563, 39.4665668], [-87.4100529, 39.4665771], [-87.4100543, 39.4666165], [-87.4100778, 39.4666388], [-87.4100865, 39.4669778], [-87.4100992, 39.4669882], [-87.410114, 39.4669928], [-87.4112177, 39.4669871], [-87.4112277, 39.4669778], [-87.4112432, 39.4669545], [-87.4112438, 39.4667392], [-87.4112687, 39.4667205], [-87.4112663, 39.4665808], [-87.4112573, 39.4665673], [-87.4112465, 39.4665575], [-87.4112341, 39.4665487], [-87.411208, 39.4665435]]], [[[-87.4125554, 39.467424], [-87.4125487, 39.4674359], [-87.4125259, 39.4674525], [-87.4125085, 39.4674608], [-87.412475, 39.4674655], [-87.4113974, 39.4674649], [-87.41139, 39.4674587], [-87.4113867, 39.4674473], [-87.4113826, 39.4670301], [-87.4113927, 39.4670197], [-87.4114068, 39.4670141], [-87.4125072, 39.4670109], [-87.4125233, 39.4670203], [-87.4125313, 39.4670301], [-87.4125326, 39.4673366], [-87.4125541, 39.4673562], [-87.4125554, 39.467424]]], [[[-87.4166146, 39.4704228], [-87.4166073, 39.4704331], [-87.4165814, 39.4704455], [-87.4165365, 39.4704569], [-87.4165037, 39.4704608], [-87.4155018, 39.4704626], [-87.415473, 39.4704512], [-87.4154455, 39.47043], [-87.4154341, 39.470399], [-87.4154281, 39.469592], [-87.4154449, 39.4695723], [-87.4154703, 39.4695604], [-87.4155005, 39.4695593], [-87.4165137, 39.4695562], [-87.4165747, 39.469563], [-87.4165975, 39.4695728], [-87.4166083, 39.4695852], [-87.4166146, 39.4704228]]], [[[-87.4071152, 39.4676034], [-87.4071246, 39.4675856], [-87.4071454, 39.4675775], [-87.4071811, 39.4675742], [-87.4080399, 39.4675737], [-87.4098685, 39.467568], [-87.4111943, 39.4675655], [-87.4112298, 39.4675669], [-87.4112438, 39.4675783], [-87.4112508, 39.4676006], [-87.4112879, 39.4723685], [-87.4112961, 39.4734188], [-87.4112861, 39.473441], [-87.411266, 39.473455], [-87.4112391, 39.4734566], [-87.4100899, 39.4734463], [-87.4100429, 39.4734586], [-87.4099973, 39.4734845], [-87.4099705, 39.4735238], [-87.4099695, 39.4736003], [-87.4099784, 39.4745248], [-87.4099698, 39.4745396], [-87.4099604, 39.4745474], [-87.40995, 39.4745506], [-87.4084289, 39.4745603], [-87.4083515, 39.4745604], [-87.4083591, 39.4751144], [-87.4083605, 39.4752045], [-87.4083484, 39.4752278], [-87.4083323, 39.4752438], [-87.4083115, 39.4752516], [-87.4082827, 39.4752547], [-87.408162, 39.4752454], [-87.4080755, 39.4752268], [-87.4079923, 39.4751936], [-87.4078837, 39.4751346], [-87.4078073, 39.4751005], [-87.4077275, 39.4750761], [-87.4076732, 39.4750689], [-87.407476, 39.4750673], [-87.4072374, 39.4750712], [-87.4072051, 39.4750617], [-87.4071783, 39.4750451], [-87.4071716, 39.4750265], [-87.4071581, 39.4736134], [-87.4071527, 39.4729312], [-87.4071273, 39.4694651], [-87.4071213, 39.4687156], [-87.4071575, 39.4686612], [-87.4071548, 39.4685059], [-87.4071199, 39.4684687], [-87.4071173, 39.4684557], [-87.4071179, 39.4680038], [-87.4071152, 39.4676034]]], [[[-87.4152962, 39.4695974], [-87.4152671, 39.4676298], [-87.4152598, 39.4676083], [-87.415243, 39.4675928], [-87.4152122, 39.4675814], [-87.41416, 39.4675841], [-87.4141339, 39.4675887], [-87.4141185, 39.4676052], [-87.4141115, 39.4676334], [-87.414132, 39.4700312], [-87.4141359, 39.470385], [-87.4141346, 39.4704233], [-87.414144, 39.4704419], [-87.4141574, 39.4704554], [-87.4141828, 39.4704664], [-87.4151988, 39.4704647], [-87.4152309, 39.470459], [-87.4152544, 39.4704492], [-87.4152772, 39.4704269], [-87.4152869, 39.4703952], [-87.4153047, 39.4703218], [-87.4152973, 39.4698026], [-87.4152962, 39.4695974]]], [[[-87.4167945, 39.4694174], [-87.4167906, 39.4686234], [-87.4168101, 39.4685986], [-87.4168369, 39.468581], [-87.4168741, 39.4685677], [-87.4178917, 39.4685551], [-87.4179219, 39.468567], [-87.417952, 39.4685908], [-87.4179678, 39.4686192], [-87.4179799, 39.4694047], [-87.4179655, 39.4694356], [-87.417942, 39.4694569], [-87.4179158, 39.4694688], [-87.4178792, 39.4694763], [-87.4170528, 39.4694739], [-87.4168845, 39.4694734], [-87.4168503, 39.4694667], [-87.4168215, 39.4694501], [-87.4167945, 39.4694174]]], [[[-87.4179475, 39.4684291], [-87.4179219, 39.4684438], [-87.4178763, 39.4684557], [-87.4168564, 39.4684692], [-87.4168255, 39.4684609], [-87.4168007, 39.468434], [-87.4167858, 39.4683944], [-87.4167967, 39.4676736], [-87.4168, 39.4676254], [-87.4168067, 39.4675954], [-87.4168208, 39.4675767], [-87.4168376, 39.4675597], [-87.4168564, 39.4675503], [-87.4168753, 39.4675463], [-87.4172875, 39.4675431], [-87.4174458, 39.4675415], [-87.4175547, 39.4675372], [-87.417706, 39.4675296], [-87.4178649, 39.4675172], [-87.4179043, 39.4675242], [-87.4179372, 39.4675405], [-87.4179634, 39.4675726], [-87.4179748, 39.4676251], [-87.4179688, 39.4683755], [-87.4179608, 39.4684076], [-87.4179475, 39.4684291]]], [[[-87.4165992, 39.4677178], [-87.4165687, 39.4676528], [-87.4165452, 39.4676197], [-87.4165251, 39.4676021], [-87.4164862, 39.4675902], [-87.4164406, 39.467585], [-87.4163761, 39.4675803], [-87.4154848, 39.4675817], [-87.4154529, 39.4675887], [-87.4154281, 39.4676073], [-87.4154174, 39.4676368], [-87.4154131, 39.467866], [-87.4154207, 39.469387], [-87.4154234, 39.4694232], [-87.4154408, 39.4694429], [-87.415473, 39.4694522], [-87.4165756, 39.4694584], [-87.4165891, 39.4694558], [-87.4166002, 39.4694447], [-87.4166077, 39.4694277], [-87.4165992, 39.4677178]]], [[[-87.4167776, 39.4775965], [-87.4167705, 39.4775725], [-87.4167491, 39.4775539], [-87.4167115, 39.4775368], [-87.4166706, 39.4775354], [-87.4160188, 39.4775352], [-87.4154469, 39.4775357], [-87.4147052, 39.4775378], [-87.4143205, 39.4775755], [-87.4142534, 39.4775926], [-87.414203, 39.4776191], [-87.4141581, 39.4776641], [-87.4141433, 39.4777017], [-87.4141371, 39.4777759], [-87.414138, 39.4792106], [-87.4141426, 39.4795827], [-87.4141493, 39.4795962], [-87.4141628, 39.4796045], [-87.4141942, 39.4796067], [-87.4144229, 39.4796138], [-87.4146952, 39.4796159], [-87.4155065, 39.4796159], [-87.4167256, 39.4795952], [-87.4167541, 39.4795918], [-87.4167839, 39.479577], [-87.4168041, 39.4795569], [-87.4168129, 39.4795262], [-87.4167839, 39.4783597], [-87.4167776, 39.4775965]]], [[[-87.4138583, 39.4736434], [-87.4138456, 39.4724519], [-87.4138288, 39.4706055], [-87.4138208, 39.4705884], [-87.413808, 39.4705755], [-87.4137852, 39.4705693], [-87.4137564, 39.4705651], [-87.4127459, 39.4705693], [-87.4114008, 39.4705708], [-87.4113917, 39.4705744], [-87.4113877, 39.4705806], [-87.4114025, 39.4722712], [-87.4114286, 39.4752526], [-87.4114403, 39.4752617], [-87.4114517, 39.4752651], [-87.4123845, 39.4752604], [-87.4125601, 39.4752438], [-87.4127479, 39.4752413], [-87.4127673, 39.4752418], [-87.4134842, 39.4752402], [-87.4137302, 39.4752392], [-87.4138528, 39.475235], [-87.4138506, 39.4749705], [-87.4138657, 39.4749704], [-87.4138583, 39.4736434]]], [[[-87.4113236, 39.4754302], [-87.4113169, 39.475365], [-87.4113082, 39.4753546], [-87.4112961, 39.4753515], [-87.4101656, 39.4753613], [-87.410118, 39.4753634], [-87.4101099, 39.4753701], [-87.4101086, 39.4753764], [-87.4101663, 39.4753784], [-87.4107557, 39.4754048], [-87.4110387, 39.4754136], [-87.4111614, 39.4753934], [-87.4111996, 39.4753867], [-87.4112351, 39.4754141], [-87.4112847, 39.4754141], [-87.4112874, 39.4754307], [-87.4113236, 39.4754302]]], [[[-87.4138542, 39.475411], [-87.4135941, 39.47541], [-87.4135526, 39.4753986], [-87.4129021, 39.4753914], [-87.4126339, 39.4753707], [-87.4124837, 39.4753665], [-87.4122329, 39.4753893], [-87.4116012, 39.4754172], [-87.4115463, 39.4754027], [-87.4115691, 39.4753681], [-87.4116012, 39.4753489], [-87.4116281, 39.4753396], [-87.4116509, 39.4753365], [-87.4119097, 39.4753324], [-87.4124428, 39.4753261], [-87.4127445, 39.475308], [-87.4138533, 39.4753059], [-87.4138542, 39.475411]]], [[[-87.4099859, 39.4754245], [-87.4099845, 39.475381], [-87.4099745, 39.4753665], [-87.4099617, 39.4753613], [-87.4099041, 39.4753613], [-87.4085268, 39.4753717], [-87.4083638, 39.4753732], [-87.4082559, 39.4753701], [-87.4081425, 39.4753634], [-87.4080668, 39.47535], [-87.4079581, 39.4753127], [-87.4077704, 39.47522], [-87.4077382, 39.4752081], [-87.4076141, 39.4751854], [-87.4075685, 39.4751854], [-87.407187, 39.4751895], [-87.4071716, 39.4752024], [-87.4071689, 39.4752283], [-87.4071716, 39.4754038], [-87.4072232, 39.4754038], [-87.4072246, 39.4754328], [-87.4073258, 39.4754411], [-87.4077, 39.4754338], [-87.4080111, 39.4754442], [-87.4083799, 39.4754369], [-87.4085435, 39.4754297], [-87.4095561, 39.4754193], [-87.4096674, 39.4754266], [-87.4099859, 39.4754245]]], [[[-87.4070455, 39.475365], [-87.4070422, 39.475262], [-87.4070355, 39.4752283], [-87.4070234, 39.4752071], [-87.4070106, 39.4751952], [-87.4069919, 39.4751905], [-87.4066801, 39.4751859], [-87.4064467, 39.4751719], [-87.4061852, 39.4751481], [-87.4060839, 39.4751398], [-87.4057507, 39.4751336], [-87.4057151, 39.4751346], [-87.405685, 39.4751465], [-87.4056702, 39.4751584], [-87.4056662, 39.4751802], [-87.4057923, 39.4751802], [-87.4057963, 39.4751962], [-87.4058466, 39.4752019], [-87.4061389, 39.4752216], [-87.4065332, 39.4752837], [-87.4069262, 39.4753686], [-87.4069805, 39.4753701], [-87.4070455, 39.475365]]], [[[-87.4055462, 39.4751776], [-87.4055361, 39.475161], [-87.4055213, 39.4751491], [-87.4054972, 39.4751383], [-87.4054664, 39.4751357], [-87.4042198, 39.4751439], [-87.4041963, 39.4751522], [-87.4041749, 39.4751688], [-87.4041655, 39.4751843], [-87.4041615, 39.4754074], [-87.4042292, 39.4754095], [-87.404313, 39.4753929], [-87.4043626, 39.4754188], [-87.4046597, 39.4753303], [-87.4048528, 39.4752806], [-87.4051009, 39.4752444], [-87.4052981, 39.4752257], [-87.4053866, 39.4752102], [-87.4054255, 39.4751885], [-87.4055462, 39.4751776]]], [[[-87.4026306, 39.4752816], [-87.4035067, 39.4752774], [-87.4040374, 39.4752749], [-87.40403, 39.4743003], [-87.4040186, 39.4742733], [-87.4039911, 39.4742609], [-87.4039549, 39.4742526], [-87.4026266, 39.4742656], [-87.4026306, 39.4752816]]], [[[-87.4026896, 39.4741605], [-87.4043942, 39.4741517], [-87.4044129, 39.4741434], [-87.4044297, 39.4741284], [-87.404431, 39.4741087], [-87.404429, 39.4735404], [-87.404423, 39.4726325], [-87.4044082, 39.4706329], [-87.4044002, 39.4706158], [-87.4043821, 39.4705998], [-87.404364, 39.4705941], [-87.4043425, 39.4705931], [-87.4026306, 39.4706065], [-87.4026239, 39.4711583], [-87.4026158, 39.4719989], [-87.4026145, 39.4728458], [-87.4026346, 39.4736388], [-87.4026454, 39.4739814], [-87.4026775, 39.4739824], [-87.4026896, 39.4741605]]], [[[-87.4026581, 39.470503], [-87.4026454, 39.4699367], [-87.4026252, 39.4699139], [-87.4026289, 39.4686421], [-87.4028257, 39.4686343], [-87.4028948, 39.4686017], [-87.4029786, 39.4685846], [-87.403043, 39.4685831], [-87.4031496, 39.4685913], [-87.4032448, 39.4686115], [-87.4037276, 39.4686126], [-87.4043351, 39.4686053], [-87.4043593, 39.4686115], [-87.4043814, 39.4686271], [-87.4043975, 39.4686452], [-87.4044109, 39.4704326], [-87.4044049, 39.4704631], [-87.4043908, 39.4704828], [-87.4043613, 39.4704947], [-87.4026581, 39.470503]]], [[[-87.4179309, 39.4695515], [-87.4179507, 39.4696039], [-87.418009, 39.4696934], [-87.4182732, 39.4696872], [-87.4183872, 39.4697007], [-87.4184811, 39.469739], [-87.4185359, 39.469782], [-87.4185656, 39.4698301], [-87.4185964, 39.4698818], [-87.4185991, 39.4699667], [-87.4186005, 39.4706376], [-87.4186003, 39.4711097], [-87.4182085, 39.4711191], [-87.4181702, 39.4711836], [-87.4181652, 39.4721321], [-87.4181693, 39.4724754], [-87.4169368, 39.4724788], [-87.4168926, 39.4724762], [-87.4168544, 39.4724555], [-87.4168316, 39.4724348], [-87.4168161, 39.4724084], [-87.4168121, 39.4723784], [-87.416812, 39.4723125], [-87.416806, 39.4705074], [-87.4167943, 39.4696159], [-87.4168155, 39.469578], [-87.4168463, 39.4695583], [-87.4168844, 39.4695499], [-87.4179309, 39.4695515]]], [[[-87.4151471, 39.4724613], [-87.415141, 39.470565], [-87.4142131, 39.4705652], [-87.4141742, 39.4705737], [-87.4141504, 39.4705887], [-87.4141383, 39.4706029], [-87.4141319, 39.4706244], [-87.4141481, 39.472396], [-87.4141587, 39.4724244], [-87.4142124, 39.4724545], [-87.4142513, 39.4724625], [-87.4151471, 39.4724613]]]]}}