{"type": "Feature", "properties": {"market_key": 20, "university": "University of South Carolina", "osm_type": "relation", "osm_id": 19034646, "osm_name": "University of South Carolina"}, "geometry": {"type": "MultiPolygon", "coordinates": [[[[-81.0375183, 33.9975515], [-81.0367452, 33.9977944], [-81.0371082, 33.9985891], [-81.0378815, 33.9983462], [-81.0375183, 33.9975515]]], [[[-81.0287413, 34.0027627], [-81.0266767, 34.0033971], [-81.0264012, 34.0027397], [-81.0252437, 34.0030949], [-81.0242936, 34.0009589], [-81.0216154, 34.0017778], [-81.021355, 34.0011737], [-81.0207719, 34.0013464], [-81.0205453, 34.0008152], [-81.0210922, 34.0006513], [-81.0208301, 34.0000462], [-81.0219122, 33.9997255], [-81.0216705, 33.9991808], [-81.0224338, 33.998958], [-81.0222359, 33.9985206], [-81.0242893, 33.9978816], [-81.0240751, 33.9973856], [-81.0242587, 33.997328], [-81.0244758, 33.9978216], [-81.0249015, 33.9976948], [-81.0245231, 33.9968481], [-81.0243951, 33.9964098], [-81.0239026, 33.995261], [-81.0236355, 33.9948804], [-81.0230678, 33.9939991], [-81.0229315, 33.9937869], [-81.0226764, 33.9931687], [-81.023265, 33.9925814], [-81.0230894, 33.9921813], [-81.0234796, 33.9920636], [-81.0236716, 33.9919552], [-81.0237662, 33.9918306], [-81.0238219, 33.9916737], [-81.023769, 33.991473], [-81.0233328, 33.990553], [-81.0217075, 33.9910826], [-81.0214334, 33.9904699], [-81.0222211, 33.9902215], [-81.0219055, 33.9895195], [-81.0211203, 33.9897621], [-81.0204981, 33.9883746], [-81.0226978, 33.9876963], [-81.0219733, 33.9870895], [-81.0223456, 33.9867647], [-81.0209393, 33.9856568], [-81.0203199, 33.9851733], [-81.0207039, 33.9848419], [-81.0194363, 33.9838484], [-81.0190611, 33.9841906], [-81.0178952, 33.9832804], [-81.0207973, 33.982316], [-81.0215208, 33.9827705], [-81.0220411, 33.9832204], [-81.0224167, 33.9835873], [-81.0228146, 33.9839841], [-81.0232264, 33.984441], [-81.0235826, 33.9848309], [-81.0240501, 33.9853869], [-81.0245342, 33.9858968], [-81.0252298, 33.986755], [-81.0254775, 33.9871842], [-81.0257028, 33.9876387], [-81.0258837, 33.9879917], [-81.0260085, 33.9882658], [-81.0275664, 33.9877958], [-81.0281551, 33.9891225], [-81.0298348, 33.98861], [-81.0304371, 33.9899924], [-81.0287524, 33.9904971], [-81.0293389, 33.9917925], [-81.0309144, 33.9913023], [-81.0307836, 33.9908409], [-81.0306751, 33.990511], [-81.0305221, 33.990188], [-81.0304748, 33.9900703], [-81.0320775, 33.9895628], [-81.0326423, 33.9893598], [-81.0336357, 33.9889676], [-81.0343313, 33.9887138], [-81.0352411, 33.9884346], [-81.03496, 33.9877647], [-81.0353886, 33.987641], [-81.035077, 33.9869304], [-81.0362224, 33.9865932], [-81.0392188, 33.9935617], [-81.0397754, 33.9945948], [-81.0399872, 33.9949598], [-81.0403029, 33.9955831], [-81.0404777, 33.9959802], [-81.0372376, 33.9969605], [-81.0366015, 33.9955929], [-81.0350365, 33.9960847], [-81.0356635, 33.9974564], [-81.0340063, 33.9979488], [-81.0328225, 33.995287], [-81.0311445, 33.9958138], [-81.0313676, 33.9963243], [-81.0321686, 33.9960892], [-81.0323275, 33.9964616], [-81.0315266, 33.9966966], [-81.0317302, 33.9971706], [-81.0313231, 33.9973049], [-81.0316561, 33.9980556], [-81.0304368, 33.9984274], [-81.0309311, 33.9995232], [-81.0299568, 33.999823], [-81.0297032, 33.9992567], [-81.0274485, 33.9999634], [-81.0277465, 34.0006387], [-81.0262332, 34.0010975], [-81.0266016, 34.0019266], [-81.0281668, 34.0014542], [-81.0287413, 34.0027627]], [[-81.0316168, 33.9926281], [-81.0299304, 33.9931402], [-81.0305183, 33.9944714], [-81.0322049, 33.9939594], [-81.0316168, 33.9926281]], [[-81.0311029, 33.9977528], [-81.0309389, 33.997381], [-81.0307475, 33.997439], [-81.0309115, 33.9978108], [-81.0311029, 33.9977528]], [[-81.0375513, 33.9923032], [-81.0372459, 33.9915974], [-81.036764, 33.9917408], [-81.0370695, 33.9924465], [-81.0375513, 33.9923032]]], [[[-81.0412137, 33.9896239], [-81.0406152, 33.9883115], [-81.039271, 33.988733], [-81.0394982, 33.9892309], [-81.0393847, 33.9895252], [-81.0396527, 33.9901132], [-81.0412137, 33.9896239]]], [[[-81.0453622, 33.9883341], [-81.0428783, 33.9891174], [-81.0410065, 33.9850379], [-81.043902, 33.9841243], [-81.0439779, 33.9842013], [-81.0448045, 33.984126], [-81.0453622, 33.9883341]]], [[[-81.0309179, 33.9867186], [-81.0315363, 33.9880822], [-81.0301136, 33.9885258], [-81.0296488, 33.9882115], [-81.0294991, 33.9878815], [-81.0306958, 33.9875081], [-81.0304095, 33.9868772], [-81.0309179, 33.9867186]]], [[[-81.0282131, 33.9848446], [-81.0258712, 33.9855556], [-81.0234968, 33.9839154], [-81.0248416, 33.982461], [-81.0255886, 33.98283], [-81.025677, 33.9828745], [-81.025308, 33.983416], [-81.025573, 33.9839895], [-81.0260532, 33.983862], [-81.02641, 33.983245], [-81.0268976, 33.9834953], [-81.0274498, 33.9838077], [-81.0277031, 33.9840124], [-81.0279272, 33.9842871], [-81.0281059, 33.9845914], [-81.0282131, 33.9848446]]], [[[-81.0238749, 34.0026784], [-81.0236131, 34.0020795], [-81.0230316, 34.0022543], [-81.0232934, 34.0028531], [-81.0238749, 34.0026784]]], [[[-81.0278168, 34.0007161], [-81.0286781, 34.0004475], [-81.0289824, 34.0011182], [-81.0281213, 34.0013869], [-81.0278168, 34.0007161]]], [[[-81.026131, 33.9685896], [-81.0228796, 33.9663598], [-81.0195179, 33.9698301], [-81.0184236, 33.9709629], [-81.0189196, 33.9713155], [-81.0165105, 33.9737867], [-81.0160578, 33.9742405], [-81.0157862, 33.9746061], [-81.0156799, 33.9749195], [-81.0161916, 33.9752981], [-81.0171836, 33.9742078], [-81.0186558, 33.9752132], [-81.0190377, 33.9748248], [-81.0193841, 33.9745375], [-81.0197895, 33.9742535], [-81.0203563, 33.9739108], [-81.020935, 33.9735419], [-81.0215333, 33.9731763], [-81.0212223, 33.9729314], [-81.0216711, 33.9723928], [-81.0218876, 33.9720272], [-81.022112, 33.9716322], [-81.0221986, 33.9713645], [-81.0236039, 33.9699411], [-81.0242534, 33.9704014], [-81.026131, 33.9685896]]], [[[-81.0244383, 34.0054999], [-81.0276427, 34.0044892], [-81.0279326, 34.005121], [-81.0261911, 34.0056701], [-81.0265699, 34.0064957], [-81.025107, 34.006957], [-81.0244383, 34.0054999]]], [[[-81.0239184, 34.0042864], [-81.0237126, 34.0038329], [-81.0225987, 34.0041804], [-81.0228044, 34.0046336], [-81.0239184, 34.0042864]]], [[[-81.0289298, 34.0072734], [-81.0272883, 34.007768], [-81.0269901, 34.0070879], [-81.0271734, 34.0070327], [-81.0268757, 34.0063534], [-81.0274327, 34.0061857], [-81.027612, 34.0065948], [-81.0285133, 34.0063233], [-81.0289298, 34.0072734]]]]}}