{"type": "Feature", "properties": {"market_key": 21, "university": "Mississippi State University", "osm_type": "way", "osm_id": 895007900, "osm_name": "Mississippi State University"}, "geometry": {"type": "Polygon", "coordinates": [[[-88.8056582, 33.4546619], [-88.8056399, 33.4468752], [-88.8016345, 33.4468617], [-88.8016389, 33.4395859], [-88.8022592, 33.4395784], [-88.8038453, 33.439563], [-88.8038551, 33.4378122], [-88.8038022, 33.4323928], [-88.7974266, 33.4323654], [-88.7975061, 33.4243583], [-88.7974588, 33.4220401], [-88.7974175, 33.4178269], [-88.8017057, 33.4177731], [-88.8016349, 33.4097835], [-88.7968824, 33.4097868], [-88.7968731, 33.4078789], [-88.7974466, 33.4078899], [-88.7973882, 33.4032684], [-88.7876037, 33.4034442], [-88.7869606, 33.4033437], [-88.7867127, 33.4032784], [-88.7863371, 33.403116], [-88.7841378, 33.4051824], [-88.7845828, 33.4070842], [-88.7866949, 33.4098167], [-88.7863949, 33.4103755], [-88.785943, 33.4115396], [-88.7855939, 33.413451], [-88.7850188, 33.4156938], [-88.7845664, 33.4157014], [-88.784572, 33.4178669], [-88.7803742, 33.4178753], [-88.7804109, 33.4208665], [-88.7789781, 33.4208706], [-88.7790805, 33.4252251], [-88.7847399, 33.4251836], [-88.7848007, 33.4397648], [-88.7868145, 33.4397752], [-88.7868844, 33.4421563], [-88.7930719, 33.4420748], [-88.7930529, 33.4467732], [-88.792737, 33.4471825], [-88.7872707, 33.4471854], [-88.7875574, 33.4489502], [-88.7869276, 33.4494199], [-88.7864508, 33.4492726], [-88.7863752, 33.44863], [-88.7848059, 33.4480271], [-88.7848133, 33.4472084], [-88.7830958, 33.4472158], [-88.7831199, 33.4476772], [-88.7832981, 33.4478664], [-88.7835553, 33.4481927], [-88.7836063, 33.448413], [-88.7836245, 33.4493992], [-88.7835655, 33.4495196], [-88.7832883, 33.4499141], [-88.7829018, 33.4504271], [-88.7831733, 33.4507539], [-88.7835415, 33.4515924], [-88.783509, 33.4531603], [-88.7835321, 33.453539], [-88.7836667, 33.4538913], [-88.7838313, 33.4541891], [-88.7846534, 33.4548755], [-88.7833872, 33.4565654], [-88.7834476, 33.4568503], [-88.7835338, 33.4569437], [-88.7836552, 33.4570035], [-88.7838182, 33.45704], [-88.7840462, 33.4572304], [-88.7837373, 33.4577928], [-88.7846215, 33.4578519], [-88.7846969, 33.4586732], [-88.7853952, 33.4586326], [-88.7855059, 33.4590019], [-88.7847194, 33.4591865], [-88.7846738, 33.4609238], [-88.784793, 33.4612967], [-88.7858173, 33.4614334], [-88.7861527, 33.4612398], [-88.7876216, 33.4614737], [-88.7881428, 33.4595784], [-88.7885558, 33.459524], [-88.788901, 33.4595302], [-88.788801, 33.460132], [-88.7888621, 33.4611758], [-88.7888804, 33.462003], [-88.7889401, 33.4626639], [-88.7890246, 33.4632879], [-88.7890204, 33.463702], [-88.789019, 33.4638441], [-88.7889922, 33.4642849], [-88.7888486, 33.4652411], [-88.7887993, 33.4655122], [-88.7888158, 33.4657065], [-88.7888894, 33.4662061], [-88.7889024, 33.466712], [-88.7889133, 33.4671359], [-88.788958, 33.4676231], [-88.7861862, 33.4679137], [-88.7861833, 33.4667122], [-88.78618, 33.4653434], [-88.7850202, 33.4653633], [-88.7807028, 33.4654373], [-88.7806311, 33.463937], [-88.7817849, 33.4630269], [-88.7804332, 33.4636925], [-88.7800355, 33.4637967], [-88.7793211, 33.4638933], [-88.7760774, 33.4682441], [-88.7763764, 33.4687331], [-88.7765107, 33.4681601], [-88.7776295, 33.4681663], [-88.7776339, 33.4683475], [-88.777706, 33.4685402], [-88.777877, 33.4686773], [-88.7780386, 33.4687624], [-88.7797433, 33.4685847], [-88.7803559, 33.4692641], [-88.7815689, 33.4706885], [-88.7812296, 33.4708796], [-88.7809185, 33.4726948], [-88.7834048, 33.472964], [-88.7852691, 33.4732236], [-88.7909381, 33.4748329], [-88.7964681, 33.4745354], [-88.7971605, 33.4713309], [-88.7971843, 33.4701283], [-88.7970434, 33.4695767], [-88.7967828, 33.4691419], [-88.7962221, 33.4685948], [-88.795345, 33.4678768], [-88.7949635, 33.4677138], [-88.7945301, 33.4676673], [-88.7939322, 33.4676729], [-88.7938351, 33.4671037], [-88.801341, 33.4663486], [-88.8018686, 33.4662816], [-88.8018394, 33.4660696], [-88.801861, 33.4657206], [-88.8020325, 33.4650638], [-88.8022433, 33.4644301], [-88.802464, 33.4639766], [-88.8014177, 33.4636593], [-88.8014673, 33.4622874], [-88.7996626, 33.4622705], [-88.7996175, 33.4603726], [-88.7998718, 33.4603701], [-88.7998914, 33.4594705], [-88.800396, 33.4597758], [-88.8005151, 33.4591234], [-88.8000137, 33.459112], [-88.8000022, 33.4576215], [-88.8037635, 33.4582288], [-88.8037558, 33.4549211], [-88.8040126, 33.4548129], [-88.8043194, 33.4547116], [-88.80465, 33.4546432], [-88.8056582, 33.4546619]]]}}