{"type": "Feature", "properties": {"market_key": 211, "university": "University of North Florida", "osm_type": "way", "osm_id": 420815429, "osm_name": "University of North Florida"}, "geometry": {"type": "Polygon", "coordinates": [[[-81.5187245, 30.2690736], [-81.5186922, 30.2688994], [-81.5185971, 30.2683863], [-81.5180546, 30.2656178], [-81.5180189, 30.2643476], [-81.5178475, 30.2622511], [-81.5176976, 30.2610116], [-81.5175905, 30.2600928], [-81.5174049, 30.259544], [-81.5171764, 30.2589027], [-81.5167552, 30.2580579], [-81.5161561, 30.2572891], [-81.5154391, 30.256369], [-81.5135724, 30.2551555], [-81.5120597, 30.2545027], [-81.5103503, 30.2542235], [-81.5084812, 30.2540726], [-81.5070101, 30.2539538], [-81.502215, 30.2534487], [-81.5016626, 30.2559585], [-81.5015122, 30.2562346], [-81.5002052, 30.2560365], [-81.4989971, 30.2566149], [-81.4992728, 30.2570528], [-81.4998064, 30.2580862], [-81.5000351, 30.2585293], [-81.5010842, 30.2586099], [-81.5004884, 30.2610569], [-81.5001237, 30.2609092], [-81.5000465, 30.2610172], [-81.4998262, 30.2609225], [-81.4995432, 30.2611998], [-81.4991916, 30.2615245], [-81.4987078, 30.2618778], [-81.4980657, 30.2618218], [-81.4973287, 30.2622288], [-81.4967417, 30.2626115], [-81.4964212, 30.2617839], [-81.4962693, 30.2616199], [-81.4961437, 30.2610748], [-81.4932744, 30.2611859], [-81.493274, 30.2614685], [-81.4933508, 30.2619124], [-81.4934323, 30.2621985], [-81.4935692, 30.262502], [-81.4937285, 30.2627663], [-81.4939138, 30.2630015], [-81.4941685, 30.2632566], [-81.4944538, 30.2634745], [-81.4942598, 30.2637078], [-81.4940738, 30.2639232], [-81.4936867, 30.2636426], [-81.4921156, 30.2636671], [-81.4923507, 30.2656305], [-81.495008, 30.2655789], [-81.4949277, 30.2651451], [-81.4946336, 30.2645399], [-81.4943316, 30.2641493], [-81.4948289, 30.2636894], [-81.495142, 30.2638277], [-81.4955012, 30.2639541], [-81.4960192, 30.264108], [-81.4959563, 30.2642685], [-81.4958701, 30.2645906], [-81.4958145, 30.2649286], [-81.4958113, 30.2657254], [-81.4962283, 30.2657179], [-81.4962482, 30.2659443], [-81.4965563, 30.2659337], [-81.496484, 30.2657013], [-81.4964035, 30.2657036], [-81.4963962, 30.2656426], [-81.4961634, 30.2655417], [-81.4967018, 30.2652159], [-81.4966665, 30.2637655], [-81.4962526, 30.2635635], [-81.4964366, 30.2633223], [-81.4966544, 30.2630944], [-81.4968973, 30.2628841], [-81.4971555, 30.2626897], [-81.4981127, 30.2622085], [-81.4982091, 30.262451], [-81.4979179, 30.2625885], [-81.4981918, 30.262914], [-81.4987386, 30.2630829], [-81.4992456, 30.2633763], [-81.4993396, 30.2636418], [-81.4992473, 30.2639309], [-81.4994466, 30.2639265], [-81.4995345, 30.264193], [-81.4997725, 30.2641679], [-81.4999391, 30.2641906], [-81.5001118, 30.2642982], [-81.5001134, 30.2655402], [-81.4998242, 30.2655361], [-81.5000558, 30.2671707], [-81.5027079, 30.2759573], [-81.5072794, 30.2758755], [-81.5077269, 30.2772294], [-81.5082481, 30.2777362], [-81.5082971, 30.278182], [-81.5081005, 30.2787954], [-81.5082186, 30.2796195], [-81.5084741, 30.2801211], [-81.5085302, 30.2801228], [-81.5085429, 30.2802622], [-81.5088084, 30.280794], [-81.5091481, 30.2807651], [-81.5095706, 30.2809941], [-81.5098703, 30.2813768], [-81.5098939, 30.2819662], [-81.510102, 30.2824172], [-81.510421, 30.282754], [-81.5103408, 30.2828165], [-81.5102912, 30.2829746], [-81.5101806, 30.2831392], [-81.5101463, 30.2832774], [-81.5100548, 30.2832708], [-81.5099955, 30.2836564], [-81.5085342, 30.2836676], [-81.5085491, 30.2846185], [-81.5102078, 30.2845798], [-81.5101902, 30.2836672], [-81.5103275, 30.2831921], [-81.5106104, 30.2827673], [-81.5109445, 30.2824756], [-81.5109639, 30.2824587], [-81.511366, 30.2822612], [-81.5112046, 30.2820057], [-81.5111256, 30.2810103], [-81.5110916, 30.2809155], [-81.5119857, 30.2805006], [-81.5120582, 30.2810687], [-81.5134688, 30.2810131], [-81.5134734, 30.2806708], [-81.5134123, 30.280229], [-81.5133475, 30.2800219], [-81.5137678, 30.2800101], [-81.5134997, 30.2798152], [-81.5129815, 30.2783103], [-81.5130757, 30.2781733], [-81.5132206, 30.2781113], [-81.5138494, 30.2779064], [-81.5143209, 30.2779483], [-81.514889, 30.2780858], [-81.5150797, 30.2783655], [-81.5151852, 30.2792298], [-81.5150784, 30.2801945], [-81.5156499, 30.28009], [-81.5155745, 30.2798195], [-81.5182665, 30.2792741], [-81.5185706, 30.2809904], [-81.5190364, 30.2809435], [-81.5212257, 30.2809402], [-81.5211128, 30.2762012], [-81.5210899, 30.2752375], [-81.5210123, 30.2737996], [-81.5207405, 30.2724175], [-81.5188156, 30.2692247], [-81.5187245, 30.2690736]]]}}