{"type": "Feature", "properties": {"market_key": 2146, "university": "University of South Alabama", "osm_type": "relation", "osm_id": 13006129, "osm_name": "University of South Alabama"}, "geometry": {"type": "MultiPolygon", "coordinates": [[[[-88.1727771, 30.6885542], [-88.1717825, 30.6886022], [-88.1709202, 30.6886455], [-88.1708483, 30.6868627], [-88.1708986, 30.6866556], [-88.1710639, 30.6863528], [-88.171495, 30.686291], [-88.1716352, 30.6862941], [-88.1719729, 30.686016], [-88.1721993, 30.6861242], [-88.1732269, 30.6876073], [-88.1734963, 30.6885157], [-88.1736257, 30.6890286], [-88.1736067, 30.6891324], [-88.1735466, 30.6892171], [-88.1734634, 30.6892998], [-88.1733203, 30.6893283], [-88.1728095, 30.6893604], [-88.1727771, 30.6885542]]], [[[-88.1959239, 30.6981364], [-88.195907, 30.6984592], [-88.1950809, 30.6984546], [-88.1950111, 30.7000644], [-88.1933754, 30.7000475], [-88.1933172, 30.6994551], [-88.1929632, 30.6990861], [-88.1911048, 30.6992791], [-88.1908379, 30.6992618], [-88.1908907, 30.7011038], [-88.1908951, 30.7016315], [-88.1908956, 30.7016886], [-88.1909434, 30.702398], [-88.1909355, 30.7049322], [-88.1906404, 30.7049431], [-88.1904801, 30.7049435], [-88.186865, 30.7049525], [-88.1859842, 30.7049547], [-88.1830193, 30.704962], [-88.1819007, 30.7049648], [-88.1817825, 30.7049643], [-88.1806789, 30.7049593], [-88.1771811, 30.7049435], [-88.1768908, 30.7047347], [-88.176576, 30.7042455], [-88.1762701, 30.7042659], [-88.1761299, 30.7042829], [-88.1756641, 30.7040588], [-88.1752259, 30.7039927], [-88.1747896, 30.7039658], [-88.1745489, 30.703694], [-88.174543, 30.7022174], [-88.1745438, 30.701626], [-88.1742914, 30.70178], [-88.174263, 30.701236], [-88.1742617, 30.7011563], [-88.1742545, 30.7006968], [-88.174244, 30.700028], [-88.174241, 30.699101], [-88.174208, 30.698027], [-88.174155, 30.697429], [-88.1739838, 30.6962214], [-88.1739567, 30.6958064], [-88.1739534, 30.6954895], [-88.1739448, 30.6946535], [-88.1739397, 30.6943663], [-88.1739882, 30.6940584], [-88.1739806, 30.6937937], [-88.173982, 30.6935672], [-88.1739198, 30.6930777], [-88.173811, 30.6897705], [-88.1738557, 30.6896584], [-88.1739106, 30.6895955], [-88.1739919, 30.6895238], [-88.1741461, 30.6894724], [-88.1746871, 30.689485], [-88.1751505, 30.6895322], [-88.1754802, 30.6896019], [-88.1758986, 30.6896231], [-88.1774105, 30.689821], [-88.1780553, 30.6898993], [-88.1783236, 30.689931], [-88.1784842, 30.6899465], [-88.1789361, 30.6900081], [-88.1792263, 30.6900445], [-88.1800596, 30.690144], [-88.180769, 30.6902262], [-88.1814195, 30.6902594], [-88.1820618, 30.6902734], [-88.1826586, 30.6902578], [-88.1830701, 30.6902471], [-88.1834259, 30.6902312], [-88.1836012, 30.6902234], [-88.1838972, 30.6902101], [-88.1840478, 30.6902034], [-88.1842755, 30.6901958], [-88.1857372, 30.6901469], [-88.1865542, 30.690123], [-88.1870182, 30.6901077], [-88.1879543, 30.6901054], [-88.1887043, 30.6901461], [-88.1889947, 30.6901628], [-88.1894895, 30.6902325], [-88.1897383, 30.6902463], [-88.1906082, 30.6903471], [-88.1905807, 30.6907496], [-88.1907134, 30.6909374], [-88.1907804, 30.6910579], [-88.1908749, 30.6912088], [-88.1909885, 30.6915837], [-88.1910193, 30.6918515], [-88.1910382, 30.6920113], [-88.1911044, 30.6926193], [-88.1912039, 30.693272], [-88.1912131, 30.6933176], [-88.1912382, 30.6934418], [-88.1914166, 30.6934343], [-88.1939445, 30.6934253], [-88.1940883, 30.6932279], [-88.1940852, 30.6916168], [-88.1943804, 30.6916222], [-88.1961771, 30.6910869], [-88.1961748, 30.6921161], [-88.1976343, 30.6921218], [-88.1991618, 30.6920781], [-88.1991598, 30.6911813], [-88.20132, 30.6915341], [-88.2014649, 30.6918616], [-88.2015131, 30.6921154], [-88.2017867, 30.6922307], [-88.2019155, 30.6921707], [-88.202012, 30.6919308], [-88.2020549, 30.6916863], [-88.2023017, 30.6917094], [-88.2024787, 30.6918709], [-88.2023553, 30.6922445], [-88.2023232, 30.6926643], [-88.2024251, 30.6930333], [-88.2023822, 30.6932594], [-88.2023607, 30.6938498], [-88.2025216, 30.6941543], [-88.2028542, 30.694145], [-88.203219, 30.6941635], [-88.20338, 30.6943619], [-88.2033639, 30.6948185], [-88.2032512, 30.6953121], [-88.2031137, 30.6958291], [-88.2034141, 30.6969731], [-88.2043415, 30.6969735], [-88.2043389, 30.6972025], [-88.204338, 30.6972783], [-88.2042905, 30.6973293], [-88.2042639, 30.6973904], [-88.2043261, 30.6974643], [-88.2044032, 30.6974873], [-88.2044595, 30.6974618], [-88.2044688, 30.6974232], [-88.2044739, 30.6973885], [-88.2044604, 30.6973494], [-88.2044352, 30.6973118], [-88.2044234, 30.6972828], [-88.2044221, 30.6971998], [-88.2044865, 30.6972023], [-88.205395, 30.6972041], [-88.2053499, 30.6924835], [-88.205398, 30.6921144], [-88.2073757, 30.692369], [-88.2074669, 30.6977642], [-88.2053968, 30.6977508], [-88.2045187, 30.6977411], [-88.2036441, 30.6977315], [-88.2029206, 30.6979141], [-88.2020819, 30.6981303], [-88.2014482, 30.6981772], [-88.2008531, 30.6978834], [-88.1979985, 30.6978033], [-88.1979891, 30.6981242], [-88.1959239, 30.6981364]]]]}}