{"type": "Feature", "properties": {"market_key": 2147, "university": "Western Carolina University", "osm_type": "relation", "osm_id": 8408116, "osm_name": "Western Carolina University"}, "geometry": {"type": "MultiPolygon", "coordinates": [[[[-83.2014542, 35.3043488], [-83.2019035, 35.3042845], [-83.2022842, 35.3042453], [-83.2025963, 35.3042341], [-83.202857, 35.3042369], [-83.2030936, 35.3042201], [-83.2033132, 35.3041725], [-83.2035224, 35.3040857], [-83.2038105, 35.3039262], [-83.204054, 35.303831], [-83.2044998, 35.3036855], [-83.2045753, 35.3036323], [-83.2046748, 35.3035427], [-83.2048653, 35.3034437], [-83.204759, 35.3033792], [-83.2046683, 35.3033662], [-83.2041827, 35.3031122], [-83.2003298, 35.3010967], [-83.1956235, 35.3033559], [-83.1956447, 35.3036275], [-83.1957533, 35.3050189], [-83.1969674, 35.30499], [-83.1970901, 35.3049871], [-83.1971302, 35.3051372], [-83.1972123, 35.3054448], [-83.1979537, 35.3052847], [-83.1982444, 35.3051883], [-83.1989774, 35.3049451], [-83.1986043, 35.3040628], [-83.1998672, 35.303731], [-83.1998959, 35.3038169], [-83.2011061, 35.303485], [-83.2014542, 35.3043488]]], [[[-83.1883885, 35.306676], [-83.1899117, 35.3060616], [-83.1897122, 35.3057212], [-83.1891316, 35.3047305], [-83.1902505, 35.3035602], [-83.1886982, 35.3029621], [-83.1879489, 35.3037835], [-83.1867914, 35.3030393], [-83.1858459, 35.3031486], [-83.1866732, 35.3037402], [-83.1878408, 35.3041183], [-83.1883885, 35.306676]]], [[[-83.1873731, 35.3102088], [-83.1877422, 35.3101578], [-83.1878655, 35.3107322], [-83.1880664, 35.311248], [-83.1883203, 35.3119038], [-83.1886032, 35.3126152], [-83.1889917, 35.3134946], [-83.188825, 35.3144529], [-83.1893235, 35.3153815], [-83.1889974, 35.3163505], [-83.1888219, 35.3171287], [-83.1877235, 35.3175136], [-83.1873614, 35.3173976], [-83.1874902, 35.3170474], [-83.1875635, 35.3167167], [-83.1864332, 35.3167697], [-83.1861355, 35.3167128], [-83.1851098, 35.3165698], [-83.1844495, 35.3163005], [-83.1839682, 35.3160418], [-83.1836076, 35.3158998], [-83.1832124, 35.3156879], [-83.1828051, 35.3154717], [-83.1826072, 35.3153003], [-83.1824692, 35.315215], [-83.1818209, 35.3151472], [-83.1819929, 35.314719], [-83.1822209, 35.3146697], [-83.1822285, 35.3142498], [-83.1824686, 35.3142518], [-83.182459, 35.3138443], [-83.1826019, 35.3137843], [-83.1829307, 35.3135529], [-83.1830887, 35.3136709], [-83.1836238, 35.3128335], [-83.1833417, 35.3121598], [-83.1818446, 35.312475], [-83.1812923, 35.3130723], [-83.1797367, 35.3149014], [-83.1785155, 35.314734], [-83.1785591, 35.3146536], [-83.1787059, 35.3143828], [-83.1789728, 35.3136824], [-83.1793725, 35.3132687], [-83.1790522, 35.3129194], [-83.1789205, 35.3127971], [-83.1788387, 35.3127325], [-83.1784568, 35.3130444], [-83.1783157, 35.3131352], [-83.1781965, 35.3131797], [-83.1781002, 35.313215], [-83.1780054, 35.3132389], [-83.1778281, 35.3132533], [-83.1775683, 35.3132621], [-83.1772756, 35.3132651], [-83.1771594, 35.3132857], [-83.1770788, 35.3133137], [-83.1770094, 35.3133462], [-83.1769105, 35.3134202], [-83.1768691, 35.3134609], [-83.1768117, 35.3135501], [-83.1767595, 35.3136345], [-83.1767122, 35.3136915], [-83.1766581, 35.3137387], [-83.1766132, 35.3137693], [-83.1765607, 35.3137788], [-83.1765225, 35.3137755], [-83.1764662, 35.3137568], [-83.1761549, 35.313559], [-83.1761267, 35.3136882], [-83.1764334, 35.3139466], [-83.1762658, 35.3141046], [-83.1761339, 35.3140571], [-83.176059, 35.3140044], [-83.1760031, 35.313942], [-83.1759335, 35.3138294], [-83.1758353, 35.313572], [-83.1757648, 35.3134511], [-83.175643, 35.3133645], [-83.1754423, 35.313225], [-83.1750971, 35.3129326], [-83.1747357, 35.3125855], [-83.1748707, 35.312513], [-83.1747314, 35.3123408], [-83.1743925, 35.3118882], [-83.1742818, 35.3116977], [-83.1739914, 35.3118194], [-83.1738051, 35.3115608], [-83.1738517, 35.3114928], [-83.1740789, 35.3113695], [-83.1739189, 35.311034], [-83.1736808, 35.3103796], [-83.1734745, 35.3098302], [-83.1733579, 35.3094732], [-83.1732988, 35.309096], [-83.173298, 35.3087441], [-83.1733887, 35.3083461], [-83.1735659, 35.3080327], [-83.1738632, 35.3075626], [-83.1742616, 35.3072248], [-83.1747585, 35.3068257], [-83.1750344, 35.3065535], [-83.1752365, 35.3062515], [-83.1752987, 35.3060024], [-83.1753258, 35.3058621], [-83.1753309, 35.3055925], [-83.1753926, 35.3056749], [-83.175567, 35.3056534], [-83.1764703, 35.3060545], [-83.1766661, 35.3065951], [-83.1768422, 35.3067529], [-83.1767967, 35.3072451], [-83.1763917, 35.307207], [-83.1763587, 35.3075041], [-83.1764455, 35.3077071], [-83.1766815, 35.3076912], [-83.177264, 35.3084279], [-83.1776883, 35.3082168], [-83.1772022, 35.3076534], [-83.177471, 35.3073758], [-83.177366, 35.3070723], [-83.1782975, 35.3068618], [-83.1785109, 35.3074324], [-83.1785702, 35.3078095], [-83.1788537, 35.3080899], [-83.1788649, 35.3086924], [-83.1786919, 35.3089012], [-83.178891, 35.3090747], [-83.178067, 35.3099333], [-83.1790632, 35.3105169], [-83.1792951, 35.3102867], [-83.1793022, 35.3102708], [-83.1793036, 35.3102562], [-83.1793, 35.3102368], [-83.1792891, 35.3102201], [-83.1792601, 35.3102017], [-83.1789332, 35.3100085], [-83.1787962, 35.3098674], [-83.1786728, 35.30979], [-83.1788017, 35.3095891], [-83.178875, 35.3095396], [-83.1792016, 35.3097967], [-83.1794105, 35.3100272], [-83.1794973, 35.3101502], [-83.1796959, 35.3099482], [-83.1798217, 35.3098524], [-83.1799335, 35.3098845], [-83.1800299, 35.3098733], [-83.1801249, 35.3098369], [-83.180208, 35.3097817], [-83.1808803, 35.3097424], [-83.1810385, 35.3095093], [-83.1809762, 35.3090863], [-83.1812542, 35.3092717], [-83.181808, 35.3095811], [-83.1818198, 35.3093188], [-83.181819, 35.3092436], [-83.1818394, 35.308854], [-83.1819494, 35.3086198], [-83.1820862, 35.3084491], [-83.1819145, 35.3082849], [-83.1818931, 35.3081207], [-83.1820334, 35.3074012], [-83.1820563, 35.3070575], [-83.1820048, 35.306562], [-83.1817013, 35.3055258], [-83.1814599, 35.3047904], [-83.1813633, 35.3044598], [-83.1813541, 35.3044028], [-83.1813413, 35.3041141], [-83.1809361, 35.3040842], [-83.1809417, 35.3040217], [-83.1804612, 35.3040473], [-83.1804231, 35.303804], [-83.1803605, 35.3037064], [-83.1803387, 35.3034403], [-83.1812486, 35.3035767], [-83.1815173, 35.30305], [-83.1815441, 35.3029883], [-83.1815415, 35.3028823], [-83.1815203, 35.3027122], [-83.18142, 35.3025499], [-83.1812767, 35.302443], [-83.1810723, 35.3023533], [-83.1808874, 35.3022654], [-83.1807755, 35.3021761], [-83.1806074, 35.3018771], [-83.1804581, 35.3016927], [-83.1800263, 35.301378], [-83.1797961, 35.3011795], [-83.1793864, 35.3006028], [-83.1793011, 35.3005229], [-83.1792393, 35.3004561], [-83.1791428, 35.3003745], [-83.1790546, 35.300235], [-83.1789964, 35.3000542], [-83.179423, 35.2997143], [-83.1793844, 35.2994503], [-83.1792064, 35.2994378], [-83.179218, 35.2992927], [-83.1787469, 35.2991705], [-83.1787706, 35.2990615], [-83.1789796, 35.298545], [-83.17911, 35.2985353], [-83.1802213, 35.2984526], [-83.1802146, 35.2980083], [-83.1802812, 35.2978749], [-83.1803515, 35.2977965], [-83.1809223, 35.299161], [-83.181248, 35.2999221], [-83.1821707, 35.3010275], [-83.18271, 35.3016374], [-83.1847916, 35.3032502], [-83.1849345, 35.3032454], [-83.1865108, 35.3044685], [-83.186519, 35.3050331], [-83.187126, 35.3061499], [-83.1875395, 35.306786], [-83.1875478, 35.3072112], [-83.1875166, 35.3072422], [-83.1875702, 35.3076112], [-83.1875798, 35.307981], [-83.187593, 35.3080719], [-83.1875328, 35.3081052], [-83.1873696, 35.309087], [-83.1872483, 35.3094587], [-83.1873731, 35.3102088]]], [[[-83.2083829, 35.3077881], [-83.208176, 35.3076287], [-83.2079341, 35.3075454], [-83.2073802, 35.3074741], [-83.2072724, 35.3074384], [-83.2071908, 35.3073932], [-83.2071616, 35.3073409], [-83.2071529, 35.3070673], [-83.2072491, 35.3066915], [-83.2072345, 35.3065725], [-83.20715, 35.3064536], [-83.2068614, 35.3062704], [-83.2067069, 35.3061372], [-83.2065816, 35.3059541], [-83.2064183, 35.3056091], [-83.2063047, 35.3054878], [-83.2061094, 35.3053284], [-83.2059899, 35.3052071], [-83.2059753, 35.3051548], [-83.2059957, 35.3051286], [-83.2060423, 35.305112], [-83.2061123, 35.3051334], [-83.2065349, 35.3054188], [-83.2074385, 35.3058137], [-83.207561, 35.3058018], [-83.2076222, 35.3057614], [-83.2076717, 35.3057019], [-83.2076746, 35.3056115], [-83.2076426, 35.3055402], [-83.2068993, 35.3047052], [-83.2062405, 35.3040463], [-83.2060044, 35.3038893], [-83.2057596, 35.3037965], [-83.2050746, 35.3036514], [-83.2049405, 35.3036395], [-83.2047336, 35.3036466], [-83.2050979, 35.3034635], [-83.2052174, 35.3033826], [-83.2053632, 35.3032494], [-83.2054652, 35.3031043], [-83.2059257, 35.303247], [-83.2073919, 35.3027546], [-83.2076309, 35.3031519], [-83.2079657, 35.3033679], [-83.2086717, 35.3033409], [-83.2103814, 35.3028818], [-83.2121022, 35.3026567], [-83.2122235, 35.3027287], [-83.2123228, 35.3033229], [-83.2124, 35.3034399], [-83.213503, 35.3033679], [-83.2136133, 35.304016], [-83.2135141, 35.3045561], [-83.2131501, 35.3057534], [-83.2129956, 35.3063835], [-83.2129405, 35.3064285], [-83.2115065, 35.3065005], [-83.2083829, 35.3077881]]], [[[-83.2056842, 35.3107485], [-83.2057635, 35.3104116], [-83.2058091, 35.310202], [-83.2058427, 35.3098964], [-83.2058379, 35.3096006], [-83.2057803, 35.3093047], [-83.2056746, 35.3089756], [-83.2055642, 35.3087249], [-83.205449, 35.3085995], [-83.2052953, 35.3085074], [-83.2050913, 35.3084761], [-83.2049929, 35.3084604], [-83.2049232, 35.308433], [-83.20488, 35.308382], [-83.2048824, 35.3081842], [-83.20488, 35.307855], [-83.2049112, 35.3078061], [-83.2049833, 35.3077649], [-83.2050721, 35.3077551], [-83.2055594, 35.3078335], [-83.2058283, 35.3078315], [-83.2060059, 35.3077924], [-83.2061212, 35.3077943], [-83.2062652, 35.3078315], [-83.2067669, 35.3081097], [-83.2069062, 35.3081352], [-83.2070035, 35.3081376], [-83.2068461, 35.3084655], [-83.2067055, 35.3086895], [-83.2063238, 35.3092032], [-83.2062535, 35.3096021], [-83.2056842, 35.3107485]]], [[[-83.2054287, 35.3108967], [-83.2056194, 35.3104761], [-83.2056787, 35.3101856], [-83.2057024, 35.3098436], [-83.2056866, 35.3095725], [-83.2056392, 35.3092789], [-83.2055414, 35.308956], [-83.2054309, 35.3087733], [-83.20536, 35.3086876], [-83.2052466, 35.3086252], [-83.205119, 35.3086067], [-83.2049489, 35.3085928], [-83.2048213, 35.3085604], [-83.2047504, 35.3084979], [-83.2047334, 35.3084355], [-83.2047192, 35.3083545], [-83.2046665, 35.3079173], [-83.2046749, 35.3078234], [-83.2047716, 35.3077078], [-83.2048567, 35.3076696], [-83.2049375, 35.3076488], [-83.2050424, 35.3076257], [-83.2051558, 35.3076257], [-83.2056577, 35.307702], [-83.2057824, 35.3077044], [-83.2059128, 35.3076928], [-83.2060574, 35.3076697], [-83.2061935, 35.3076812], [-83.2063693, 35.3077414], [-83.2067917, 35.307982], [-83.2068938, 35.3080051], [-83.2069845, 35.308019], [-83.2070696, 35.3080236], [-83.2071291, 35.3078802], [-83.2080902, 35.3078871], [-83.2082773, 35.3078362], [-83.2081724, 35.3077506], [-83.2080647, 35.3076974], [-83.2079428, 35.3076535], [-83.2077642, 35.3076188], [-83.2074835, 35.3075864], [-83.2072652, 35.3075447], [-83.2071461, 35.3074938], [-83.2070837, 35.3074499], [-83.2070639, 35.307399], [-83.2070554, 35.3073064], [-83.2070611, 35.3070473], [-83.207149, 35.3067303], [-83.2071518, 35.306654], [-83.2071404, 35.3065892], [-83.2070752, 35.3065128], [-83.2069306, 35.3064156], [-83.2067208, 35.3062629], [-83.2066358, 35.3061704], [-83.2064884, 35.3059899], [-83.2063097, 35.3056568], [-83.206219, 35.3055457], [-83.2060092, 35.3053791], [-83.2058731, 35.3052403], [-83.2058306, 35.3051477], [-83.2058448, 35.3050644], [-83.2058845, 35.3049927], [-83.2059809, 35.3049511], [-83.2060773, 35.3049534], [-83.2061708, 35.304995], [-83.2062587, 35.3050668], [-83.2065621, 35.3052842], [-83.2073871, 35.3056776], [-83.2074495, 35.3056891], [-83.2075062, 35.3056683], [-83.207526, 35.3056382], [-83.207526, 35.3055943], [-83.207475, 35.3055364], [-83.2069335, 35.3049488], [-83.2068087, 35.3047729], [-83.2062701, 35.3042176], [-83.2061793, 35.3041181], [-83.2060121, 35.3040001], [-83.2058901, 35.3039377], [-83.2057512, 35.3038798], [-83.2054649, 35.303822], [-83.205136, 35.3037664], [-83.2049262, 35.3037526], [-83.2047221, 35.3037572], [-83.2045264, 35.3037896], [-83.2042231, 35.3038937], [-83.2037439, 35.3041181], [-83.2033272, 35.3043171], [-83.2031429, 35.3043472], [-83.2028849, 35.3043634], [-83.2026071, 35.3043426], [-83.2024284, 35.3043287], [-83.202247, 35.3043379], [-83.2018472, 35.3043796], [-83.2014787, 35.3044467], [-83.2010392, 35.3045577], [-83.2005516, 35.3046873], [-83.200373, 35.3047405], [-83.2002114, 35.3047799], [-83.1998059, 35.3048724], [-83.2000526, 35.3055711], [-83.1991879, 35.3058974], [-83.1987286, 35.3060293], [-83.1982948, 35.306182], [-83.1978865, 35.3062884], [-83.197552, 35.3063694], [-83.1970587, 35.3064966], [-83.1967383, 35.3065013], [-83.1964463, 35.3065244], [-83.1959048, 35.3066933], [-83.1956808, 35.3067187], [-83.1953548, 35.3067072], [-83.1950032, 35.306684], [-83.1947877, 35.3067465], [-83.19449, 35.3067187], [-83.1941555, 35.3067465], [-83.1938294, 35.3068599], [-83.1936593, 35.306957], [-83.1935431, 35.3070843], [-83.1934269, 35.3071259], [-83.1932931, 35.3071367], [-83.1931689, 35.3071468], [-83.1929902, 35.307119], [-83.1928258, 35.3071768], [-83.1922559, 35.3074822], [-83.1913682, 35.3075513], [-83.191377, 35.3076627], [-83.1913799, 35.3077136], [-83.1914026, 35.3077529], [-83.1914961, 35.3078362], [-83.1916067, 35.3080838], [-83.1922159, 35.3088569], [-83.1921961, 35.3091602], [-83.1925661, 35.309788], [-83.1920201, 35.3104901], [-83.1913748, 35.3101931], [-83.1912094, 35.3101886], [-83.1896816, 35.3107332], [-83.1892097, 35.3121366], [-83.1899452, 35.3135241], [-83.1909223, 35.3145143], [-83.1914454, 35.3145456], [-83.1932069, 35.3162341], [-83.19333, 35.3160709], [-83.1931607, 35.3155374], [-83.1930607, 35.3140749], [-83.1943454, 35.3127755], [-83.1963838, 35.3135664], [-83.1996223, 35.3126437], [-83.1999915, 35.3127128], [-83.20033, 35.3131145], [-83.2007762, 35.3129199], [-83.2010531, 35.3132965], [-83.2035454, 35.3124491], [-83.2054287, 35.3108967]]]]}}