{"type": "Feature", "properties": {"market_key": 215, "university": "Eastern Michigan University", "osm_type": "relation", "osm_id": 6930093, "osm_name": "Eastern Michigan University"}, "geometry": {"type": "MultiPolygon", "coordinates": [[[[-83.6312987, 42.2554071], [-83.6306599, 42.2554108], [-83.6306727, 42.25613], [-83.6301935, 42.2560633], [-83.6293196, 42.2559383], [-83.6277609, 42.2557141], [-83.6274233, 42.2556604], [-83.6269973, 42.2555623], [-83.6265714, 42.2554199], [-83.6262937, 42.2553218], [-83.6260066, 42.2552354], [-83.6254292, 42.2550976], [-83.6246372, 42.2549131], [-83.6238263, 42.2546959], [-83.6235392, 42.2546165], [-83.6230848, 42.2545114], [-83.6228338, 42.2544638], [-83.6225828, 42.2544033], [-83.6222951, 42.2543339], [-83.622293, 42.2542968], [-83.6222672, 42.253849], [-83.6222388, 42.2533566], [-83.6215559, 42.2533746], [-83.6213986, 42.2533803], [-83.6214046, 42.2535114], [-83.6211088, 42.2534304], [-83.6201616, 42.2531712], [-83.6200217, 42.2531329], [-83.6199873, 42.2529893], [-83.6197964, 42.2523003], [-83.6196602, 42.2518242], [-83.6203056, 42.2517151], [-83.6204046, 42.2519693], [-83.6212571, 42.2519635], [-83.6212433, 42.2515912], [-83.6209814, 42.2515978], [-83.6209725, 42.2513173], [-83.6209653, 42.2510916], [-83.6194627, 42.2511249], [-83.6192051, 42.2502314], [-83.6188046, 42.2488327], [-83.6187941, 42.2487346], [-83.6186529, 42.2483089], [-83.6186561, 42.2482437], [-83.6190135, 42.2481545], [-83.6191759, 42.2481125], [-83.6193954, 42.248056], [-83.619515, 42.2480248], [-83.6204918, 42.247803], [-83.6206157, 42.247774], [-83.6206284, 42.2468623], [-83.6205972, 42.2458581], [-83.6206418, 42.2458086], [-83.6212298, 42.2458034], [-83.6219647, 42.2457969], [-83.6221046, 42.2457957], [-83.623397, 42.2457843], [-83.6233906, 42.2455981], [-83.6233855, 42.2454485], [-83.6233786, 42.2452495], [-83.6233693, 42.2449778], [-83.6233649, 42.2448507], [-83.62448, 42.2453633], [-83.6243913, 42.2456411], [-83.6244055, 42.2457753], [-83.6248968, 42.245771], [-83.6250924, 42.245781], [-83.6253326, 42.2457933], [-83.6255671, 42.2458224], [-83.6262235, 42.2458993], [-83.6267998, 42.2460165], [-83.6275161, 42.24619], [-83.6280494, 42.2463098], [-83.6289915, 42.2464349], [-83.6290686, 42.2464891], [-83.6290924, 42.2472153], [-83.6290991, 42.2474771], [-83.6291271, 42.2480746], [-83.6291928, 42.248313], [-83.6292196, 42.2490925], [-83.629224, 42.2493353], [-83.629195, 42.2496606], [-83.6292017, 42.2501296], [-83.6292486, 42.2503509], [-83.6293066, 42.2508067], [-83.62933, 42.2516207], [-83.6293333, 42.2517365], [-83.6293379, 42.2520047], [-83.6293456, 42.2524485], [-83.6293536, 42.2527561], [-83.6294486, 42.2527552], [-83.6334074, 42.252631], [-83.6363673, 42.2525431], [-83.6378182, 42.2525099], [-83.6404653, 42.2524492], [-83.6414601, 42.2524098], [-83.6420251, 42.2523734], [-83.6427088, 42.2522946], [-83.6447271, 42.2520249], [-83.6462069, 42.2518422], [-83.6460989, 42.2513725], [-83.6460777, 42.2512797], [-83.6455711, 42.251351], [-83.645521, 42.251351], [-83.6455017, 42.2513462], [-83.6454823, 42.2513331], [-83.6454662, 42.2513116], [-83.6454662, 42.2512972], [-83.6455436, 42.250964], [-83.645854, 42.2496061], [-83.6459135, 42.2496135], [-83.6475334, 42.2498158], [-83.6475643, 42.2507758], [-83.6475866, 42.2512164], [-83.6475986, 42.2514881], [-83.6476055, 42.2515732], [-83.6476244, 42.2516671], [-83.6476467, 42.2517624], [-83.6476793, 42.2518601], [-83.6477273, 42.2519693], [-83.6477856, 42.2520887], [-83.6478525, 42.2521979], [-83.6479228, 42.2522969], [-83.6479897, 42.2523769], [-83.6480484, 42.2524429], [-83.6482597, 42.2524362], [-83.6510812, 42.2523466], [-83.6510862, 42.253219], [-83.6510902, 42.2539275], [-83.6510919, 42.2542278], [-83.6510938, 42.254552], [-83.6511022, 42.2560166], [-83.6511134, 42.2579847], [-83.651134, 42.2595973], [-83.6507638, 42.2595955], [-83.6504106, 42.2596027], [-83.6494777, 42.2596369], [-83.6483525, 42.2596712], [-83.6475317, 42.2596964], [-83.6472077, 42.2597072], [-83.6468107, 42.2597108], [-83.6465184, 42.2597], [-83.6462481, 42.259673], [-83.6459948, 42.2596423], [-83.6457804, 42.2596027], [-83.6455491, 42.2595504], [-83.6452081, 42.2594404], [-83.6449231, 42.2593287], [-83.6436809, 42.2587969], [-83.6435704, 42.2559694], [-83.6418807, 42.2559813], [-83.6416565, 42.2559872], [-83.6416649, 42.2564114], [-83.6416725, 42.2567932], [-83.6406636, 42.256325], [-83.6392422, 42.2559101], [-83.6393182, 42.2557916], [-83.6389539, 42.2556227], [-83.6391099, 42.2554809], [-83.63876, 42.2552342], [-83.6389893, 42.2551362], [-83.639195, 42.254949], [-83.6393603, 42.2547024], [-83.63937, 42.2535543], [-83.6381879, 42.2535858], [-83.6382162, 42.2547495], [-83.634233, 42.2548448], [-83.634078, 42.2548472], [-83.6340922, 42.2552365], [-83.6341163, 42.2559072], [-83.6341186, 42.2560889], [-83.6340784, 42.2563234], [-83.6340051, 42.2565618], [-83.633907, 42.2566091], [-83.632978, 42.2564568], [-83.6318627, 42.2563073], [-83.6313346, 42.2562303], [-83.6312987, 42.2554071]], [[-83.6340126, 42.2530506], [-83.6340264, 42.25343], [-83.634599, 42.253423], [-83.6365329, 42.2533653], [-83.6365539, 42.2537831], [-83.6375326, 42.2537539], [-83.6375164, 42.2533408], [-83.6378238, 42.2533303], [-83.637822, 42.2532849], [-83.6378205, 42.2532489], [-83.6378025, 42.2528088], [-83.6353413, 42.2528683], [-83.6341834, 42.2528913], [-83.6340197, 42.2528945], [-83.6340126, 42.2530506]]], [[[-83.620083, 42.2477074], [-83.6204424, 42.2475406], [-83.6203404, 42.2474274], [-83.6204236, 42.2473043], [-83.6203404, 42.247207], [-83.6203109, 42.2472051], [-83.6202895, 42.2472507], [-83.6201554, 42.2471892], [-83.6200695, 42.2473143], [-83.6200266, 42.2473023], [-83.6200213, 42.2473639], [-83.6200588, 42.2473857], [-83.62004, 42.2474175], [-83.6200347, 42.24762], [-83.620083, 42.2477074]]]]}}