{"type": "Feature", "properties": {"market_key": 2170, "university": "Towson University", "osm_type": "relation", "osm_id": 3170935, "osm_name": "Towson University"}, "geometry": {"type": "MultiPolygon", "coordinates": [[[[-76.6226753, 39.3962823], [-76.6228648, 39.3962768], [-76.6229542, 39.3962047], [-76.6231357, 39.3961902], [-76.6231983, 39.3962247], [-76.6232317, 39.3962291], [-76.6232898, 39.3962232], [-76.6238213, 39.3961562], [-76.6239998, 39.3961439], [-76.6241187, 39.3961107], [-76.6242566, 39.3960838], [-76.6245842, 39.3960067], [-76.6248758, 39.3959283], [-76.6253354, 39.3957723], [-76.6261196, 39.3954986], [-76.6263618, 39.39538], [-76.6264156, 39.3953565], [-76.6240553, 39.3929827], [-76.6233502, 39.3937919], [-76.6209583, 39.3941702], [-76.620351, 39.3939895], [-76.6175877, 39.393167], [-76.6153738, 39.3921715], [-76.6149337, 39.3919736], [-76.6147728, 39.3923266], [-76.614191, 39.3921534], [-76.6143222, 39.3924223], [-76.6150361, 39.3936931], [-76.6151303, 39.3938429], [-76.6151881, 39.3939523], [-76.6152406, 39.3940633], [-76.6152877, 39.3941758], [-76.6153296, 39.3942894], [-76.6153661, 39.3944041], [-76.6154151, 39.3946012], [-76.6154503, 39.3945983], [-76.6154738, 39.3947268], [-76.615491, 39.3948559], [-76.6155016, 39.3949855], [-76.6155103, 39.3952217], [-76.61551, 39.3954061], [-76.6155133, 39.3954296], [-76.6155218, 39.3954522], [-76.6155352, 39.3954734], [-76.6155532, 39.3954925], [-76.6155751, 39.3955088], [-76.6155904, 39.3955123], [-76.615624, 39.3955192], [-76.6156879, 39.395521], [-76.6162024, 39.3955664], [-76.6172585, 39.3957113], [-76.6175139, 39.3957415], [-76.6177075, 39.3957527], [-76.6194537, 39.3959729], [-76.621047, 39.3961993], [-76.621566, 39.3962614], [-76.6217692, 39.3962786], [-76.622104, 39.3962906], [-76.6224063, 39.3962929], [-76.6226753, 39.3962823]]], [[[-76.6066766, 39.3967164], [-76.6067704, 39.3967641], [-76.606835, 39.3967902], [-76.6069331, 39.3968152], [-76.6070334, 39.3968342], [-76.6071354, 39.3968471], [-76.6072383, 39.3968537], [-76.6073416, 39.3968541], [-76.6074446, 39.3968483], [-76.6088776, 39.3967415], [-76.6090511, 39.3967316], [-76.6092238, 39.3967151], [-76.609396, 39.3966918], [-76.6095649, 39.3966623], [-76.6097325, 39.3966261], [-76.6098975, 39.3965836], [-76.6103029, 39.3964729], [-76.6106899, 39.3963577], [-76.6112409, 39.3961825], [-76.6116376, 39.3960643], [-76.6123029, 39.3958813], [-76.6129583, 39.39574], [-76.6131915, 39.3956929], [-76.6134265, 39.3956518], [-76.6136632, 39.3956168], [-76.6139013, 39.3955881], [-76.6141405, 39.3955655], [-76.6145877, 39.3955444], [-76.6150814, 39.3955319], [-76.6151042, 39.3955302], [-76.6151264, 39.3955257], [-76.6151473, 39.3955186], [-76.6151665, 39.3955089], [-76.6151835, 39.3954969], [-76.6151977, 39.3954831], [-76.615209, 39.3954676], [-76.6152169, 39.3954509], [-76.6152213, 39.3954335], [-76.6152221, 39.3954157], [-76.6152201, 39.3952501], [-76.6152225, 39.3951088], [-76.6152206, 39.3950507], [-76.6152117, 39.3949048], [-76.6151937, 39.3947594], [-76.6151668, 39.3946148], [-76.6151311, 39.3944714], [-76.6150865, 39.3943295], [-76.6150333, 39.3941894], [-76.6149714, 39.3940514], [-76.6149012, 39.3939159], [-76.614809, 39.3937699], [-76.614089, 39.392488], [-76.6140838, 39.3924819], [-76.6140774, 39.3924766], [-76.6140701, 39.3924721], [-76.6140619, 39.3924685], [-76.6140531, 39.3924659], [-76.614044, 39.3924645], [-76.6140346, 39.3924641], [-76.6140253, 39.3924649], [-76.6140162, 39.3924668], [-76.6139331, 39.3924979], [-76.6138936, 39.3925115], [-76.6137377, 39.3925606], [-76.6135787, 39.392603], [-76.6134168, 39.3926387], [-76.6132527, 39.3926674], [-76.6130868, 39.3926891], [-76.6129197, 39.3927037], [-76.6127517, 39.3927112], [-76.6125835, 39.3927116], [-76.6124155, 39.3927048], [-76.6122483, 39.3926909], [-76.6120822, 39.3926699], [-76.6119179, 39.392642], [-76.6117559, 39.392607], [-76.6115965, 39.3925653], [-76.6114403, 39.3925169], [-76.6112877, 39.3924619], [-76.6111393, 39.3924005], [-76.6109954, 39.3923329], [-76.6109636, 39.3923183], [-76.6096908, 39.3917356], [-76.6094808, 39.3916395], [-76.609365, 39.3915867], [-76.6091778, 39.3914977], [-76.6087784, 39.3913086], [-76.6086144, 39.3912411], [-76.6084865, 39.3911829], [-76.6083811, 39.3911337], [-76.6081831, 39.3910437], [-76.6078723, 39.3909029], [-76.6075603, 39.3907596], [-76.6073386, 39.3906592], [-76.6072232, 39.3906085], [-76.6071653, 39.390583], [-76.6070845, 39.390551], [-76.6069477, 39.3904997], [-76.6068624, 39.3904702], [-76.6067815, 39.3904435], [-76.6066551, 39.3904066], [-76.6065046, 39.3903633], [-76.6064526, 39.3903483], [-76.6063885, 39.3903312], [-76.6063246, 39.390314], [-76.6062773, 39.3903026], [-76.6061817, 39.3902796], [-76.6060561, 39.3902519], [-76.6059599, 39.3902325], [-76.6058592, 39.390213], [-76.6057647, 39.3901997], [-76.6057087, 39.3901952], [-76.6056634, 39.3902022], [-76.6056067, 39.3902171], [-76.6055577, 39.3902388], [-76.6055079, 39.3902713], [-76.6054784, 39.3903002], [-76.605475, 39.3903051], [-76.6053719, 39.3904925], [-76.6051821, 39.3908378], [-76.6051209, 39.390995], [-76.6050367, 39.3912761], [-76.6049955, 39.3914255], [-76.6048281, 39.3920355], [-76.6047265, 39.3923955], [-76.6046846, 39.3925464], [-76.6046305, 39.3927431], [-76.6046043, 39.3928393], [-76.6045492, 39.3930438], [-76.6044937, 39.3932513], [-76.6044796, 39.393304], [-76.6044656, 39.3933567], [-76.6043869, 39.3936288], [-76.6044141, 39.3936324], [-76.6043479, 39.3939354], [-76.6042368, 39.3943848], [-76.6041257, 39.3947991], [-76.6041124, 39.3948394], [-76.6041068, 39.3948808], [-76.6041091, 39.3949223], [-76.6041191, 39.3949631], [-76.6041368, 39.3950024], [-76.6041616, 39.3950392], [-76.604193, 39.3950728], [-76.6042305, 39.3951026], [-76.6042732, 39.3951277], [-76.6044478, 39.3952083], [-76.6046188, 39.3952934], [-76.604786, 39.395383], [-76.6049492, 39.395477], [-76.6051081, 39.3955752], [-76.6052626, 39.3956776], [-76.6055162, 39.395855], [-76.6057648, 39.3960367], [-76.6060081, 39.3962226], [-76.606246, 39.3964126], [-76.6064785, 39.3966067], [-76.6066766, 39.3967164]]], [[[-76.6136069, 39.3911451], [-76.6136913, 39.3911926], [-76.6143788, 39.3909988], [-76.6145097, 39.3910624], [-76.6146668, 39.3911013], [-76.6155141, 39.391194], [-76.6156157, 39.3911792], [-76.6156713, 39.3911364], [-76.6159771, 39.3908122], [-76.6161061, 39.3906949], [-76.6162363, 39.390586], [-76.6163637, 39.3901154], [-76.616675, 39.3900785], [-76.6170673, 39.3897772], [-76.6189961, 39.3897005], [-76.6190499, 39.3894973], [-76.6190512, 39.3894769], [-76.6190666, 39.3892348], [-76.6190944, 39.3891272], [-76.6191447, 39.3890518], [-76.6192356, 39.3889679], [-76.619315, 39.3889002], [-76.619441, 39.3888133], [-76.6195848, 39.3887446], [-76.6202198, 39.3884711], [-76.6203709, 39.388374], [-76.6205346, 39.3882492], [-76.6206303, 39.3881574], [-76.6206582, 39.3881306], [-76.6207373, 39.3880417], [-76.6208844, 39.3878579], [-76.6211352, 39.3875204], [-76.6212457, 39.3874223], [-76.6214508, 39.3873113], [-76.6223159, 39.3872268], [-76.6225769, 39.3872099], [-76.6234738, 39.3871628], [-76.6238419, 39.3871874], [-76.6238557, 39.3870295], [-76.6239759, 39.3870335], [-76.6239863, 39.386924], [-76.6240052, 39.3868152], [-76.6240328, 39.3867075], [-76.6240688, 39.3866013], [-76.6241131, 39.386497], [-76.6241655, 39.386395], [-76.6242259, 39.3862957], [-76.622634, 39.386073], [-76.6217826, 39.3858825], [-76.6212412, 39.3850672], [-76.6208354, 39.3837564], [-76.6206963, 39.383307], [-76.6205051, 39.3827222], [-76.6201965, 39.3829963], [-76.6198511, 39.3833033], [-76.6197499, 39.3833931], [-76.6194932, 39.3836214], [-76.6183021, 39.3846877], [-76.6169886, 39.3858934], [-76.6166798, 39.3856883], [-76.6161066, 39.3853046], [-76.615171, 39.3851112], [-76.6140225, 39.3848739], [-76.6124993, 39.3845554], [-76.611337, 39.383714], [-76.6112433, 39.3837296], [-76.6112812, 39.3838208], [-76.611327, 39.3839097], [-76.6114273, 39.3840659], [-76.6115197, 39.384225], [-76.6116041, 39.3843868], [-76.6116804, 39.384551], [-76.6117484, 39.3847173], [-76.611808, 39.3848856], [-76.6118545, 39.3850543], [-76.6119088, 39.3852217], [-76.6119588, 39.3853432], [-76.6120144, 39.3854634], [-76.6120753, 39.3855819], [-76.6121417, 39.3856987], [-76.6122092, 39.3858115], [-76.6122845, 39.3859213], [-76.612866, 39.3866687], [-76.6129254, 39.3867497], [-76.6129357, 39.3867673], [-76.6136696, 39.387398], [-76.6146421, 39.3879951], [-76.6136817, 39.3888497], [-76.6132678, 39.3892179], [-76.6132557, 39.3893005], [-76.6132357, 39.3898226], [-76.6132473, 39.3899735], [-76.6132663, 39.3901239], [-76.6132929, 39.3902736], [-76.6133269, 39.3904225], [-76.6133684, 39.3905701], [-76.6134172, 39.3907165], [-76.6134733, 39.3908612], [-76.6135365, 39.3910042], [-76.6136069, 39.3911451]]], [[[-76.6238419, 39.3871874], [-76.6238417, 39.3871905], [-76.6238439, 39.3871876], [-76.6238419, 39.3871874]]], [[[-76.6051972, 39.3963682], [-76.6051682, 39.3965627], [-76.6054011, 39.3965447], [-76.6055565, 39.3964246], [-76.6055813, 39.3962287], [-76.6053122, 39.3960339], [-76.6050393, 39.3958423], [-76.6047626, 39.3956541], [-76.6046861, 39.3956026], [-76.6046055, 39.395555], [-76.6045211, 39.3955114], [-76.6044333, 39.3954722], [-76.6043424, 39.3954374], [-76.6042489, 39.3954072], [-76.604089, 39.3959862], [-76.6045527, 39.3961251], [-76.6046466, 39.3962245], [-76.6046746, 39.3963139], [-76.6051972, 39.3963682]]], [[[-76.6146593, 39.3968721], [-76.614717, 39.3968748], [-76.6147446, 39.3968268], [-76.6147777, 39.3967697], [-76.6148874, 39.3965804], [-76.6150565, 39.3962846], [-76.6152038, 39.3960285], [-76.6153169, 39.395832], [-76.6153261, 39.3958189], [-76.6144611, 39.3959681], [-76.6137922, 39.3960101], [-76.6130958, 39.3960067], [-76.6129627, 39.39603], [-76.6129828, 39.3960827], [-76.6129149, 39.3960982], [-76.6128898, 39.3960324], [-76.6112893, 39.3964517], [-76.6110785, 39.3965698], [-76.61116, 39.3967113], [-76.6113519, 39.3967201], [-76.6115465, 39.396729], [-76.6117766, 39.3967396], [-76.6119754, 39.3967488], [-76.6121827, 39.3967583], [-76.6123973, 39.396768], [-76.6126189, 39.3967783], [-76.6128106, 39.3967872], [-76.6130327, 39.3967974], [-76.6132369, 39.3968068], [-76.6134606, 39.396817], [-76.6136742, 39.3968269], [-76.6138887, 39.3968367], [-76.6140649, 39.3968448], [-76.6142732, 39.3968544], [-76.6143769, 39.3968591], [-76.6144686, 39.3968634], [-76.6146021, 39.3968695], [-76.6146593, 39.3968721]]], [[[-76.6100695, 39.3894805], [-76.6086406, 39.388967], [-76.6082208, 39.3887338], [-76.6080194, 39.3893903], [-76.6079936, 39.3894027], [-76.6078196, 39.3893711], [-76.6077672, 39.389542], [-76.6077448, 39.3895838], [-76.6070815, 39.3894308], [-76.6070227, 39.3892993], [-76.6070094, 39.3892176], [-76.6069976, 39.3889242], [-76.6058008, 39.3886466], [-76.6057295, 39.3888946], [-76.6056177, 39.3896603], [-76.6056165, 39.389699], [-76.6056235, 39.3897373], [-76.6056385, 39.3897742], [-76.6056611, 39.3898087], [-76.6056907, 39.3898398], [-76.6057266, 39.3898667], [-76.6057676, 39.3898887], [-76.6058127, 39.3899052], [-76.6058607, 39.3899157], [-76.6061285, 39.389964], [-76.6063184, 39.3900011], [-76.6065061, 39.3900443], [-76.6067036, 39.3900926], [-76.6068774, 39.3901455], [-76.6070475, 39.3902013], [-76.6072206, 39.3902748], [-76.6073852, 39.3903443], [-76.6075464, 39.3904183], [-76.6077042, 39.3904967], [-76.6078582, 39.3905795], [-76.6079845, 39.3906504], [-76.6079926, 39.3906538], [-76.6080014, 39.3906562], [-76.6080105, 39.3906573], [-76.6080197, 39.3906572], [-76.6080287, 39.390656], [-76.6080374, 39.3906536], [-76.6080455, 39.3906501], [-76.6080526, 39.3906456], [-76.6080587, 39.3906402], [-76.6080969, 39.3906023], [-76.6081412, 39.3905686], [-76.608191, 39.3905399], [-76.6082452, 39.3905165], [-76.6083029, 39.3904989], [-76.6083632, 39.3904875], [-76.6084699, 39.3904779], [-76.6085771, 39.3904731], [-76.6086845, 39.3904731], [-76.6088051, 39.3904787], [-76.6089249, 39.3904903], [-76.6090435, 39.3905078], [-76.6091605, 39.3905311], [-76.6092753, 39.3905601], [-76.6093875, 39.3905948], [-76.6100695, 39.3894805]]], [[[-76.6111753, 39.392192], [-76.6112321, 39.392218], [-76.611279, 39.3922378], [-76.6113263, 39.3922578], [-76.6114625, 39.3923115], [-76.6116021, 39.3923594], [-76.611745, 39.3924013], [-76.6118906, 39.3924371], [-76.6120385, 39.3924666], [-76.6121882, 39.3924899], [-76.6123394, 39.3925068], [-76.6124915, 39.3925172], [-76.6126441, 39.3925212], [-76.6127968, 39.3925188], [-76.6129491, 39.3925098], [-76.6131005, 39.3924945], [-76.6132506, 39.3924727], [-76.613399, 39.3924447], [-76.6135452, 39.3924103], [-76.6136887, 39.3923699], [-76.6138292, 39.3923234], [-76.6139213, 39.392289], [-76.61393, 39.3922815], [-76.6139371, 39.3922731], [-76.6139423, 39.3922638], [-76.6139455, 39.392254], [-76.6139465, 39.392244], [-76.6139454, 39.3922339], [-76.6139422, 39.3922241], [-76.6134312, 39.391306], [-76.61338, 39.3912223], [-76.6133243, 39.3911153], [-76.6132092, 39.3908512], [-76.6131132, 39.3905742], [-76.6130688, 39.3903887], [-76.6130331, 39.3902021], [-76.6130061, 39.3900145], [-76.6129878, 39.3898264], [-76.6130019, 39.3894584], [-76.6129604, 39.3894959], [-76.6128377, 39.3895781], [-76.6127212, 39.3896657], [-76.6126114, 39.3897583], [-76.6125085, 39.3898556], [-76.612413, 39.3899573], [-76.6123252, 39.3900631], [-76.6122453, 39.3901726], [-76.6121736, 39.3902855], [-76.6121103, 39.3904013], [-76.6120857, 39.3905119], [-76.6120679, 39.3906233], [-76.6120572, 39.3907352], [-76.6120534, 39.3908474], [-76.6120356, 39.390972], [-76.6120091, 39.3910957], [-76.6119741, 39.3912181], [-76.6119306, 39.3913388], [-76.6118788, 39.3914575], [-76.6118189, 39.391574], [-76.6117142, 39.3916936], [-76.6116038, 39.3918102], [-76.611488, 39.3919236], [-76.6113669, 39.3920335], [-76.6112407, 39.3921399], [-76.6111753, 39.392192]]]]}}