{"type": "Feature", "properties": {"market_key": 22, "university": "University of West Georgia", "osm_type": "way", "osm_id": 245212241, "osm_name": "University of West Georgia"}, "geometry": {"type": "Polygon", "coordinates": [[[-85.1058705, 33.5768035], [-85.1038799, 33.5771997], [-85.101928, 33.5780566], [-85.1003963, 33.5787844], [-85.1002475, 33.5794752], [-85.1000177, 33.5794435], [-85.099056, 33.5792921], [-85.0986473, 33.5792134], [-85.0986071, 33.5792056], [-85.0986284, 33.5790124], [-85.0977815, 33.5789758], [-85.0975627, 33.5789664], [-85.0970929, 33.5789702], [-85.0969795, 33.5788576], [-85.0968625, 33.5787415], [-85.0968019, 33.5786262], [-85.0964043, 33.5779222], [-85.0959808, 33.5775782], [-85.0947497, 33.5763046], [-85.0954173, 33.576282], [-85.0958479, 33.5762674], [-85.0959402, 33.5762643], [-85.0964917, 33.5762264], [-85.0965026, 33.575422], [-85.0954267, 33.5754321], [-85.0952568, 33.5756179], [-85.0949719, 33.5759221], [-85.0948007, 33.5760851], [-85.0946606, 33.57621], [-85.0946138, 33.5761932], [-85.0944559, 33.5760893], [-85.0942072, 33.5758912], [-85.0938328, 33.5755238], [-85.093825, 33.5753103], [-85.0937412, 33.5730143], [-85.0936975, 33.5718163], [-85.0966939, 33.5711448], [-85.0993136, 33.570301], [-85.0995775, 33.5701665], [-85.1005285, 33.5698316], [-85.1032704, 33.568809], [-85.1038096, 33.5684843], [-85.1043498, 33.5680442], [-85.1049918, 33.5672039], [-85.1057873, 33.5678839], [-85.1053807, 33.5690718], [-85.108497, 33.5693539], [-85.110357, 33.56982], [-85.1112448, 33.5699613], [-85.1127559, 33.5700039], [-85.1129206, 33.5755182], [-85.1130374, 33.5761315], [-85.1210135, 33.5737753], [-85.1233698, 33.5746766], [-85.1247976, 33.578774], [-85.1220011, 33.5786221], [-85.1219877, 33.5793445], [-85.1233978, 33.580428], [-85.1243225, 33.5805019], [-85.1245448, 33.5805206], [-85.1246187, 33.5805263], [-85.1245099, 33.580685], [-85.1243351, 33.5808536], [-85.1233016, 33.5815669], [-85.1222623, 33.5822313], [-85.1189038, 33.5823329], [-85.1166068, 33.5816044], [-85.1136507, 33.578643], [-85.1113139, 33.5775604], [-85.1058705, 33.5768035]]]}}