{"type": "Feature", "properties": {"market_key": 2227, "university": "University of Michigan Dearborn", "osm_type": "way", "osm_id": 228379953, "osm_name": "University of Michigan-Dearborn"}, "geometry": {"type": "Polygon", "coordinates": [[[-83.233952, 42.3220724], [-83.2340736, 42.3220498], [-83.2342855, 42.3220345], [-83.2347594, 42.3220264], [-83.234888, 42.3220256], [-83.235021, 42.3220198], [-83.2351085, 42.3220124], [-83.2352159, 42.3220108], [-83.2359111, 42.3219902], [-83.2364653, 42.3219727], [-83.236962, 42.3219577], [-83.237743, 42.3219092], [-83.2378621, 42.3219085], [-83.2385565, 42.321897], [-83.2383217, 42.3210676], [-83.2380061, 42.3212], [-83.2378657, 42.3208848], [-83.2378676, 42.3208384], [-83.2378843, 42.3208059], [-83.2381675, 42.3206658], [-83.2382626, 42.3204755], [-83.2383389, 42.320248], [-83.2381374, 42.3199757], [-83.2377038, 42.3196775], [-83.2382636, 42.3195501], [-83.2383696, 42.319526], [-83.2384508, 42.3190516], [-83.2378992, 42.3190004], [-83.2375825, 42.3191219], [-83.2373423, 42.3192141], [-83.2363231, 42.3183358], [-83.2353655, 42.3174787], [-83.2339957, 42.3162723], [-83.2323643, 42.3148604], [-83.2322217, 42.3145504], [-83.2321259, 42.3145174], [-83.2319017, 42.3144402], [-83.2317845, 42.3143993], [-83.2316335, 42.3142793], [-83.23134, 42.314035], [-83.2308708, 42.3136813], [-83.2307273, 42.3136009], [-83.2306283, 42.3135454], [-83.230602, 42.3134598], [-83.2305096, 42.3134006], [-83.229966, 42.3131686], [-83.2293355, 42.3129898], [-83.2292442, 42.3129639], [-83.2285111, 42.3128102], [-83.2272859, 42.3126688], [-83.2271925, 42.3127154], [-83.2273874, 42.3138665], [-83.2274724, 42.3144185], [-83.2275147, 42.3146415], [-83.2276144, 42.3150705], [-83.2276514, 42.315208], [-83.2276824, 42.3153235], [-83.2277144, 42.3154195], [-83.2277644, 42.3155385], [-83.2279024, 42.3158585], [-83.2280524, 42.3161355], [-83.2282624, 42.3164575], [-83.2283375, 42.3165609], [-83.2286165, 42.3169801], [-83.2289824, 42.3174875], [-83.2292214, 42.3178085], [-83.2294955, 42.3181701], [-83.2296129, 42.3183435], [-83.2298853, 42.3187225], [-83.2299997, 42.3188787], [-83.2302103, 42.3191661], [-83.2303068, 42.3192979], [-83.2303769, 42.3193936], [-83.2304684, 42.3195185], [-83.2308229, 42.3200139], [-83.2310474, 42.3203275], [-83.2313245, 42.3207204], [-83.2314485, 42.3208814], [-83.2317368, 42.3211776], [-83.2322674, 42.3216185], [-83.2323894, 42.3216945], [-83.2325392, 42.3217969], [-83.2326747, 42.3218925], [-83.2328101, 42.321993], [-83.2329615, 42.322114], [-83.233952, 42.3220724]]]}}