{"type": "Feature", "properties": {"market_key": 224, "university": "Wright State University", "osm_type": "way", "osm_id": 696834183, "osm_name": "Wright State University"}, "geometry": {"type": "Polygon", "coordinates": [[[-84.050695, 39.779767], [-84.0508833, 39.7799568], [-84.0506151, 39.7808967], [-84.0501859, 39.781342], [-84.0487053, 39.7819026], [-84.0473428, 39.7825952], [-84.0466025, 39.7831476], [-84.0460339, 39.7837495], [-84.0458592, 39.7846468], [-84.0457023, 39.7854133], [-84.0458507, 39.7858361], [-84.0471252, 39.7869122], [-84.0472757, 39.7872257], [-84.0472355, 39.7876244], [-84.0470609, 39.7883739], [-84.0471483, 39.788386], [-84.0471159, 39.7886128], [-84.0466813, 39.7885757], [-84.0459574, 39.7885262], [-84.0461827, 39.7898411], [-84.0464295, 39.7906367], [-84.0469391, 39.7915641], [-84.0477113, 39.792306], [-84.0492777, 39.7916136], [-84.0495084, 39.7917042], [-84.0509836, 39.7913374], [-84.0522013, 39.7910653], [-84.0544973, 39.7906161], [-84.0555916, 39.7905006], [-84.0563138, 39.7903967], [-84.0564107, 39.7891729], [-84.0581355, 39.7892742], [-84.058019, 39.7903498], [-84.0588782, 39.7903678], [-84.0609453, 39.7905048], [-84.0630911, 39.7907851], [-84.0643678, 39.79102], [-84.065795, 39.7913992], [-84.0659881, 39.7892146], [-84.0641436, 39.7891156], [-84.0646199, 39.78512], [-84.0674041, 39.7852614], [-84.0673612, 39.7858303], [-84.0686599, 39.7867001], [-84.0699575, 39.7857561], [-84.070516, 39.7851171], [-84.0675237, 39.7848859], [-84.067683, 39.7836867], [-84.0689276, 39.7837609], [-84.0695606, 39.7829529], [-84.0699903, 39.7828416], [-84.0700654, 39.7823634], [-84.0698293, 39.7823387], [-84.0690032, 39.7804753], [-84.0690992, 39.7797868], [-84.0692607, 39.7797992], [-84.0694428, 39.7782666], [-84.0713308, 39.7783522], [-84.0712891, 39.7781739], [-84.0711275, 39.7774822], [-84.070494, 39.7775029], [-84.0700332, 39.7773915], [-84.0700043, 39.7772669], [-84.070018, 39.776992], [-84.069871, 39.776445], [-84.0672456, 39.776888], [-84.066219, 39.7770424], [-84.0659669, 39.7770836], [-84.0658285, 39.7770974], [-84.0653071, 39.7771496], [-84.0633437, 39.7774753], [-84.06244, 39.7776252], [-84.0609834, 39.7778669], [-84.0608546, 39.7778875], [-84.0592874, 39.778157], [-84.0592086, 39.7781706], [-84.0591166, 39.7781864], [-84.0590333, 39.7782024], [-84.0575984, 39.7784771], [-84.0562144, 39.7787492], [-84.055731, 39.778885], [-84.0553283, 39.7789574], [-84.0540333, 39.7791903], [-84.0535286, 39.7792794], [-84.0533088, 39.7793182], [-84.0531686, 39.7793421], [-84.0520947, 39.7795253], [-84.051639, 39.779603], [-84.0515027, 39.7796267], [-84.0514717, 39.7796321], [-84.050695, 39.779767]]]}}