{"type": "Feature", "properties": {"market_key": 2251, "university": "Jacksonville State University", "osm_type": "relation", "osm_id": 2688960, "osm_name": "Jacksonville State University"}, "geometry": {"type": "MultiPolygon", "coordinates": [[[[-85.7622775, 33.8208986], [-85.7623229, 33.8210379], [-85.7623765, 33.8211349], [-85.7620769, 33.8212464], [-85.7619715, 33.8213285], [-85.7617999, 33.8214617], [-85.7615809, 33.8215079], [-85.7613786, 33.8215413], [-85.7612629, 33.8215285], [-85.7611239, 33.8215424], [-85.7609669, 33.821555], [-85.7607625, 33.821601], [-85.7605862, 33.8216465], [-85.7603618, 33.8216859], [-85.7601108, 33.8217763], [-85.7598319, 33.8218485], [-85.7598279, 33.8221711], [-85.7598231, 33.8226788], [-85.7598208, 33.8230875], [-85.7585992, 33.8230828], [-85.7585951, 33.8238307], [-85.7585981, 33.824461], [-85.7585936, 33.8251068], [-85.7598059, 33.8251671], [-85.7597933, 33.8253034], [-85.7597934, 33.8254091], [-85.7598058, 33.8255584], [-85.7598281, 33.8259599], [-85.7598231, 33.8261734], [-85.7598454, 33.8264377], [-85.7598206, 33.8268823], [-85.7597967, 33.8276893], [-85.7614003, 33.8276727], [-85.7615441, 33.8278181], [-85.7617533, 33.8279651], [-85.7620816, 33.8280381], [-85.7623605, 33.8282163], [-85.7623525, 33.8284458], [-85.7622667, 33.8286018], [-85.7623353, 33.8287851], [-85.7621916, 33.8290697], [-85.7614083, 33.8290363], [-85.7612189, 33.8290686], [-85.7604357, 33.82918], [-85.7603285, 33.8291959], [-85.7602789, 33.8291923], [-85.760114, 33.8291898], [-85.7599073, 33.8291867], [-85.7598234, 33.8291651], [-85.7597581, 33.8291532], [-85.7597582, 33.8292462], [-85.7597497, 33.8295872], [-85.7597437, 33.8297779], [-85.7597211, 33.8306346], [-85.7597329, 33.8315384], [-85.7604231, 33.8315697], [-85.7604203, 33.8306181], [-85.7616294, 33.8306449], [-85.7635799, 33.8306834], [-85.7636507, 33.8306895], [-85.7636872, 33.8306856], [-85.7637097, 33.8306673], [-85.7637204, 33.8306182], [-85.7637472, 33.8300345], [-85.7637757, 33.8293882], [-85.7637855, 33.8292713], [-85.7638008, 33.8289777], [-85.7637971, 33.8287275], [-85.7638132, 33.828447], [-85.763822, 33.8282398], [-85.7640313, 33.8282186], [-85.7646911, 33.8282275], [-85.7647769, 33.8271669], [-85.7647976, 33.8260623], [-85.7648191, 33.8257741], [-85.7649814, 33.8257359], [-85.7651066, 33.8257336], [-85.7666095, 33.8257471], [-85.7666482, 33.8257475], [-85.7668295, 33.8257493], [-85.7677744, 33.825758], [-85.7680311, 33.8257604], [-85.7692166, 33.8257671], [-85.7693599, 33.8257651], [-85.7694204, 33.8254893], [-85.7695063, 33.8252197], [-85.7697298, 33.8246821], [-85.7699864, 33.8241434], [-85.7701107, 33.8240404], [-85.770201, 33.823905], [-85.7702466, 33.8237758], [-85.7702841, 33.8235997], [-85.7702788, 33.8235173], [-85.7702465, 33.823381], [-85.7703202, 33.8233792], [-85.7704784, 33.8233822], [-85.7706481, 33.8233872], [-85.7709716, 33.8234089], [-85.7710195, 33.8234158], [-85.7715755, 33.8235385], [-85.7719349, 33.8235913], [-85.7722199, 33.8236124], [-85.7724406, 33.8236092], [-85.7725186, 33.8236081], [-85.772525, 33.823768], [-85.772524, 33.8238296], [-85.772512, 33.824565], [-85.7725109, 33.8246288], [-85.7725944, 33.824627], [-85.7725999, 33.824765], [-85.7726025, 33.8256893], [-85.7726052, 33.8257806], [-85.7726266, 33.8258363], [-85.7726749, 33.8258675], [-85.7727339, 33.8258764], [-85.7732918, 33.8258787], [-85.7737254, 33.8258837], [-85.7742494, 33.825892], [-85.7744318, 33.825892], [-85.7748734, 33.8258904], [-85.7750665, 33.8258904], [-85.7753008, 33.8258898], [-85.7754832, 33.8258876], [-85.7756807, 33.8258815], [-85.775898, 33.8258725], [-85.7760652, 33.8258653], [-85.7764676, 33.8258319], [-85.7771891, 33.8257561], [-85.7773366, 33.8257383], [-85.7773634, 33.8257294], [-85.7773715, 33.8257071], [-85.7773875, 33.8255578], [-85.7773839, 33.8251796], [-85.7773018, 33.8241606], [-85.7772964, 33.8234344], [-85.7772853, 33.822656], [-85.7770619, 33.822642], [-85.7767424, 33.822567], [-85.7767441, 33.8223515], [-85.7767438, 33.8221753], [-85.7773661, 33.8221709], [-85.7773839, 33.821445], [-85.7766875, 33.8214935], [-85.7767009, 33.8221776], [-85.7766946, 33.8223524], [-85.7762561, 33.8223601], [-85.7744834, 33.8223572], [-85.7726964, 33.8223911], [-85.7724872, 33.8223848], [-85.7724996, 33.821962], [-85.7724925, 33.8213219], [-85.7724755, 33.8203754], [-85.7724925, 33.8200853], [-85.7725462, 33.8195104], [-85.7725944, 33.819185], [-85.7702734, 33.8191431], [-85.7702824, 33.8185989], [-85.7700222, 33.8185967], [-85.769931, 33.8186547], [-85.7697218, 33.8187906], [-85.7694107, 33.8189644], [-85.7690932, 33.8190896], [-85.7686533, 33.8190896], [-85.7686185, 33.8185816], [-85.7685917, 33.8185764], [-85.7682939, 33.8185742], [-85.7674088, 33.8185742], [-85.7673665, 33.818574], [-85.7672415, 33.8185744], [-85.7657183, 33.8185739], [-85.7656654, 33.8185742], [-85.7650217, 33.8185697], [-85.7645737, 33.8185742], [-85.7644678, 33.8185625], [-85.7637932, 33.8185475], [-85.7637476, 33.8185564], [-85.7636457, 33.818563], [-85.7631012, 33.8185697], [-85.7626291, 33.8185653], [-85.7622902, 33.8185705], [-85.7622402, 33.8185713], [-85.7624413, 33.8191387], [-85.7624789, 33.8192345], [-85.761686, 33.8194323], [-85.7617091, 33.8195369], [-85.7618014, 33.8197555], [-85.762031, 33.8202878], [-85.7621436, 33.8205285], [-85.7622695, 33.8208766], [-85.7622775, 33.8208986]], [[-85.7634725, 33.8258966], [-85.7634189, 33.8269528], [-85.7638641, 33.8269617], [-85.7638695, 33.8265918], [-85.7638856, 33.8262576], [-85.7639124, 33.8258921], [-85.7634725, 33.8258966]]]]}}