{"type": "Feature", "properties": {"market_key": 2253, "university": "University of North Alabama", "osm_type": "way", "osm_id": 443666478, "osm_name": "University of North Alabama"}, "geometry": {"type": "Polygon", "coordinates": [[[-87.6775278, 34.8063752], [-87.678999, 34.8057531], [-87.6792553, 34.8055137], [-87.6793701, 34.8054593], [-87.6793944, 34.8053831], [-87.6786616, 34.8042366], [-87.6797343, 34.8037721], [-87.6804547, 34.8049278], [-87.6817581, 34.8069883], [-87.6820475, 34.8074363], [-87.6822242, 34.8073611], [-87.6833594, 34.8068822], [-87.6834626, 34.8067727], [-87.6835258, 34.8066297], [-87.6835177, 34.8065127], [-87.6834637, 34.8063867], [-87.6833024, 34.8062256], [-87.6830025, 34.8060228], [-87.6825421, 34.8058244], [-87.6820909, 34.805669], [-87.681476, 34.8054061], [-87.6809702, 34.8052477], [-87.6806391, 34.8048295], [-87.6806469, 34.8047661], [-87.6813825, 34.8044193], [-87.6815323, 34.8043594], [-87.6817368, 34.8047297], [-87.682241, 34.8045339], [-87.6832019, 34.8041306], [-87.6835436, 34.8046792], [-87.6836904, 34.8046175], [-87.6848368, 34.8041178], [-87.6850996, 34.8045096], [-87.6856674, 34.8043173], [-87.6858838, 34.8047001], [-87.6853912, 34.8048706], [-87.6856718, 34.8051644], [-87.6858352, 34.8053004], [-87.685206, 34.805678], [-87.6859395, 34.8064618], [-87.6863673, 34.8062195], [-87.6864885, 34.8061651], [-87.6866006, 34.8060855], [-87.6869042, 34.806417], [-87.6867664, 34.8066301], [-87.6862154, 34.8070226], [-87.6859161, 34.8071056], [-87.6857215, 34.8066638], [-87.6854274, 34.8071407], [-87.6852721, 34.8071703], [-87.6853146, 34.8073148], [-87.6854222, 34.8077246], [-87.6856719, 34.808517], [-87.6857823, 34.8087496], [-87.6861232, 34.8092029], [-87.6868146, 34.8100663], [-87.6867913, 34.8100752], [-87.6854318, 34.8105945], [-87.6852302, 34.8102949], [-87.6851582, 34.810287], [-87.6842705, 34.81066], [-87.6841211, 34.8107167], [-87.6842411, 34.8109335], [-87.6842075, 34.8109927], [-87.6832993, 34.811326], [-87.6828212, 34.8105713], [-87.6827611, 34.8104798], [-87.6826443, 34.810535], [-87.6817276, 34.8109534], [-87.6812834, 34.8101819], [-87.6810463, 34.809778], [-87.6809738, 34.8096865], [-87.680772, 34.8095586], [-87.6805791, 34.8094874], [-87.6804323, 34.8094613], [-87.6801845, 34.8094874], [-87.6784521, 34.8095237], [-87.678376, 34.8094816], [-87.6783141, 34.8092462], [-87.678238, 34.8091315], [-87.677861, 34.8085125], [-87.6775903, 34.8080519], [-87.6780203, 34.8079008], [-87.6780893, 34.8077293], [-87.6780769, 34.8076088], [-87.6779053, 34.8076364], [-87.6777319, 34.807231], [-87.6778664, 34.8071772], [-87.6779088, 34.8069869], [-87.677723, 34.8066716], [-87.6775278, 34.8063752]]]}}