{"type": "Feature", "properties": {"market_key": 2256, "university": "Arkansas Tech University", "osm_type": "way", "osm_id": 951989507, "osm_name": "Arkansas Tech University"}, "geometry": {"type": "Polygon", "coordinates": [[[-93.1406097, 35.3004327], [-93.1363126, 35.3003222], [-93.1361916, 35.2994488], [-93.135914, 35.2992123], [-93.1354476, 35.2991453], [-93.1339598, 35.2989697], [-93.1331893, 35.2988441], [-93.1323244, 35.2983412], [-93.1314695, 35.2977312], [-93.1310246, 35.2968656], [-93.1310029, 35.2960587], [-93.1310623, 35.2955232], [-93.1312372, 35.295086], [-93.1314988, 35.2946923], [-93.1323691, 35.2939731], [-93.1327216, 35.2936567], [-93.1333237, 35.2927641], [-93.1333457, 35.2914789], [-93.1333612, 35.2904071], [-93.1334773, 35.2884942], [-93.1393707, 35.288554], [-93.1398854, 35.2895431], [-93.1399875, 35.2898704], [-93.1403241, 35.2935257], [-93.1403217, 35.2937921], [-93.1403115, 35.2949051], [-93.1405803, 35.296911], [-93.1403701, 35.2971095], [-93.1406097, 35.3004327]]]}}