{"type": "Feature", "properties": {"market_key": 2260, "university": "California State University San Bernardino", "osm_type": "way", "osm_id": 45101505, "osm_name": "California State University, San Bernardino"}, "geometry": {"type": "Polygon", "coordinates": [[[-117.3306969, 34.1874511], [-117.3305917, 34.1875122], [-117.3254639, 34.1889046], [-117.32478, 34.1889629], [-117.3240483, 34.1889152], [-117.3201248, 34.1880086], [-117.3197505, 34.187888], [-117.3184927, 34.1880171], [-117.3141176, 34.183311], [-117.3141979, 34.1815608], [-117.3138526, 34.1809679], [-117.31383, 34.1792339], [-117.3141457, 34.1792366], [-117.3142355, 34.1792199], [-117.3149312, 34.1791531], [-117.3160948, 34.1790514], [-117.3165227, 34.1789306], [-117.3172416, 34.1787159], [-117.3173163, 34.1786936], [-117.3185912, 34.1781129], [-117.3186803, 34.1781278], [-117.3190312, 34.1779331], [-117.3190628, 34.1778684], [-117.3193938, 34.1777546], [-117.3201341, 34.1775722], [-117.3207449, 34.1774628], [-117.3212425, 34.177412], [-117.3217249, 34.1773806], [-117.3225138, 34.1773873], [-117.3225139, 34.1770437], [-117.3225143, 34.1748753], [-117.3272378, 34.1782671], [-117.3271521, 34.1782789], [-117.3268506, 34.1784596], [-117.3266322, 34.1786719], [-117.3271418, 34.1790223], [-117.3274574, 34.1792786], [-117.3278065, 34.1795991], [-117.3280564, 34.1798663], [-117.3283798, 34.180255], [-117.3286109, 34.1805753], [-117.3289047, 34.1810591], [-117.3293311, 34.1818877], [-117.3292815, 34.1819472], [-117.3293434, 34.1820797], [-117.3293847, 34.182083], [-117.3294074, 34.1820924], [-117.3295299, 34.1824046], [-117.3297212, 34.1828022], [-117.3301738, 34.1837879], [-117.33016, 34.1838504], [-117.3302944, 34.184132], [-117.33037, 34.1841786], [-117.330616, 34.1848053], [-117.3306329, 34.1850789], [-117.3305726, 34.185294], [-117.3303735, 34.1857127], [-117.330326, 34.1859672], [-117.3303972, 34.1864864], [-117.330594, 34.1869445], [-117.3306789, 34.1872058], [-117.3306969, 34.1874511]]]}}