{"type": "Feature", "properties": {"market_key": 2264, "university": "University of Northern Colorado", "osm_type": "relation", "osm_id": 13274354, "osm_name": "University of Northern Colorado"}, "geometry": {"type": "MultiPolygon", "coordinates": [[[[-104.690754, 40.4150736], [-104.6900431, 40.4150756], [-104.6900417, 40.4147621], [-104.690757, 40.4147602], [-104.690763, 40.4148509], [-104.690754, 40.4150736]]], [[[-104.6845571, 40.4100072], [-104.6855537, 40.4098573], [-104.685737, 40.4098275], [-104.6859513, 40.4098135], [-104.6862556, 40.4097959], [-104.6872339, 40.4098061], [-104.687281, 40.4097737], [-104.68733, 40.4061393], [-104.6841601, 40.4061265], [-104.6842682, 40.4062485], [-104.6843124, 40.4064214], [-104.6842929, 40.4069863], [-104.6834516, 40.4071811], [-104.6840186, 40.4090804], [-104.6842235, 40.4098556], [-104.6842675, 40.4100294], [-104.6845571, 40.4100072]]], [[[-104.6925993, 40.4121983], [-104.6921912, 40.4121965], [-104.6921926, 40.4120094], [-104.6926007, 40.4120112], [-104.6925993, 40.4121983]]], [[[-104.6937658, 40.4055301], [-104.6937583, 40.4059594], [-104.6944656, 40.4059629], [-104.6944664, 40.4055443], [-104.6937658, 40.4055301]]], [[[-104.6954786, 40.4092636], [-104.6954815, 40.409127], [-104.6947844, 40.4091186], [-104.6947816, 40.4092552], [-104.6954786, 40.4092636]]], [[[-104.6953454, 40.4012769], [-104.6967187, 40.4012814], [-104.6967301, 40.4013019], [-104.6967374, 40.401308], [-104.6967592, 40.4013238], [-104.6967693, 40.4013279], [-104.6967793, 40.401332], [-104.6967901, 40.401332], [-104.6968035, 40.4026642], [-104.6967921, 40.4026683], [-104.6967753, 40.4026775], [-104.6967445, 40.4026928], [-104.6967391, 40.4027005], [-104.6967344, 40.4027107], [-104.6960391, 40.4027061], [-104.6960258, 40.4027075], [-104.6959976, 40.402706], [-104.6956583, 40.4027055], [-104.695619, 40.4027036], [-104.6953273, 40.4027036], [-104.6953454, 40.4012769]]], [[[-104.6967359, 40.4029663], [-104.6959234, 40.402961], [-104.6956444, 40.4029661], [-104.6948667, 40.402964], [-104.6948431, 40.4034642], [-104.694843, 40.4035184], [-104.6948221, 40.4038235], [-104.6948175, 40.4041227], [-104.6947846, 40.4042585], [-104.6947846, 40.4043054], [-104.6947831, 40.4045582], [-104.6947721, 40.4053659], [-104.6947662, 40.4054729], [-104.6947618, 40.4059345], [-104.6947746, 40.405938], [-104.6948668, 40.4060008], [-104.6963326, 40.4060102], [-104.6963812, 40.4060084], [-104.6964158, 40.4060037], [-104.696452, 40.405992], [-104.6964921, 40.4059756], [-104.6965267, 40.4059527], [-104.6965491, 40.4059328], [-104.6965753, 40.4058999], [-104.6965938, 40.4058653], [-104.6967668, 40.405473], [-104.6967909, 40.4054735], [-104.6968087, 40.4054307], [-104.6968302, 40.4053779], [-104.6968503, 40.4052946], [-104.6968657, 40.4052195], [-104.6968726, 40.4051597], [-104.6968764, 40.4050236], [-104.6968718, 40.4047403], [-104.6968707, 40.4034817], [-104.6968664, 40.4033836], [-104.696737, 40.4033203], [-104.6967398, 40.4032744], [-104.6967394, 40.4030595], [-104.6967359, 40.4029663]]], [[[-104.6952958, 40.4018534], [-104.6948077, 40.4018503], [-104.6948026, 40.4021164], [-104.6952916, 40.402119], [-104.6952958, 40.4018534]]], [[[-104.6954828, 40.406274], [-104.6954813, 40.4062496], [-104.6954747, 40.4062302], [-104.695464, 40.4062167], [-104.6948648, 40.4062105], [-104.6948603, 40.4062213], [-104.6948471, 40.4062364], [-104.6948251, 40.4062561], [-104.694816, 40.4062599], [-104.6948067, 40.4062616], [-104.6947945, 40.4069246], [-104.6947911, 40.407184], [-104.6947893, 40.4072323], [-104.69479, 40.4078886], [-104.6950103, 40.4079109], [-104.6950704, 40.4079214], [-104.6951597, 40.4079249], [-104.6954725, 40.4078874], [-104.6954791, 40.4071294], [-104.6954828, 40.406274]]], [[[-104.6944711, 40.4062322], [-104.6944449, 40.4062158], [-104.6938857, 40.4062099], [-104.6936685, 40.4062111], [-104.6935268, 40.4062158], [-104.6930246, 40.4062088], [-104.6930153, 40.4062463], [-104.6930015, 40.4072117], [-104.6930107, 40.4072645], [-104.6929552, 40.407268], [-104.6929506, 40.4075261], [-104.6929814, 40.4075613], [-104.6929876, 40.4078722], [-104.692946, 40.407993], [-104.6929442, 40.4081214], [-104.6929475, 40.4081455], [-104.6928643, 40.4081466], [-104.6911852, 40.4081408], [-104.6911667, 40.4092094], [-104.6911436, 40.4116715], [-104.6911698, 40.4116903], [-104.6912191, 40.4117043], [-104.6916566, 40.4117102], [-104.6924859, 40.4117169], [-104.6928658, 40.4117167], [-104.6929661, 40.4117162], [-104.6929475, 40.411763], [-104.6929398, 40.4118639], [-104.692957, 40.411957], [-104.6929461, 40.4125483], [-104.6929306, 40.4135717], [-104.6929891, 40.4136057], [-104.6931278, 40.4136352], [-104.6943794, 40.4136412], [-104.6943987, 40.4120685], [-104.6944009, 40.4118936], [-104.6943972, 40.4117214], [-104.6943999, 40.4114211], [-104.6944029, 40.4111282], [-104.6944028, 40.4107934], [-104.6944027, 40.410732], [-104.6944024, 40.4097333], [-104.6944083, 40.4095471], [-104.6944071, 40.4091497], [-104.6943749, 40.4091426], [-104.6943843, 40.4089727], [-104.6943919, 40.4085327], [-104.6943896, 40.4082758], [-104.6943976, 40.408151], [-104.6944047, 40.4079176], [-104.6944153, 40.4073459], [-104.6944129, 40.4073077], [-104.6944164, 40.4072295], [-104.6943898, 40.407134], [-104.6943771, 40.4071024], [-104.6943711, 40.4070697], [-104.6943724, 40.407036], [-104.6943865, 40.4069962], [-104.6944053, 40.406939], [-104.6944164, 40.4069032], [-104.6944141, 40.4067992], [-104.6944363, 40.4066516], [-104.6944351, 40.4066098], [-104.6944526, 40.4064134], [-104.6944596, 40.4063511], [-104.6944711, 40.4062322]]], [[[-104.6927859, 40.4062418], [-104.6927576, 40.4062269], [-104.6919719, 40.4062215], [-104.6919648, 40.4078641], [-104.692294, 40.4078614], [-104.6923453, 40.4078628], [-104.6926355, 40.4078695], [-104.6926444, 40.4072591], [-104.6926426, 40.4065894], [-104.6927718, 40.4065908], [-104.6927859, 40.4062418]]], [[[-104.6918977, 40.4066639], [-104.6912017, 40.4066618], [-104.6911963, 40.4062298], [-104.6912084, 40.4062135], [-104.6919124, 40.4062135], [-104.6918977, 40.4066639]]], [[[-104.6954312, 40.4122859], [-104.6947611, 40.4122718], [-104.6947519, 40.4111739], [-104.695462, 40.4111739], [-104.6954312, 40.4122859]]], [[[-104.6955789, 40.4064672], [-104.6960202, 40.4064734], [-104.6960443, 40.4062507], [-104.695988, 40.4062293], [-104.6956071, 40.4062232], [-104.695587, 40.4062364], [-104.6955776, 40.4062558], [-104.6955776, 40.4063222], [-104.6955803, 40.4064039], [-104.6955789, 40.4064672]]], [[[-104.7017051, 40.3993129], [-104.7017099, 40.3992364], [-104.7063421, 40.3992528], [-104.7063128, 40.4013602], [-104.7063118, 40.4015531], [-104.7062873, 40.401859], [-104.7062945, 40.4019911], [-104.7063173, 40.4019993], [-104.7063294, 40.4020125], [-104.7063401, 40.402035], [-104.7063414, 40.4020554], [-104.7063495, 40.4033453], [-104.7063521, 40.4035511], [-104.7063567, 40.4038748], [-104.7063617, 40.4040777], [-104.7063617, 40.4048563], [-104.7063373, 40.4049089], [-104.7060934, 40.4052703], [-104.7060232, 40.405357], [-104.7059653, 40.4054104], [-104.7058606, 40.4054809], [-104.7057224, 40.4055598], [-104.7056748, 40.4055821], [-104.7056301, 40.4056061], [-104.7055874, 40.4056262], [-104.7052663, 40.405728], [-104.7051909, 40.4057507], [-104.7049549, 40.4058227], [-104.7046823, 40.4058974], [-104.7039997, 40.4061057], [-104.7036161, 40.4062231], [-104.7034243, 40.4062711], [-104.703301, 40.4062936], [-104.7032044, 40.4063069], [-104.703128, 40.4063171], [-104.703022, 40.4063273], [-104.7029348, 40.4063324], [-104.7022039, 40.4063303], [-104.7020832, 40.4063293], [-104.7020537, 40.4063252], [-104.7020336, 40.4063099], [-104.7020323, 40.4062987], [-104.7019827, 40.4062201], [-104.7019773, 40.4062027], [-104.7017197, 40.4061975], [-104.7017195, 40.4062272], [-104.7017142, 40.4062522], [-104.7017041, 40.4062721], [-104.7016739, 40.4063063], [-104.7016511, 40.4063191], [-104.7016324, 40.4063319], [-104.7016451, 40.4063451], [-104.7016263, 40.4063523], [-104.7015995, 40.4063564], [-104.7015713, 40.4063584], [-104.7015123, 40.4063579], [-104.7008009, 40.4063538], [-104.7007419, 40.4063538], [-104.7005568, 40.4063529], [-104.6999315, 40.4063496], [-104.6997243, 40.4063533], [-104.6991702, 40.4063513], [-104.6987335, 40.40635], [-104.6983436, 40.4063514], [-104.698154, 40.4063528], [-104.6979852, 40.4063544], [-104.6978278, 40.4063523], [-104.6977388, 40.4063525], [-104.6976761, 40.4063459], [-104.6976476, 40.4063433], [-104.6974976, 40.406324], [-104.6973566, 40.4062981], [-104.6972695, 40.4062888], [-104.6971853, 40.4062721], [-104.697106, 40.406257], [-104.6970539, 40.4062487], [-104.6970157, 40.406237], [-104.6969848, 40.4062241], [-104.6969583, 40.406215], [-104.6969487, 40.4062011], [-104.6969179, 40.4061858], [-104.6968817, 40.4061582], [-104.6968589, 40.4061286], [-104.6968415, 40.4061041], [-104.6968345, 40.4060781], [-104.6968348, 40.4060237], [-104.6969992, 40.4056371], [-104.6970886, 40.4052415], [-104.6970856, 40.4048843], [-104.6970852, 40.4048363], [-104.6970835, 40.4046287], [-104.6971042, 40.4045674], [-104.6971259, 40.4044178], [-104.6971264, 40.4041978], [-104.6971397, 40.4040063], [-104.6972146, 40.4038419], [-104.6972159, 40.403729], [-104.6972198, 40.4036876], [-104.6972151, 40.4036835], [-104.6972151, 40.4036753], [-104.6972158, 40.4036595], [-104.6972158, 40.4036197], [-104.6972138, 40.4035931], [-104.6972091, 40.4035712], [-104.6972017, 40.4035497], [-104.697191, 40.4035324], [-104.6971642, 40.403493], [-104.6971467, 40.403467], [-104.697134, 40.4034415], [-104.6971245, 40.4034154], [-104.6971233, 40.4034037], [-104.6971233, 40.4033736], [-104.6971192, 40.4030488], [-104.6971027, 40.4029124], [-104.6971014, 40.4027883], [-104.6971155, 40.402648], [-104.697113, 40.4025086], [-104.6971157, 40.4024359], [-104.6971028, 40.4012754], [-104.6970996, 40.4010572], [-104.6970833, 40.4002893], [-104.6971102, 40.4001534], [-104.697134, 40.4001139], [-104.6971421, 40.4000914], [-104.6971494, 40.4000574], [-104.6971605, 40.4000191], [-104.6971665, 40.3999877], [-104.6971712, 40.3999535], [-104.6971756, 40.3999175], [-104.6971773, 40.3998843], [-104.6971756, 40.3998514], [-104.6971763, 40.3998331], [-104.6971832, 40.399821], [-104.6971718, 40.3997795], [-104.6971583, 40.3997079], [-104.6971473, 40.3996701], [-104.6971332, 40.399631], [-104.6971146, 40.3995834], [-104.6971041, 40.3995465], [-104.6970959, 40.3995087], [-104.69709, 40.3994661], [-104.69709, 40.3994296], [-104.6970889, 40.3993852], [-104.6970889, 40.3993327], [-104.697093, 40.3992918], [-104.6976253, 40.3992971], [-104.697651, 40.3992914], [-104.697675, 40.39929], [-104.6977667, 40.3992831], [-104.6998853, 40.3993001], [-104.6999047, 40.3993047], [-104.7004612, 40.3993103], [-104.7004691, 40.399305], [-104.7017051, 40.3993129]]]]}}