{"type": "Feature", "properties": {"market_key": 2267, "university": "Fairfield University", "osm_type": "way", "osm_id": 75032071, "osm_name": "Fairfield University"}, "geometry": {"type": "Polygon", "coordinates": [[[-73.2613925, 41.1660093], [-73.2600889, 41.1669226], [-73.2580314, 41.1652466], [-73.2564811, 41.1662181], [-73.2556267, 41.1647812], [-73.2552051, 41.1633044], [-73.2548031, 41.1623987], [-73.2541773, 41.1612954], [-73.2540476, 41.1610805], [-73.252903, 41.1589128], [-73.2522123, 41.1575481], [-73.2520696, 41.1572015], [-73.2519497, 41.1566473], [-73.2518394, 41.155744], [-73.2517259, 41.1548822], [-73.2517292, 41.1548065], [-73.2542616, 41.1533295], [-73.2556656, 41.1524994], [-73.2567875, 41.1518524], [-73.2569139, 41.1519061], [-73.2584087, 41.1534857], [-73.2592647, 41.154411], [-73.2597543, 41.154975], [-73.2599489, 41.1553045], [-73.2601013, 41.1555951], [-73.2604028, 41.1563787], [-73.2610254, 41.1581902], [-73.2611648, 41.1588566], [-73.2612913, 41.1591911], [-73.2617095, 41.1601602], [-73.2620468, 41.1612124], [-73.262157, 41.1614223], [-73.2624088, 41.1616676], [-73.2615749, 41.1623325], [-73.2596667, 41.1638637], [-73.2608814, 41.1647863], [-73.2610546, 41.1650455], [-73.2611635, 41.1655587], [-73.2613925, 41.1660093]]]}}