{"type": "Feature", "properties": {"market_key": 2269, "university": "University of Delaware", "osm_type": "way", "osm_id": 468467819, "osm_name": "University of Delaware"}, "geometry": {"type": "Polygon", "coordinates": [[[-75.7539273, 39.6848459], [-75.7542939, 39.6846877], [-75.7545036, 39.6846044], [-75.7548764, 39.6843691], [-75.7551849, 39.6841482], [-75.7556221, 39.6838345], [-75.7555993, 39.6828844], [-75.7561666, 39.6828746], [-75.7562014, 39.6828653], [-75.7564563, 39.6826507], [-75.7567391, 39.6824057], [-75.7569136, 39.6822523], [-75.7569243, 39.6822301], [-75.756929, 39.6822022], [-75.756929, 39.6821743], [-75.7569203, 39.6821449], [-75.7568995, 39.6821264], [-75.7568619, 39.6820949], [-75.756819, 39.6820711], [-75.7567701, 39.68205], [-75.7564164, 39.6819377], [-75.7563243, 39.6821108], [-75.7559774, 39.6820015], [-75.7560695, 39.6818284], [-75.7557079, 39.6817197], [-75.7559828, 39.6812129], [-75.7559359, 39.6811964], [-75.7561572, 39.6808176], [-75.7564482, 39.6809136], [-75.7565758, 39.6806928], [-75.7566534, 39.6805596], [-75.7569928, 39.6806764], [-75.7572058, 39.6807497], [-75.7577424, 39.6809343], [-75.7578513, 39.6809718], [-75.758189, 39.681088], [-75.7588656, 39.6804593], [-75.7592437, 39.680108], [-75.7589186, 39.6799146], [-75.7587884, 39.6798371], [-75.7585068, 39.6796874], [-75.7583841, 39.6796332], [-75.7582359, 39.679576], [-75.7576807, 39.679384], [-75.7579371, 39.6782864], [-75.7579744, 39.6781268], [-75.7569042, 39.6781392], [-75.7567211, 39.6781717], [-75.7543936, 39.6781887], [-75.7543507, 39.6775509], [-75.7534978, 39.6775405], [-75.7534502, 39.6745941], [-75.7534354, 39.6745451], [-75.7534166, 39.6745193], [-75.7533841, 39.674503], [-75.7533414, 39.6744911], [-75.7504534, 39.6743941], [-75.7499621, 39.6743776], [-75.7499243, 39.6748599], [-75.749744, 39.674864], [-75.7497335, 39.6750238], [-75.7497327, 39.6750366], [-75.7497239, 39.675179], [-75.7497172, 39.6752872], [-75.7473241, 39.6752062], [-75.74673, 39.6751951], [-75.7463904, 39.6751629], [-75.7460364, 39.6751015], [-75.7456224, 39.6750288], [-75.7457071, 39.6755537], [-75.7450067, 39.6756864], [-75.7451646, 39.6761215], [-75.744816, 39.6761959], [-75.7449241, 39.6764774], [-75.7451843, 39.6764175], [-75.7452889, 39.6767901], [-75.74544, 39.6767617], [-75.7455397, 39.6771999], [-75.7457985, 39.6771689], [-75.7461673, 39.6770151], [-75.7465522, 39.6770151], [-75.746689, 39.677074], [-75.7469531, 39.6789375], [-75.7469666, 39.679033], [-75.7469731, 39.6790796], [-75.7472785, 39.681256], [-75.7478008, 39.6812165], [-75.7478397, 39.6815535], [-75.7482448, 39.6815276], [-75.7482433, 39.6814563], [-75.7485565, 39.6814606], [-75.7485341, 39.6819932], [-75.748881, 39.6819693], [-75.7497917, 39.6819017], [-75.7498165, 39.6818994], [-75.75047, 39.6818446], [-75.7514566, 39.6817569], [-75.7516496, 39.6817487], [-75.7519012, 39.6817264], [-75.751918, 39.6818498], [-75.7519501, 39.6821315], [-75.7520407, 39.6830413], [-75.7521218, 39.6832121], [-75.7521553, 39.6835429], [-75.7521292, 39.683545], [-75.7521459, 39.6837277], [-75.7505634, 39.6838665], [-75.7505966, 39.6841809], [-75.7506003, 39.6842164], [-75.7500108, 39.6842721], [-75.7490977, 39.6843582], [-75.7490171, 39.684366], [-75.7492632, 39.685862], [-75.7539273, 39.6848459]]]}}