{"type": "Feature", "properties": {"market_key": 2272, "university": "Embry-Riddle Aeronautical University", "osm_type": "way", "osm_id": 361065421, "osm_name": "Embry-Riddle Aeronautical University"}, "geometry": {"type": "Polygon", "coordinates": [[[-81.0496778, 29.1859433], [-81.0490662, 29.1861869], [-81.048735, 29.1862119], [-81.0454506, 29.1875966], [-81.0451395, 29.1876855], [-81.044764, 29.1879057], [-81.04454, 29.1881649], [-81.0444218, 29.1883112], [-81.0430512, 29.1897063], [-81.0441478, 29.1902404], [-81.0442904, 29.190434], [-81.0442824, 29.1907036], [-81.0441727, 29.1913776], [-81.0440607, 29.1920656], [-81.0440686, 29.1926326], [-81.0443062, 29.1931926], [-81.0449015, 29.1938119], [-81.0457792, 29.1943195], [-81.0471414, 29.1948864], [-81.0477802, 29.1950052], [-81.0481403, 29.1950982], [-81.0485194, 29.195156], [-81.0492242, 29.1952321], [-81.0526534, 29.1938563], [-81.0527801, 29.1941052], [-81.0530098, 29.1947758], [-81.0537129, 29.1970881], [-81.0538018, 29.1972162], [-81.0539681, 29.197237], [-81.0567399, 29.1962622], [-81.0563202, 29.1953773], [-81.0559603, 29.195497], [-81.0556514, 29.1955515], [-81.0553355, 29.1955333], [-81.0550196, 29.1954485], [-81.0547767, 29.1952697], [-81.0546274, 29.1951061], [-81.0544677, 29.1948152], [-81.0543497, 29.1945515], [-81.0546808, 29.1944271], [-81.0557523, 29.1940243], [-81.0560704, 29.1939047], [-81.0549089, 29.1914407], [-81.0548385, 29.1914378], [-81.0536197, 29.1914138], [-81.0536153, 29.1912073], [-81.0541732, 29.1912307], [-81.0542174, 29.1909842], [-81.0541488, 29.19097], [-81.0541262, 29.1909654], [-81.0542062, 29.1905683], [-81.0542624, 29.1902897], [-81.0542643, 29.19028], [-81.0538996, 29.1894792], [-81.0532319, 29.1897272], [-81.0529713, 29.1891878], [-81.0530246, 29.1891681], [-81.0537362, 29.1889053], [-81.0536969, 29.1888245], [-81.0535966, 29.1886178], [-81.0535853, 29.1885946], [-81.0533369, 29.1880833], [-81.0528415, 29.1882623], [-81.0526268, 29.1883398], [-81.0526056, 29.1883475], [-81.0523775, 29.1878614], [-81.0521015, 29.1876971], [-81.0517589, 29.1874703], [-81.051774, 29.1874507], [-81.0519437, 29.187236], [-81.0518771, 29.1871959], [-81.0519025, 29.1871637], [-81.0515782, 29.1869684], [-81.051602, 29.1869138], [-81.0516137, 29.1867917], [-81.0516105, 29.1867611], [-81.0515969, 29.1866303], [-81.0515549, 29.1865312], [-81.0513657, 29.1864175], [-81.0512258, 29.1864598], [-81.0511598, 29.1864798], [-81.0510841, 29.1864138], [-81.0509749, 29.1863698], [-81.0509791, 29.1861643], [-81.0509492, 29.1861469], [-81.0508782, 29.1861056], [-81.0507521, 29.1860579], [-81.0507137, 29.1861075], [-81.0506182, 29.1862308], [-81.0505588, 29.1863074], [-81.0505083, 29.1862744], [-81.0503132, 29.1864862], [-81.0502788, 29.1865248], [-81.0502191, 29.1865958], [-81.0499566, 29.1864397], [-81.0497208, 29.1860245], [-81.0496778, 29.1859433]]]}}