{"type": "Feature", "properties": {"market_key": 2273, "university": "Florida Gulf Coast University", "osm_type": "way", "osm_id": 165049342, "osm_name": "Florida Gulf Coast University"}, "geometry": {"type": "Polygon", "coordinates": [[[-81.7861179, 26.4704331], [-81.7852353, 26.4704759], [-81.7849193, 26.4704865], [-81.7846028, 26.4704625], [-81.784238, 26.4703809], [-81.7839585, 26.4702647], [-81.7833797, 26.4699631], [-81.7829715, 26.4697364], [-81.7826341, 26.4695789], [-81.7823122, 26.4694877], [-81.7820386, 26.4694541], [-81.7817221, 26.4694445], [-81.7813412, 26.4694733], [-81.7809979, 26.4695549], [-81.7806862, 26.4696884], [-81.7781328, 26.4712299], [-81.7777895, 26.4714267], [-81.7775057, 26.4715189], [-81.7772637, 26.4715612], [-81.7769531, 26.4715862], [-81.7766796, 26.4715862], [-81.7763041, 26.4715285], [-81.7758856, 26.4713989], [-81.7756491, 26.4712923], [-81.775531, 26.4712251], [-81.7738418, 26.4712692], [-81.7738581, 26.4726429], [-81.772631, 26.4726595], [-81.7725063, 26.4726477], [-81.7724325, 26.4726403], [-81.7723776, 26.4725853], [-81.7723574, 26.4725298], [-81.7723776, 26.4719226], [-81.7723507, 26.471793], [-81.7722864, 26.4717161], [-81.7722019, 26.4716703], [-81.771986, 26.4716681], [-81.7717714, 26.4716777], [-81.7715581, 26.4717135], [-81.7712886, 26.4717353], [-81.7670896, 26.4717999], [-81.7669005, 26.471817], [-81.7666551, 26.4718239], [-81.7659885, 26.4718122], [-81.7658437, 26.4718458], [-81.7657378, 26.4718143], [-81.7655715, 26.4718768], [-81.765436, 26.4719178], [-81.7652912, 26.4719514], [-81.7649961, 26.4719466], [-81.7647172, 26.4718506], [-81.7644221, 26.4717978], [-81.7637797, 26.4718768], [-81.7632379, 26.471944], [-81.7628892, 26.4719536], [-81.7622227, 26.4719658], [-81.7617842, 26.4719776], [-81.7615092, 26.4719754], [-81.7612692, 26.4719296], [-81.7611404, 26.4719104], [-81.7611136, 26.4718527], [-81.761119, 26.4717951], [-81.7611976, 26.4716093], [-81.7616232, 26.470561], [-81.7627109, 26.4677688], [-81.7643846, 26.4673078], [-81.7643118, 26.4631365], [-81.7623142, 26.4626023], [-81.7622498, 26.4616802], [-81.7635373, 26.4587795], [-81.7684169, 26.4565891], [-81.7690654, 26.456298], [-81.7696496, 26.456894], [-81.7729742, 26.4566056], [-81.7767791, 26.4554962], [-81.7799084, 26.4586835], [-81.781255, 26.457449], [-81.781472, 26.457631], [-81.781682, 26.457819], [-81.781948, 26.458081], [-81.782196, 26.458349], [-81.782432, 26.458627], [-81.782614, 26.458861], [-81.782794, 26.459112], [-81.782962, 26.459368], [-81.783067, 26.459543], [-81.783374, 26.460113], [-81.7837075, 26.4607852], [-81.784045, 26.461455], [-81.784131, 26.461628], [-81.785381, 26.464159], [-81.785484, 26.464401], [-81.785575, 26.464649], [-81.785654, 26.464906], [-81.785718, 26.465166], [-81.785766, 26.465425], [-81.785799, 26.465685], [-81.78583, 26.466109], [-81.7861034, 26.470215], [-81.786107, 26.470329], [-81.7861179, 26.4704331]]]}}