{"type": "Feature", "properties": {"market_key": 2275, "university": "University of Idaho", "osm_type": "way", "osm_id": 245242111, "osm_name": "University of Idaho"}, "geometry": {"type": "Polygon", "coordinates": [[[-117.0195985, 46.7139597], [-117.0197361, 46.7150927], [-117.0228233, 46.7149842], [-117.0228694, 46.717378], [-117.0228993, 46.7183893], [-117.0229143, 46.7188902], [-117.0229226, 46.7191712], [-117.0229534, 46.7193933], [-117.0229437, 46.719466], [-117.0228046, 46.7197533], [-117.0227339, 46.7199358], [-117.0226216, 46.7201749], [-117.0223828, 46.720487], [-117.0221398, 46.7206685], [-117.0218979, 46.7209162], [-117.0218472, 46.7209954], [-117.0216918, 46.721238], [-117.0217418, 46.7215744], [-117.0222123, 46.7218889], [-117.0222233, 46.7218963], [-117.0227524, 46.7221604], [-117.024145, 46.7221768], [-117.0267568, 46.7221679], [-117.0291134, 46.7221682], [-117.0303697, 46.7221578], [-117.031101, 46.7221544], [-117.0313243, 46.7221625], [-117.0314405, 46.7221685], [-117.034109, 46.7221927], [-117.0397881, 46.7221937], [-117.0393752, 46.7320709], [-117.0234693, 46.7324634], [-117.019526, 46.7324676], [-117.0158239, 46.7328447], [-117.0118674, 46.7332435], [-117.0118274, 46.7326883], [-117.0111844, 46.7325974], [-117.0105771, 46.7325012], [-117.0105268, 46.7313522], [-117.0104885, 46.730476], [-117.0096154, 46.7299456], [-117.0095834, 46.7299261], [-117.0095401, 46.7298998], [-117.0066818, 46.7299659], [-117.0044851, 46.72762], [-117.004351, 46.72752], [-117.0042311, 46.7273493], [-117.0038991, 46.7273818], [-117.0031272, 46.7266347], [-117.0028209, 46.7263369], [-117.0020829, 46.725691], [-117.0014914, 46.7252351], [-117.001584, 46.7250335], [-117.0015988, 46.7247228], [-117.0016185, 46.7228727], [-117.0023345, 46.7228495], [-117.0131001, 46.7224999], [-117.0136533, 46.7224831], [-117.014543, 46.722453], [-117.0144042, 46.721619], [-117.0143706, 46.7212893], [-117.0142353, 46.7209301], [-117.014928, 46.719644], [-117.0147179, 46.7195594], [-117.014922, 46.7193284], [-117.0150249, 46.7190271], [-117.0155315, 46.7185812], [-117.0156732, 46.7184569], [-117.0158477, 46.7180361], [-117.0160614, 46.7178058], [-117.0160691, 46.7172982], [-117.0160897, 46.7164762], [-117.016073, 46.7160435], [-117.016075, 46.715656], [-117.0160624, 46.7142732], [-117.0175063, 46.7141232], [-117.017696, 46.7141089], [-117.0195985, 46.7139597]]]}}