{"type": "Feature", "properties": {"market_key": 2282, "university": "Kansas State University", "osm_type": "relation", "osm_id": 1410002, "osm_name": "Kansas State University"}, "geometry": {"type": "MultiPolygon", "coordinates": [[[[-96.5764769, 39.1899356], [-96.5764712, 39.1900799], [-96.576464, 39.1904844], [-96.5764516, 39.1909761], [-96.5764456, 39.1914368], [-96.5764379, 39.191595], [-96.5764365, 39.1918076], [-96.5764254, 39.1923817], [-96.5764169, 39.1927432], [-96.5764012, 39.1933506], [-96.5764043, 39.1940666], [-96.5764032, 39.1946797], [-96.5764044, 39.1950489], [-96.5764131, 39.1952672], [-96.5762173, 39.1952671], [-96.576178, 39.1952581], [-96.5761284, 39.1952537], [-96.575825, 39.1952531], [-96.5753563, 39.1952344], [-96.5753643, 39.1957796], [-96.5760134, 39.1957744], [-96.5764231, 39.1957762], [-96.5764131, 39.1959744], [-96.5764137, 39.1962649], [-96.5764111, 39.1966963], [-96.5764164, 39.197034], [-96.5764231, 39.1976296], [-96.5764298, 39.1981986], [-96.5764285, 39.198765], [-96.5764312, 39.1993543], [-96.5764151, 39.1994634], [-96.5763943, 39.1996188], [-96.5763541, 39.1999093], [-96.5763064, 39.2002767], [-96.5762763, 39.2004959], [-96.5762555, 39.2006731], [-96.5762481, 39.2007786], [-96.5762461, 39.2008867], [-96.5762468, 39.2011668], [-96.5762441, 39.201623], [-96.5762495, 39.2020102], [-96.5762501, 39.202483], [-96.5762528, 39.202787], [-96.5762079, 39.2038028], [-96.5761764, 39.2042939], [-96.5761636, 39.2046103], [-96.5761764, 39.2047833], [-96.5761931, 39.2049704], [-96.5762213, 39.2052266], [-96.5762381, 39.2053783], [-96.5762515, 39.2054765], [-96.5762743, 39.205754], [-96.5762911, 39.2060505], [-96.5762924, 39.2060735], [-96.576302, 39.2062239], [-96.5763018, 39.2062289], [-96.5763138, 39.2062621], [-96.576338, 39.2062938], [-96.5763775, 39.2063172], [-96.5764208, 39.2063299], [-96.5764707, 39.2063388], [-96.5765231, 39.2063331], [-96.5768563, 39.2062681], [-96.5774336, 39.2061795], [-96.5779594, 39.2061338], [-96.5780602, 39.2061328], [-96.5780906, 39.2061292], [-96.5781302, 39.2061244], [-96.5784289, 39.2061015], [-96.5785977, 39.2060849], [-96.5788347, 39.2060621], [-96.5788378, 39.2062818], [-96.5788759, 39.2067812], [-96.578884, 39.207364], [-96.5789247, 39.210296], [-96.5789504, 39.2114858], [-96.5767237, 39.2115209], [-96.5762771, 39.211908], [-96.5763334, 39.2132132], [-96.5771008, 39.2147231], [-96.5772577, 39.2150317], [-96.5791582, 39.218771], [-96.5797251, 39.2198999], [-96.579738, 39.2199264], [-96.5800113, 39.22047], [-96.5803858, 39.2211613], [-96.5804737, 39.2213235], [-96.5809232, 39.2221532], [-96.5810458, 39.2221245], [-96.5814432, 39.2222295], [-96.5820089, 39.2223795], [-96.582298, 39.2225015], [-96.5825923, 39.2226355], [-96.5827626, 39.2228169], [-96.5828632, 39.2230039], [-96.5828941, 39.2232298], [-96.5828551, 39.2234438], [-96.5828094, 39.2235963], [-96.5827378, 39.2237541], [-96.5825845, 39.2239976], [-96.5824419, 39.2241073], [-96.5822119, 39.2241964], [-96.5820546, 39.2242608], [-96.583997, 39.2278672], [-96.5846809, 39.2291569], [-96.5848186, 39.2294167], [-96.584865, 39.2295042], [-96.584951, 39.2296663], [-96.5850458, 39.2298452], [-96.585219, 39.230168], [-96.5857124, 39.2310876], [-96.585715, 39.2310924], [-96.5890005, 39.2299538], [-96.5890583, 39.229947], [-96.5891173, 39.2299511], [-96.5892085, 39.2299937], [-96.589289, 39.2301319], [-96.5895698, 39.2306442], [-96.5896699, 39.2306091], [-96.5897865, 39.2305681], [-96.5910889, 39.230111], [-96.5911011, 39.2301067], [-96.591133, 39.2300955], [-96.5912765, 39.2300409], [-96.5912992, 39.2300322], [-96.5913276, 39.2300214], [-96.5913382, 39.2300173], [-96.5915858, 39.2299231], [-96.5916546, 39.2298969], [-96.5918512, 39.229822], [-96.5920023, 39.2297645], [-96.592086, 39.2297326], [-96.5925909, 39.2295403], [-96.5926513, 39.2295173], [-96.5934561, 39.2291576], [-96.5938888, 39.2289719], [-96.5939877, 39.2289284], [-96.5942699, 39.2288043], [-96.5951262, 39.2284278], [-96.5951985, 39.228396], [-96.5952735, 39.228363], [-96.5953083, 39.2283477], [-96.5960516, 39.2280267], [-96.5967516, 39.2277244], [-96.5970468, 39.2276041], [-96.5976113, 39.2273741], [-96.5976326, 39.2273654], [-96.5977453, 39.2273166], [-96.5978191, 39.2272775], [-96.5978922, 39.2272387], [-96.5978941, 39.227237], [-96.597978, 39.2271628], [-96.5980223, 39.2270766], [-96.5980465, 39.2269553], [-96.5980465, 39.2269524], [-96.5980462, 39.2267769], [-96.5980461, 39.2267268], [-96.5980459, 39.2265948], [-96.5980455, 39.2262891], [-96.5980451, 39.2260873], [-96.5980449, 39.2259048], [-96.5980446, 39.2257107], [-96.5980444, 39.2256192], [-96.5980443, 39.2255463], [-96.5980439, 39.2252487], [-96.5980432, 39.2248074], [-96.5980431, 39.2247302], [-96.5980432, 39.2247178], [-96.5980437, 39.2246471], [-96.5980442, 39.2245705], [-96.5980543, 39.2230512], [-96.5980596, 39.2222615], [-96.59806, 39.2221997], [-96.5980604, 39.2221428], [-96.5980608, 39.222082], [-96.5980613, 39.2220174], [-96.5980621, 39.2219111], [-96.5980699, 39.2208794], [-96.5980705, 39.2207979], [-96.5980722, 39.2205729], [-96.598073, 39.2204685], [-96.5980863, 39.2187102], [-96.5980864, 39.2186928], [-96.598084, 39.2185043], [-96.5983538, 39.218503], [-96.5984756, 39.2185021], [-96.6020979, 39.2184773], [-96.6021657, 39.2184778], [-96.6073093, 39.2184414], [-96.607357, 39.2184266], [-96.6073986, 39.2183931], [-96.6074134, 39.2183653], [-96.6074138, 39.2161898], [-96.6074139, 39.2157758], [-96.607414, 39.2147988], [-96.607414, 39.2145776], [-96.6073409, 39.2145776], [-96.6058517, 39.2145912], [-96.6057068, 39.2145351], [-96.6055486, 39.2145144], [-96.6053501, 39.2144728], [-96.6052052, 39.2143855], [-96.6051409, 39.2142941], [-96.6050684, 39.2141985], [-96.6049853, 39.2141341], [-96.6048512, 39.2140114], [-96.604709, 39.2138514], [-96.6045991, 39.2136852], [-96.6045159, 39.2133049], [-96.6045508, 39.2129266], [-96.6029549, 39.2128581], [-96.6027797, 39.2128565], [-96.6027811, 39.2127266], [-96.6027999, 39.2110284], [-96.5980725, 39.2111471], [-96.5980732, 39.2110505], [-96.5980734, 39.2110282], [-96.5980911, 39.2086857], [-96.5980912, 39.208667], [-96.5980916, 39.2086154], [-96.5981006, 39.2066835], [-96.5981034, 39.2060901], [-96.5981035, 39.2060738], [-96.5981042, 39.2059249], [-96.5981052, 39.2057119], [-96.5981054, 39.205661], [-96.5981048, 39.205605], [-96.5981035, 39.2054921], [-96.5981027, 39.205424], [-96.5980687, 39.2051029], [-96.598069, 39.2050538], [-96.5980711, 39.2050345], [-96.5980719, 39.2050269], [-96.5980732, 39.2044414], [-96.5980716, 39.2042635], [-96.5980706, 39.2041546], [-96.5980709, 39.204111], [-96.5980736, 39.2037072], [-96.5980737, 39.2036876], [-96.5980739, 39.2036571], [-96.5980743, 39.2036036], [-96.5980703, 39.2029356], [-96.5980826, 39.2026486], [-96.5980859, 39.2025724], [-96.5980814, 39.2020678], [-96.5980835, 39.2019752], [-96.5980854, 39.2018836], [-96.5980857, 39.2018693], [-96.598086, 39.2014722], [-96.598086, 39.2013899], [-96.5980861, 39.20131], [-96.5980864, 39.2008233], [-96.5980864, 39.2008037], [-96.5980864, 39.2007851], [-96.5980867, 39.2003273], [-96.5980868, 39.2002232], [-96.5980868, 39.2001304], [-96.598087, 39.1998993], [-96.5980874, 39.1992426], [-96.5980867, 39.1991163], [-96.5980866, 39.1990958], [-96.5980839, 39.1985834], [-96.5980837, 39.1985495], [-96.5980835, 39.1985131], [-96.5980833, 39.1984888], [-96.598083, 39.1984279], [-96.5980804, 39.1979292], [-96.5980803, 39.197915], [-96.5980763, 39.1971725], [-96.5980759, 39.1971048], [-96.5980756, 39.197047], [-96.5980745, 39.1968345], [-96.5980744, 39.196812], [-96.5980743, 39.1968012], [-96.5980735, 39.1967512], [-96.5980734, 39.1967196], [-96.5980729, 39.1966756], [-96.5980675, 39.1966601], [-96.5980654, 39.1966576], [-96.5980555, 39.1966453], [-96.5980504, 39.1966423], [-96.5980427, 39.1966378], [-96.5980329, 39.1966332], [-96.5980277, 39.1966308], [-96.5980015, 39.1966292], [-96.5979733, 39.1966303], [-96.5964615, 39.1966601], [-96.5958324, 39.1966337], [-96.5943852, 39.1966646], [-96.5936188, 39.1966713], [-96.5931614, 39.1966765], [-96.5929045, 39.1967132], [-96.5923068, 39.1967184], [-96.5921379, 39.1967198], [-96.5921221, 39.1967199], [-96.5921088, 39.1967201], [-96.5919651, 39.1967213], [-96.5912692, 39.1967271], [-96.5911562, 39.1967576], [-96.5910532, 39.1967642], [-96.5900544, 39.1967862], [-96.5897134, 39.1967937], [-96.5892905, 39.196803], [-96.5891912, 39.1968055], [-96.5888061, 39.196814], [-96.5888242, 39.195622], [-96.5868872, 39.1956315], [-96.5867355, 39.1956325], [-96.5863178, 39.1956325], [-96.5863151, 39.1956616], [-96.586299, 39.1956616], [-96.5857643, 39.1956616], [-96.5855628, 39.1956616], [-96.5854157, 39.1956632], [-96.5854176, 39.1949626], [-96.5854119, 39.1942933], [-96.5854142, 39.1938926], [-96.5854169, 39.1937262], [-96.5854159, 39.1936383], [-96.5854139, 39.1931832], [-96.585412, 39.1931229], [-96.5854286, 39.1930507], [-96.5854675, 39.1929925], [-96.585546, 39.1929463], [-96.5856399, 39.1929199], [-96.5866474, 39.1929186], [-96.5870809, 39.1929368], [-96.5879975, 39.1929343], [-96.5881705, 39.1929302], [-96.5888217, 39.1928986], [-96.5890536, 39.1928969], [-96.5890932, 39.1928854], [-96.5891227, 39.1928543], [-96.5891314, 39.1928096], [-96.5891214, 39.1927488], [-96.5890194, 39.1925617], [-96.5889068, 39.1922987], [-96.5890543, 39.1922613], [-96.5906763, 39.1922597], [-96.5906771, 39.1920139], [-96.5911102, 39.1920025], [-96.591108, 39.191783], [-96.5911102, 39.191092], [-96.5911015, 39.1910823], [-96.5910878, 39.1910746], [-96.5910626, 39.1910678], [-96.5909486, 39.1910452], [-96.5907796, 39.1910327], [-96.5904665, 39.1910338], [-96.5890548, 39.1910629], [-96.5890231, 39.1910694], [-96.5889943, 39.1910839], [-96.5889873, 39.1911107], [-96.5889933, 39.1913773], [-96.5888058, 39.1913799], [-96.585422, 39.191376], [-96.585422, 39.1911931], [-96.5854181, 39.1908401], [-96.5854257, 39.1903467], [-96.5854195, 39.1897485], [-96.5854181, 39.1894668], [-96.5854189, 39.188903], [-96.585413, 39.1882794], [-96.5854095, 39.1880741], [-96.5856728, 39.1880764], [-96.5857746, 39.1880854], [-96.5858658, 39.1881072], [-96.5859643, 39.1881493], [-96.5872385, 39.1881369], [-96.588774, 39.1881306], [-96.5887687, 39.1877294], [-96.5881464, 39.1877325], [-96.5881276, 39.1870922], [-96.5867578, 39.1870922], [-96.5859422, 39.1870984], [-96.5859389, 39.1870309], [-96.5859282, 39.1866707], [-96.5857815, 39.1866738], [-96.5853953, 39.1866779], [-96.5853946, 39.1866042], [-96.5853957, 39.1865308], [-96.5853931, 39.186389], [-96.585377, 39.1862344], [-96.585371, 39.1862112], [-96.5853505, 39.1861899], [-96.5853063, 39.1861681], [-96.5852727, 39.1861582], [-96.5852255, 39.1861541], [-96.5847259, 39.1861616], [-96.5845147, 39.1861634], [-96.5841838, 39.1861707], [-96.5840802, 39.1861665], [-96.5838193, 39.186158], [-96.5835846, 39.1861507], [-96.5834848, 39.18615], [-96.5829406, 39.1861481], [-96.5819231, 39.1861564], [-96.5815901, 39.1861585], [-96.5814348, 39.1861598], [-96.5811921, 39.1861664], [-96.5809074, 39.1861767], [-96.5803918, 39.1861826], [-96.5798348, 39.1861881], [-96.5796182, 39.1861887], [-96.5792193, 39.1861933], [-96.5790674, 39.1861938], [-96.5790302, 39.1861998], [-96.5789809, 39.1862003], [-96.5789407, 39.1862045], [-96.5788465, 39.1862097], [-96.5787281, 39.1862105], [-96.5781468, 39.1862146], [-96.578014, 39.1862164], [-96.5778926, 39.1862266], [-96.5778018, 39.1862445], [-96.5777002, 39.1862687], [-96.5776174, 39.1862965], [-96.5775181, 39.1863393], [-96.5773842, 39.1864159], [-96.5769267, 39.1866885], [-96.576856, 39.1867253], [-96.5767909, 39.1867541], [-96.5767373, 39.1867763], [-96.5766587, 39.1868102], [-96.5766471, 39.186817], [-96.5766307, 39.1868344], [-96.576625, 39.1868674], [-96.5766209, 39.1870439], [-96.5766183, 39.1871727], [-96.5766109, 39.1873115], [-96.5766022, 39.1873926], [-96.576578, 39.1875137], [-96.576573, 39.187793], [-96.5765646, 39.1879604], [-96.5765586, 39.187996], [-96.5765566, 39.1880251], [-96.5765328, 39.1882213], [-96.5765147, 39.1883848], [-96.5765026, 39.18853], [-96.5764982, 39.1886813], [-96.5764821, 39.1894699], [-96.5757506, 39.1894569], [-96.5757439, 39.1899283], [-96.5764769, 39.1899356]]]]}}