{"type": "Feature", "properties": {"market_key": 2285, "university": "Murray State University", "osm_type": "way", "osm_id": 479649961, "osm_name": "Murray State University"}, "geometry": {"type": "Polygon", "coordinates": [[[-88.321816, 36.609692], [-88.3243575, 36.6093577], [-88.3243762, 36.6111913], [-88.32596, 36.611204], [-88.325948, 36.61213], [-88.3263427, 36.6121349], [-88.3262877, 36.6131438], [-88.3259698, 36.6138932], [-88.3253231, 36.6141065], [-88.3253077, 36.6142327], [-88.325292, 36.6143214], [-88.3248934, 36.6143294], [-88.3247308, 36.6144332], [-88.3245323, 36.6144277], [-88.3243307, 36.6226553], [-88.3186678, 36.623732], [-88.3150929, 36.6240921], [-88.3148391, 36.6241064], [-88.31503, 36.619072], [-88.315673, 36.6189443], [-88.3160102, 36.6188723], [-88.3170394, 36.6186703], [-88.3175117, 36.617703], [-88.3190743, 36.6175512], [-88.3191597, 36.6168398], [-88.3173369, 36.6169026], [-88.3171823, 36.6151482], [-88.3199692, 36.6150647], [-88.319976, 36.612402], [-88.3201227, 36.6124], [-88.3207593, 36.6123911], [-88.3209948, 36.6123879], [-88.3218265, 36.6123763], [-88.321816, 36.609692]]]}}