{"type": "Feature", "properties": {"market_key": 2287, "university": "Western Kentucky University", "osm_type": "way", "osm_id": 313703237, "osm_name": "Western Kentucky University"}, "geometry": {"type": "Polygon", "coordinates": [[[-86.4587259, 36.9793556], [-86.4576369, 36.9789871], [-86.45772, 36.97885], [-86.4555823, 36.9780957], [-86.4558345, 36.9779264], [-86.4560973, 36.977695], [-86.4564111, 36.9773801], [-86.4566579, 36.9774229], [-86.4574465, 36.9777357], [-86.4582906, 36.9780712], [-86.458362, 36.9780996], [-86.4590853, 36.9783871], [-86.4591851, 36.9784261], [-86.4593428, 36.9784878], [-86.4593347, 36.9784578], [-86.4594823, 36.9781279], [-86.4596298, 36.9778772], [-86.4602118, 36.97813], [-86.4604854, 36.9782629], [-86.4606619, 36.9783799], [-86.4614161, 36.9788821], [-86.4620223, 36.9792785], [-86.4611506, 36.9800027], [-86.4617652, 36.9808418], [-86.4617859, 36.98087], [-86.4619526, 36.9810976], [-86.4621269, 36.9810419], [-86.4622342, 36.9809948], [-86.462363, 36.9809005], [-86.4625319, 36.9808169], [-86.4626768, 36.9806798], [-86.4633806, 36.9801061], [-86.4638623, 36.9797135], [-86.4638951, 36.9796873], [-86.4639683, 36.9796288], [-86.4645355, 36.9791757], [-86.4646734, 36.9792625], [-86.466051, 36.9801291], [-86.4650854, 36.9810012], [-86.4641118, 36.9818904], [-86.4630737, 36.9828353], [-86.4620679, 36.9837502], [-86.4610111, 36.9847122], [-86.4612176, 36.9848279], [-86.4621189, 36.9849993], [-86.4618641, 36.9861091], [-86.4616709, 36.9861091], [-86.4611265, 36.9862076], [-86.4610594, 36.9862826], [-86.461113, 36.986574], [-86.4602923, 36.986679], [-86.4601716, 36.9867111], [-86.4601045, 36.986754], [-86.4600509, 36.986829], [-86.4600187, 36.9869511], [-86.4594957, 36.9870068], [-86.4595386, 36.9867883], [-86.4589834, 36.9868611], [-86.4587902, 36.9867454], [-86.4573955, 36.9880245], [-86.4568483, 36.9885236], [-86.4561939, 36.9891021], [-86.4559659, 36.9893078], [-86.4554777, 36.9897384], [-86.4549922, 36.9901519], [-86.4548699, 36.9902407], [-86.4546677, 36.9903875], [-86.4539448, 36.9908746], [-86.4538389, 36.9909435], [-86.4537477, 36.9908696], [-86.4535591, 36.9909931], [-86.4532864, 36.9911716], [-86.4528357, 36.9907282], [-86.4515798, 36.9915495], [-86.4515372, 36.9915776], [-86.4514303, 36.9916472], [-86.4511083, 36.9913228], [-86.4511025, 36.9913169], [-86.4509812, 36.9911948], [-86.4508372, 36.9910492], [-86.4507255, 36.9909374], [-86.4506938, 36.9909049], [-86.4506098, 36.9908208], [-86.4505733, 36.9907836], [-86.4504974, 36.9907075], [-86.4503842, 36.9905932], [-86.4501022, 36.9903192], [-86.4500145, 36.9902271], [-86.4498536, 36.9900762], [-86.4506766, 36.9895199], [-86.4508204, 36.9894248], [-86.4513015, 36.9891064], [-86.451382, 36.98904], [-86.4512854, 36.9889286], [-86.4511433, 36.9889757], [-86.4508295, 36.9889928], [-86.4506202, 36.9889521], [-86.4505639, 36.98904], [-86.4504754, 36.9890078], [-86.4504352, 36.9890036], [-86.4503735, 36.9889607], [-86.4509636, 36.9885579], [-86.4504727, 36.9880652], [-86.450183, 36.9882494], [-86.4495983, 36.9876817], [-86.4501562, 36.9873196], [-86.4500462, 36.9872125], [-86.4497405, 36.987416], [-86.4493998, 36.9870903], [-86.4484611, 36.9877095], [-86.4472778, 36.9865837], [-86.4472541, 36.9865612], [-86.446613, 36.9859377], [-86.4472085, 36.9855113], [-86.4470985, 36.9854235], [-86.4472487, 36.9852885], [-86.4480641, 36.985792], [-86.4481499, 36.985717], [-86.4483725, 36.985552], [-86.4484932, 36.985492], [-86.4486059, 36.9854471], [-86.4491987, 36.9852735], [-86.4494857, 36.9852071], [-86.4495232, 36.9853399], [-86.4499524, 36.9857577], [-86.4500758, 36.9856827], [-86.4502957, 36.9856335], [-86.4506149, 36.9855349], [-86.4509609, 36.9854599], [-86.4511996, 36.9856999], [-86.4513176, 36.985612], [-86.4513444, 36.9856099], [-86.4516985, 36.9853656], [-86.451795, 36.9853014], [-86.4519506, 36.9852285], [-86.4520606, 36.9851942], [-86.4522135, 36.9851728], [-86.4522215, 36.9850485], [-86.4522376, 36.9850036], [-86.4522698, 36.9849607], [-86.4524978, 36.9847914], [-86.4527311, 36.9851193], [-86.4527714, 36.9851321], [-86.4530235, 36.9850807], [-86.4532381, 36.9850186], [-86.4534634, 36.9849371], [-86.4536914, 36.9848257], [-86.453855, 36.9847186], [-86.4539945, 36.9846115], [-86.4541688, 36.9844465], [-86.453635, 36.9840801], [-86.4535787, 36.9840608], [-86.4542261, 36.9831665], [-86.4544987, 36.9827753], [-86.4553141, 36.9833366], [-86.4553409, 36.9832959], [-86.4555206, 36.9831181], [-86.454665, 36.9825225], [-86.4550352, 36.9819718], [-86.4546355, 36.9818518], [-86.4547803, 36.9816311], [-86.4550191, 36.9817018], [-86.4552363, 36.9813247], [-86.4542198, 36.9810376], [-86.4538416, 36.9814469], [-86.4531737, 36.9820961], [-86.4525353, 36.9818454], [-86.4528277, 36.9814876], [-86.4532821, 36.9807858], [-86.4511525, 36.9803411], [-86.4511781, 36.9802363], [-86.451618, 36.980307], [-86.4517655, 36.9798956], [-86.4521545, 36.9799749], [-86.4522054, 36.9798099], [-86.4523234, 36.9798099], [-86.4530879, 36.9799727], [-86.4532756, 36.9802127], [-86.4547508, 36.9805234], [-86.4543351, 36.9809348], [-86.4556172, 36.9812926], [-86.4558345, 36.9807548], [-86.4560088, 36.9808105], [-86.4558076, 36.9813483], [-86.4562824, 36.9814812], [-86.4564621, 36.9809926], [-86.4567813, 36.9811105], [-86.4566767, 36.9813912], [-86.4571756, 36.9815647], [-86.4572855, 36.981479], [-86.4575055, 36.9812755], [-86.4576134, 36.981168], [-86.4576905, 36.9810912], [-86.4578488, 36.9809091], [-86.4579695, 36.9807441], [-86.4581009, 36.9805384], [-86.4582645, 36.980247], [-86.4585274, 36.9797477], [-86.4587259, 36.9793556]]]}}