{"type": "Feature", "properties": {"market_key": 2290, "university": "University of Maine", "osm_type": "relation", "osm_id": 18594342, "osm_name": "University of Maine"}, "geometry": {"type": "MultiPolygon", "coordinates": [[[[-68.6744766, 44.9103353], [-68.6740762, 44.9085136], [-68.6759724, 44.9082572], [-68.6757255, 44.9073818], [-68.6749256, 44.907502], [-68.6747521, 44.9069506], [-68.6746111, 44.9071206], [-68.6740581, 44.9072008], [-68.6740161, 44.9070652], [-68.6732694, 44.9071667], [-68.6730325, 44.9063945], [-68.6731266, 44.9062475], [-68.6730583, 44.9060205], [-68.6741441, 44.9058505], [-68.6740704, 44.905698], [-68.6749693, 44.9054913], [-68.6747685, 44.9050788], [-68.6746107, 44.9047482], [-68.6743649, 44.9042402], [-68.674142, 44.9037862], [-68.6738108, 44.9031259], [-68.6735923, 44.9026484], [-68.6733807, 44.9022051], [-68.673224, 44.9018507], [-68.6731406, 44.9016442], [-68.6729847, 44.901248], [-68.6728794, 44.9009795], [-68.6727885, 44.9007486], [-68.672732, 44.9005553], [-68.6727177, 44.9004795], [-68.6726983, 44.9003076], [-68.6726966, 44.9002492], [-68.672701, 44.9001584], [-68.6727111, 44.9000264], [-68.6727488, 44.8998337], [-68.672891, 44.8994285], [-68.6730251, 44.8990552], [-68.6731269, 44.8987663], [-68.6731783, 44.8986075], [-68.6731916, 44.8985866], [-68.6732255, 44.8984989], [-68.6733043, 44.898263], [-68.6734984, 44.8977266], [-68.6736, 44.8974583], [-68.6736353, 44.8973581], [-68.6737707, 44.8969952], [-68.6738471, 44.8967476], [-68.6738519, 44.8967288], [-68.6738758, 44.8966115], [-68.673892, 44.8964833], [-68.6738915, 44.8963559], [-68.6738813, 44.8962036], [-68.6738539, 44.8960823], [-68.6738066, 44.8959419], [-68.6737579, 44.8958137], [-68.6736613, 44.8955995], [-68.6735002, 44.8952842], [-68.6732554, 44.8948098], [-68.6729273, 44.8941252], [-68.6727677, 44.8938067], [-68.671218, 44.8939935], [-68.6707446, 44.8930767], [-68.6704413, 44.8931086], [-68.6704244, 44.8927098], [-68.6703461, 44.8927219], [-68.6677013, 44.8930174], [-68.6677013, 44.8930333], [-68.6673014, 44.8930844], [-68.6670976, 44.8928963], [-68.6669042, 44.8929138], [-68.666925, 44.8930403], [-68.6667227, 44.8930589], [-68.666727, 44.8931578], [-68.6655434, 44.893309], [-68.6657058, 44.8913504], [-68.6649629, 44.8908873], [-68.6641802, 44.8914031], [-68.6638336, 44.8916448], [-68.6637906, 44.8916856], [-68.663637, 44.8918806], [-68.6634597, 44.8921163], [-68.6633194, 44.8922894], [-68.6632303, 44.8923826], [-68.6630972, 44.8925012], [-68.6630432, 44.8924719], [-68.6630073, 44.8925006], [-68.6629492, 44.8925465], [-68.6628283, 44.8926329], [-68.6627855, 44.8926931], [-68.6627529, 44.8927198], [-68.662704, 44.892747], [-68.662665, 44.8927616], [-68.6626156, 44.8927732], [-68.6625527, 44.8927787], [-68.6624852, 44.8927739], [-68.662421, 44.8927583], [-68.6623774, 44.8927401], [-68.6623404, 44.8927179], [-68.6623662, 44.8928999], [-68.6625233, 44.8940094], [-68.6619278, 44.8940554], [-68.6615297, 44.8977833], [-68.6613017, 44.8977705], [-68.6608719, 44.8975194], [-68.6595559, 44.8978608], [-68.6589333, 44.8975173], [-68.6574541, 44.898855], [-68.6564009, 44.8968533], [-68.6559341, 44.8972288], [-68.6555304, 44.897547], [-68.6550776, 44.8979175], [-68.6546634, 44.8982569], [-68.6542598, 44.8985776], [-68.6538333, 44.898917], [-68.6535086, 44.899152], [-68.6531401, 44.8994305], [-68.652417, 44.8999712], [-68.6517325, 44.9004847], [-68.6510691, 44.9009832], [-68.6505198, 44.9013934], [-68.6499003, 44.9018596], [-68.6484391, 44.9029328], [-68.6479188, 44.9033195], [-68.6472364, 44.9038375], [-68.6479545, 44.904293], [-68.6477187, 44.9044789], [-68.6486983, 44.9086745], [-68.6585562, 44.9073293], [-68.6596714, 44.9112024], [-68.6600129, 44.9123647], [-68.6643403, 44.9117789], [-68.6694475, 44.9110466], [-68.6744766, 44.9103353]]], [[[-68.6727526, 44.8933141], [-68.6751327, 44.8926816], [-68.6751925, 44.892792], [-68.6752617, 44.8928407], [-68.6753907, 44.8930487], [-68.675625, 44.8933985], [-68.6758033, 44.8937439], [-68.6758841, 44.8939842], [-68.6759503, 44.8941462], [-68.6759891, 44.894282], [-68.6760217, 44.894497], [-68.676096, 44.8948187], [-68.676133, 44.8951715], [-68.6761482, 44.8953931], [-68.6761763, 44.8956314], [-68.6761712, 44.8958611], [-68.6761488, 44.8963354], [-68.6761226, 44.8966967], [-68.6760995, 44.8969398], [-68.6760296, 44.8972524], [-68.6758657, 44.897595], [-68.6756127, 44.8979173], [-68.6755728, 44.8980278], [-68.6755117, 44.8980952], [-68.6753435, 44.8982436], [-68.6751478, 44.8984141], [-68.6749624, 44.8985995], [-68.6746745, 44.8987888], [-68.6746191, 44.8989471], [-68.6745283, 44.8990255], [-68.6744572, 44.8991071], [-68.6744232, 44.8991532], [-68.6743618, 44.8992248], [-68.6742865, 44.8992909], [-68.6741895, 44.8993789], [-68.6741558, 44.8994162], [-68.6741444, 44.8995069], [-68.6741726, 44.8996277], [-68.6741571, 44.8997135], [-68.6741485, 44.8997993], [-68.6741847, 44.8998344], [-68.6742007, 44.8998791], [-68.6741934, 44.8999379], [-68.67415, 44.8999885], [-68.674137, 44.9000683], [-68.6741043, 44.9001032], [-68.6740954, 44.9001597], [-68.6740676, 44.9001908], [-68.6741, 44.9004493], [-68.6741152, 44.9005773], [-68.6741454, 44.9006467], [-68.6741085, 44.9007301], [-68.6741069, 44.9008002], [-68.6741268, 44.9008736], [-68.67411, 44.900957], [-68.6741142, 44.9011307], [-68.6741273, 44.9013379], [-68.6741477, 44.9014343], [-68.6742232, 44.9015872], [-68.6742641, 44.9016624], [-68.6742772, 44.9017612], [-68.6744169, 44.9020051], [-68.6745235, 44.9021941], [-68.6745626, 44.9022554], [-68.6745396, 44.9023174], [-68.6745569, 44.9023751], [-68.674606, 44.9024059], [-68.6747091, 44.902493], [-68.6748078, 44.9026982], [-68.6748824, 44.902758], [-68.6749615, 44.902839], [-68.6749729, 44.902889], [-68.675061, 44.9029177], [-68.6751121, 44.9030337], [-68.6752905, 44.903122], [-68.6753715, 44.9033436], [-68.6754357, 44.9033952], [-68.675544, 44.903633], [-68.6758754, 44.903946], [-68.6761367, 44.9041113], [-68.6765556, 44.9043087], [-68.6768018, 44.9044138], [-68.6770898, 44.9045237], [-68.6776327, 44.9047083], [-68.6781311, 44.9048949], [-68.6784352, 44.9050044], [-68.6787152, 44.90512], [-68.6752617, 44.9056551], [-68.6751801, 44.9054934], [-68.6750533, 44.9052213], [-68.6748848, 44.9048555], [-68.6746801, 44.904468], [-68.6745079, 44.9040804], [-68.6743593, 44.9037634], [-68.67418, 44.9033912], [-68.6738647, 44.9027829], [-68.6737125, 44.9024851], [-68.6735603, 44.9021784], [-68.6734063, 44.9018203], [-68.6732233, 44.9013801], [-68.6730493, 44.9009193], [-68.6729388, 44.9006113], [-68.6728953, 44.9004034], [-68.6728899, 44.9002404], [-68.6728899, 44.9000825], [-68.672917, 44.8999298], [-68.6729859, 44.8996911], [-68.6731037, 44.899383], [-68.6731761, 44.8991623], [-68.6732921, 44.8988452], [-68.67337, 44.898636], [-68.6735132, 44.8982394], [-68.6735838, 44.8980585], [-68.6736079, 44.8979735], [-68.6739509, 44.8970363], [-68.6740341, 44.8967675], [-68.6740687, 44.8966076], [-68.6740698, 44.8965787], [-68.6740819, 44.8964381], [-68.6740822, 44.8963513], [-68.6740702, 44.8962361], [-68.6740479, 44.8960957], [-68.6740417, 44.8960742], [-68.6740129, 44.8959786], [-68.6739419, 44.8957786], [-68.6738, 44.8954831], [-68.6736812, 44.8952328], [-68.6736537, 44.8951332], [-68.673296, 44.8943945], [-68.6731179, 44.8940283], [-68.6729165, 44.8936374], [-68.6727526, 44.8933141]]], [[[-68.6414531, 44.9045293], [-68.6471738, 44.9037243], [-68.648927, 44.902397], [-68.6456164, 44.9028733], [-68.6427315, 44.9032694], [-68.6419391, 44.9033897], [-68.6414531, 44.9045293]]], [[[-68.6768048, 44.8984554], [-68.6782372, 44.8987659], [-68.6783561, 44.8963193], [-68.6779532, 44.8963196], [-68.6778073, 44.8967598], [-68.6771635, 44.8979986], [-68.6768048, 44.8984554]]]]}}