{"type": "Feature", "properties": {"market_key": 2294, "university": "University of Maryland College Park", "osm_type": "relation", "osm_id": 14718558, "osm_name": "University of Maryland, College Park"}, "geometry": {"type": "MultiPolygon", "coordinates": [[[[-76.9408734, 38.9996212], [-76.9409932, 38.9991996], [-76.941066, 38.9989224], [-76.9410741, 38.9987184], [-76.9408977, 38.998739], [-76.93997, 38.998851], [-76.9394826, 38.9989084], [-76.938576, 38.999014], [-76.9384531, 38.9990296], [-76.9385532, 38.9993169], [-76.9384504, 38.9993298], [-76.9383121, 38.99979], [-76.9380364, 38.9997391], [-76.9381499, 38.9993675], [-76.9381625, 38.9993215], [-76.9377671, 38.9992889], [-76.9377798, 38.9976528], [-76.9372753, 38.9976815], [-76.9370976, 38.9976919], [-76.9355761, 38.9977901], [-76.9354616, 38.9977966], [-76.9354374, 38.9975477], [-76.9354348, 38.9975077], [-76.9353311, 38.9968291], [-76.9353434, 38.9968316], [-76.9353239, 38.9965379], [-76.9352439, 38.9955791], [-76.9351735, 38.9946131], [-76.9351492, 38.9937194], [-76.9351023, 38.9931283], [-76.934508, 38.9930861], [-76.9349186, 38.9926396], [-76.9348647, 38.9922749], [-76.9365819, 38.992717], [-76.9350947, 38.9911197], [-76.9351562, 38.9907831], [-76.9350531, 38.9904789], [-76.935, 38.9903961], [-76.9349164, 38.9904288], [-76.9348697, 38.9903561], [-76.9349533, 38.9903234], [-76.9348893, 38.9902239], [-76.934705, 38.9899696], [-76.9345591, 38.9899216], [-76.9348485, 38.9892439], [-76.9352499, 38.9886355], [-76.9354807, 38.9882929], [-76.9354836, 38.9882877], [-76.9354869, 38.9882822], [-76.9363453, 38.9869343], [-76.9366367, 38.9864904], [-76.9367013, 38.9863535], [-76.9370305, 38.9858091], [-76.9371572, 38.9855936], [-76.9371576, 38.9855867], [-76.9371593, 38.9855795], [-76.9371616, 38.9855725], [-76.9371646, 38.9855656], [-76.9372531, 38.9854076], [-76.9374921, 38.9848479], [-76.937544, 38.9847036], [-76.9375926, 38.9845587], [-76.937638, 38.984413], [-76.9376802, 38.9842668], [-76.9377547, 38.9839728], [-76.937787, 38.983825], [-76.937816, 38.9836768], [-76.9378417, 38.9835283], [-76.9378641, 38.9833794], [-76.9378832, 38.9832302], [-76.937899, 38.9830808], [-76.9379145, 38.9828863], [-76.937919, 38.9823299], [-76.9379195, 38.982323], [-76.9379206, 38.9823169], [-76.937922, 38.9823123], [-76.9379391, 38.982034], [-76.9379385, 38.9820307], [-76.9379385, 38.9820277], [-76.9379373, 38.9820107], [-76.9379371, 38.9820021], [-76.9379371, 38.9819851], [-76.9379379, 38.981968], [-76.9379394, 38.981951], [-76.9379405, 38.9819425], [-76.9379432, 38.9819256], [-76.9379448, 38.9819171], [-76.9379487, 38.9819112], [-76.9379534, 38.9819049], [-76.9379587, 38.981899], [-76.9379645, 38.9818934], [-76.9379708, 38.981888], [-76.9379776, 38.9818831], [-76.9379847, 38.9818785], [-76.9379923, 38.9818744], [-76.9380002, 38.9818706], [-76.9380085, 38.9818673], [-76.938017, 38.9818645], [-76.9380257, 38.9818621], [-76.9380346, 38.9818602], [-76.9380437, 38.9818588], [-76.938228, 38.9818478], [-76.939481, 38.9817927], [-76.939421, 38.981107], [-76.9400493, 38.9811851], [-76.9405589, 38.9811657], [-76.9408051, 38.9811648], [-76.9416829, 38.9811298], [-76.9416821, 38.9811571], [-76.9417285, 38.9811562], [-76.9417595, 38.9811568], [-76.9417867, 38.9811581], [-76.9418041, 38.9811592], [-76.9418376, 38.9811622], [-76.9418593, 38.9811647], [-76.9418716, 38.9811663], [-76.9418986, 38.9811704], [-76.9419154, 38.9811733], [-76.9419279, 38.9811757], [-76.9419422, 38.9811786], [-76.9419549, 38.9811814], [-76.9419817, 38.9811877], [-76.9420038, 38.9811936], [-76.9420274, 38.9812004], [-76.9420442, 38.9812057], [-76.9420546, 38.9812091], [-76.9420719, 38.9812151], [-76.9420941, 38.9812234], [-76.9421246, 38.9816895], [-76.9426516, 38.9816685], [-76.9426283, 38.981312], [-76.9429093, 38.9813008], [-76.9429327, 38.9816573], [-76.9435054, 38.9816344], [-76.9441688, 38.9817199], [-76.9440249, 38.9812032], [-76.9440644, 38.9811915], [-76.9441876, 38.9811794], [-76.9442349, 38.9811771], [-76.9442751, 38.9811761], [-76.9443225, 38.9811761], [-76.9444159, 38.9811798], [-76.9454482, 38.9813129], [-76.945557, 38.9813258], [-76.9456441, 38.9813345], [-76.9457429, 38.9813426], [-76.945874, 38.98135], [-76.9459398, 38.9813527], [-76.9460052, 38.9813542], [-76.9460348, 38.9813546], [-76.9460533, 38.9813548], [-76.9462122, 38.9813539], [-76.9463115, 38.9813495], [-76.9464135, 38.9813456], [-76.9465226, 38.9813372], [-76.9466324, 38.9813268], [-76.9466784, 38.981322], [-76.9467458, 38.9813146], [-76.9466225, 38.980892], [-76.9482566, 38.9804321], [-76.9483222, 38.9804153], [-76.9484976, 38.9809288], [-76.9485745, 38.9809442], [-76.9500309, 38.9811573], [-76.9502327, 38.981699], [-76.9516141, 38.9820534], [-76.9516788, 38.9822349], [-76.9518835, 38.9828548], [-76.9505974, 38.9828223], [-76.9492268, 38.9827785], [-76.9490975, 38.9824507], [-76.9480425, 38.9827038], [-76.9487458, 38.9844897], [-76.9487509, 38.9847054], [-76.9487521, 38.9847761], [-76.9487398, 38.984787], [-76.9485445, 38.9848062], [-76.9485399, 38.9848608], [-76.9485538, 38.9848598], [-76.9485658, 38.9848605], [-76.9485736, 38.9848615], [-76.9485814, 38.9848629], [-76.9485889, 38.9848648], [-76.9485963, 38.984867], [-76.9486034, 38.9848697], [-76.9486104, 38.9848727], [-76.948617, 38.9848761], [-76.9486233, 38.9848799], [-76.9486292, 38.9848839], [-76.9486952, 38.9849577], [-76.9486974, 38.984963], [-76.9486991, 38.9849683], [-76.9487001, 38.9849738], [-76.9487005, 38.9849793], [-76.9487003, 38.9849848], [-76.9486995, 38.9849903], [-76.948698, 38.9849957], [-76.948696, 38.985001], [-76.9486934, 38.9850062], [-76.9486902, 38.9850111], [-76.9486865, 38.9850158], [-76.9486823, 38.9850202], [-76.9486776, 38.9850244], [-76.9486725, 38.9850282], [-76.9487604, 38.9850591], [-76.9488991, 38.9849998], [-76.9489073, 38.984997], [-76.9489142, 38.9849955], [-76.9489214, 38.9849949], [-76.9489286, 38.984995], [-76.9489357, 38.9849959], [-76.9489426, 38.9849976], [-76.9489492, 38.985], [-76.9489552, 38.985003], [-76.9489606, 38.9850068], [-76.9489653, 38.985011], [-76.9489692, 38.9850158], [-76.9489723, 38.9850209], [-76.9489743, 38.9850263], [-76.9489754, 38.9850318], [-76.9489812, 38.9850862], [-76.9490779, 38.9850857], [-76.949078, 38.9850749], [-76.9490785, 38.985067], [-76.9490793, 38.985059], [-76.9490805, 38.9850511], [-76.949082, 38.9850433], [-76.9490839, 38.9850354], [-76.9490862, 38.9850277], [-76.9490887, 38.9850199], [-76.9490917, 38.9850123], [-76.9490949, 38.9850048], [-76.9490985, 38.9849973], [-76.9491025, 38.9849899], [-76.9491067, 38.9849827], [-76.9491113, 38.9849756], [-76.9491162, 38.9849686], [-76.9491214, 38.9849617], [-76.9491269, 38.984955], [-76.9491327, 38.9849485], [-76.9491388, 38.9849421], [-76.9491452, 38.9849358], [-76.9491519, 38.9849298], [-76.9491588, 38.9849239], [-76.9491659, 38.9849183], [-76.9491734, 38.9849128], [-76.949181, 38.9849075], [-76.9491889, 38.9849025], [-76.949197, 38.9848976], [-76.9492054, 38.984893], [-76.9492139, 38.9848886], [-76.9492226, 38.9848845], [-76.9492315, 38.9848806], [-76.9492406, 38.9848769], [-76.9492498, 38.9848735], [-76.9492591, 38.9848703], [-76.9492687, 38.9848674], [-76.9492783, 38.9848648], [-76.949288, 38.9848624], [-76.9492979, 38.9848603], [-76.9493078, 38.9848584], [-76.9493178, 38.9848568], [-76.9493279, 38.9848555], [-76.9495293, 38.9848054], [-76.949566, 38.9847982], [-76.9495736, 38.9847974], [-76.9495811, 38.9847979], [-76.9495882, 38.9847998], [-76.9495947, 38.9848029], [-76.9496, 38.984807], [-76.9496041, 38.984812], [-76.9496066, 38.9848175], [-76.9496074, 38.9848234], [-76.949607, 38.9850332], [-76.949604, 38.9850857], [-76.9496806, 38.985087], [-76.9496791, 38.9848165], [-76.94968, 38.9848082], [-76.9496818, 38.9848025], [-76.9496843, 38.984797], [-76.9496878, 38.9847918], [-76.949692, 38.984787], [-76.9496969, 38.9847826], [-76.9497025, 38.9847787], [-76.9497086, 38.9847754], [-76.9497152, 38.9847726], [-76.9497222, 38.9847706], [-76.9497295, 38.9847692], [-76.9499123, 38.9847432], [-76.9500247, 38.9847295], [-76.9500389, 38.9847769], [-76.950203, 38.9847632], [-76.950297, 38.9847578], [-76.950391, 38.9847537], [-76.9504851, 38.9847508], [-76.9505793, 38.9847493], [-76.9506735, 38.984749], [-76.9507676, 38.98475], [-76.9508617, 38.9847523], [-76.9509558, 38.9847559], [-76.9511573, 38.98477], [-76.951275, 38.9847804], [-76.9513925, 38.9847925], [-76.9515096, 38.9848061], [-76.9516265, 38.9848213], [-76.951743, 38.9848381], [-76.9518591, 38.9848565], [-76.9523948, 38.9849695], [-76.9531058, 38.9851215], [-76.9539919, 38.9853088], [-76.9545839, 38.9854306], [-76.9548399, 38.9855294], [-76.9548857, 38.9855459], [-76.955236, 38.9856174], [-76.955431, 38.9857764], [-76.9554596, 38.9858565], [-76.9555028, 38.9859848], [-76.9554312, 38.9863205], [-76.9553515, 38.9866837], [-76.9551982, 38.9869064], [-76.9551611, 38.986975], [-76.95496, 38.9873169], [-76.9548563, 38.9874812], [-76.9544169, 38.9881061], [-76.953953, 38.9886458], [-76.9538938, 38.9887247], [-76.953436, 38.9893842], [-76.9523021, 38.9909829], [-76.9514932, 38.9921258], [-76.9511021, 38.9926691], [-76.9509995, 38.9928317], [-76.9502585, 38.9938867], [-76.9501081, 38.9939276], [-76.9500364, 38.9939458], [-76.9500184, 38.9939736], [-76.9495059, 38.9946797], [-76.9495097, 38.9946789], [-76.949224, 38.9948373], [-76.9494071, 38.9950747], [-76.9491487, 38.9954292], [-76.9491117, 38.9954807], [-76.9490805, 38.9954719], [-76.9489819, 38.9956066], [-76.949003, 38.9956228], [-76.9485209, 38.9962544], [-76.9478893, 38.9969646], [-76.9471635, 38.9976268], [-76.9470082, 38.9977583], [-76.9466108, 38.9980717], [-76.9463934, 38.998229], [-76.945956, 38.9982769], [-76.9445339, 38.9984174], [-76.9440595, 38.9984497], [-76.9431401, 38.9985432], [-76.9423734, 38.9986195], [-76.9423066, 38.9986299], [-76.9423667, 38.9993364], [-76.9423227, 38.9993357], [-76.9422752, 38.9993356], [-76.9422813, 38.9993969], [-76.9422804, 38.9994604], [-76.9423023, 38.9995343], [-76.9423292, 38.9996221], [-76.9423831, 38.9997332], [-76.9424406, 38.9998202], [-76.9426076, 39.000003], [-76.9425618, 39.0001502], [-76.9424242, 39.0001888], [-76.9417476, 39.0003805], [-76.9413914, 39.0003228], [-76.9412495, 39.0003013], [-76.9410481, 39.0002694], [-76.9409318, 39.0002128], [-76.9408067, 39.0001874], [-76.940717, 39.0001727], [-76.9408437, 38.9997158], [-76.9408734, 38.9996212]], [[-76.9422933, 38.9885736], [-76.9425956, 38.9885639], [-76.9429506, 38.9885596], [-76.9429529, 38.9886226], [-76.9429621, 38.9888859], [-76.9423877, 38.9888982], [-76.9423048, 38.9888999], [-76.9422985, 38.9887227], [-76.9422933, 38.9885736]], [[-76.9477341, 38.9817678], [-76.9478513, 38.9820774], [-76.9480879, 38.9826358], [-76.9490657, 38.9824008], [-76.9487275, 38.9815391], [-76.9487254, 38.9815338], [-76.9485363, 38.9815348], [-76.9484791, 38.9815292], [-76.9483717, 38.9815126], [-76.9482552, 38.9814804], [-76.9480593, 38.9814208], [-76.9478914, 38.9813983], [-76.9478089, 38.9813899], [-76.9476597, 38.9813876], [-76.9475555, 38.9813965], [-76.9472434, 38.9814301], [-76.9471215, 38.9814454], [-76.9469671, 38.9814802], [-76.9468385, 38.9815333], [-76.9468134, 38.9815459], [-76.9469572, 38.9820364], [-76.9474952, 38.9820967], [-76.9477863, 38.982133], [-76.9477999, 38.9821727], [-76.9478202, 38.9821748], [-76.9476661, 38.9817839], [-76.9477341, 38.9817678]]], [[[-76.9276878, 38.9811979], [-76.9281397, 38.9813042], [-76.9284297, 38.9813675], [-76.9297741, 38.98167], [-76.9293454, 38.9828527], [-76.929207, 38.9828221], [-76.9288717, 38.9827008], [-76.9288482, 38.9826918], [-76.9288248, 38.9826824], [-76.9288017, 38.9826727], [-76.9287789, 38.9826626], [-76.9287562, 38.9826523], [-76.9287338, 38.9826417], [-76.9287116, 38.9826307], [-76.9286897, 38.9826195], [-76.928668, 38.9826079], [-76.9286466, 38.9825961], [-76.9286254, 38.982584], [-76.9286046, 38.9825716], [-76.928584, 38.9825589], [-76.9285637, 38.9825459], [-76.9285436, 38.9825326], [-76.9285239, 38.9825191], [-76.9285045, 38.9825053], [-76.9284854, 38.9824913], [-76.9284667, 38.982477], [-76.9284482, 38.9824624], [-76.9284301, 38.9824476], [-76.9284123, 38.9824326], [-76.9283948, 38.9824173], [-76.9283777, 38.9824017], [-76.928361, 38.982386], [-76.9283492, 38.982369], [-76.9283216, 38.9823453], [-76.9283011, 38.9823271], [-76.9282811, 38.9823085], [-76.9282614, 38.9822898], [-76.9282422, 38.9822707], [-76.9282235, 38.9822514], [-76.9282051, 38.9822318], [-76.9281872, 38.982212], [-76.9281698, 38.982192], [-76.9281528, 38.9821717], [-76.9281363, 38.9821511], [-76.9280337, 38.9820017], [-76.9280209, 38.9819795], [-76.9280087, 38.9819572], [-76.927997, 38.9819348], [-76.9279858, 38.9819122], [-76.9279786, 38.9818894], [-76.9278965, 38.9817674], [-76.9276878, 38.9811979]]], [[[-76.9295754, 38.9826323], [-76.929694, 38.9826587], [-76.9296719, 38.9827213], [-76.929604, 38.9829107], [-76.9294836, 38.9828829], [-76.9295754, 38.9826323]]], [[[-76.93163, 38.9945809], [-76.9310191, 38.9945342], [-76.9310865, 38.9940153], [-76.931094, 38.9939783], [-76.9311543, 38.9934437], [-76.9317647, 38.9934928], [-76.9316983, 38.9940147], [-76.9316973, 38.9940627], [-76.93163, 38.9945809]]], [[[-76.9379146, 39.0009499], [-76.9379111, 39.0009067], [-76.9378033, 39.0009136], [-76.9378055, 39.0009568], [-76.9373872, 39.0009744], [-76.9373788, 39.0009467], [-76.937319, 39.0009485], [-76.9373182, 39.0009406], [-76.9371888, 38.999712], [-76.9371877, 38.9997018], [-76.9387371, 38.9999645], [-76.9385924, 39.0009209], [-76.9379146, 39.0009499]]], [[[-76.9287014, 38.9730463], [-76.9298694, 38.9731193], [-76.9299237, 38.9731208], [-76.9299339, 38.9731048], [-76.9299921, 38.9731078], [-76.9299794, 38.9731797], [-76.9298501, 38.9731796], [-76.9296593, 38.973815], [-76.9296133, 38.9741178], [-76.9296135, 38.9742524], [-76.9294375, 38.9749492], [-76.9294374, 38.9750561], [-76.9283349, 38.9748018], [-76.9284041, 38.9746425], [-76.9284792, 38.9744475], [-76.9285661, 38.9741718], [-76.9286207, 38.9739478], [-76.9286569, 38.9737526], [-76.9286819, 38.9735643], [-76.9287001, 38.9733188], [-76.9287018, 38.9730572], [-76.9287014, 38.9730463]]], [[[-76.9251294, 38.9798463], [-76.9251957, 38.9796786], [-76.9252335, 38.979583], [-76.9253008, 38.9794133], [-76.9253336, 38.9793305], [-76.9253352, 38.9793267], [-76.9254115, 38.9793456], [-76.9261012, 38.9795177], [-76.9259351, 38.9799354], [-76.9259147, 38.979988], [-76.9258941, 38.9800389], [-76.9251294, 38.9798463]]], [[[-76.9348718, 38.9813902], [-76.9352679, 38.9803368], [-76.9366159, 38.9806479], [-76.9362235, 38.9817099], [-76.9348718, 38.9813902]]], [[[-76.9571076, 38.9873923], [-76.9569762, 38.9875122], [-76.9568885, 38.9875119], [-76.9566623, 38.9874195], [-76.9565595, 38.9871624], [-76.9568056, 38.9864449], [-76.9568652, 38.9862759], [-76.9568915, 38.986316], [-76.9569092, 38.9863444], [-76.9569262, 38.9863731], [-76.9569426, 38.986402], [-76.9569584, 38.9864311], [-76.9569735, 38.9864604], [-76.956988, 38.98649], [-76.9570017, 38.9865197], [-76.9570149, 38.9865496], [-76.9570273, 38.9865797], [-76.9570391, 38.9866099], [-76.9570502, 38.9866403], [-76.9570606, 38.9866708], [-76.9570703, 38.9867015], [-76.9570794, 38.9867323], [-76.9570878, 38.9867633], [-76.9570954, 38.9867943], [-76.9571024, 38.9868255], [-76.9571087, 38.9868567], [-76.9571142, 38.986888], [-76.9571191, 38.9869194], [-76.9571233, 38.9869508], [-76.9571267, 38.9869823], [-76.9571295, 38.9870139], [-76.9571312, 38.9870452], [-76.9571329, 38.9870771], [-76.9571335, 38.9871087], [-76.9571335, 38.9871403], [-76.9571327, 38.9871719], [-76.9571312, 38.9872035], [-76.957129, 38.9872351], [-76.9571261, 38.9872667], [-76.9571226, 38.9872982], [-76.9571183, 38.9873296], [-76.9571133, 38.987361], [-76.9571076, 38.9873923]]], [[[-76.9569983, 38.9876699], [-76.957097, 38.9878112], [-76.9569821, 38.9884475], [-76.9569714, 38.9884461], [-76.9569666, 38.988415], [-76.9569525, 38.9883353], [-76.9569366, 38.9882559], [-76.956919, 38.9881767], [-76.9568785, 38.9880192], [-76.9568555, 38.9879408], [-76.9568208, 38.9878326], [-76.9569273, 38.9876822], [-76.9569983, 38.9876699]]], [[[-76.9335501, 38.9901326], [-76.9336427, 38.9897147], [-76.9342072, 38.9899187], [-76.9338669, 38.9907721], [-76.933287, 38.9905634], [-76.9335501, 38.9901326]]], [[[-76.9264134, 38.9843147], [-76.9266221, 38.9837473], [-76.9267035, 38.9835158], [-76.927087, 38.9824554], [-76.9271341, 38.9823555], [-76.9271842, 38.982223], [-76.9274698, 38.9814632], [-76.927479, 38.9814882], [-76.9275046, 38.9814465], [-76.9276261, 38.9818043], [-76.9274334, 38.9818565], [-76.9274956, 38.9819916], [-76.9275203, 38.9820478], [-76.9275356, 38.9820799], [-76.9275515, 38.9821119], [-76.9275682, 38.9821436], [-76.9275856, 38.9821752], [-76.9276036, 38.9822064], [-76.9276224, 38.9822374], [-76.9276419, 38.9822682], [-76.9276621, 38.9822987], [-76.9276829, 38.9823289], [-76.9277044, 38.9823588], [-76.9277266, 38.9823884], [-76.9277494, 38.9824177], [-76.9277729, 38.9824467], [-76.927797, 38.9824754], [-76.9278218, 38.9825038], [-76.9278056, 38.9826257], [-76.9278953, 38.982789], [-76.9281104, 38.9828705], [-76.9283292, 38.9830091], [-76.9285507, 38.9828904], [-76.9286639, 38.9829589], [-76.9286944, 38.9829766], [-76.9287219, 38.9829722], [-76.9288912, 38.9829433], [-76.9293857, 38.9831227], [-76.9293882, 38.9831155], [-76.9295508, 38.9831718], [-76.9295416, 38.983206], [-76.9305124, 38.9835024], [-76.9306262, 38.9836187], [-76.9306771, 38.983637], [-76.9306407, 38.9837391], [-76.9291343, 38.9841354], [-76.9282471, 38.9843726], [-76.9274659, 38.9842599], [-76.9272833, 38.984241], [-76.9272499, 38.9842871], [-76.9268363, 38.9844099], [-76.9266558, 38.9843659], [-76.9265932, 38.9843599], [-76.9264134, 38.9843147]]], [[[-76.953157, 38.9849517], [-76.9531234, 38.9849485], [-76.9527048, 38.9848597], [-76.9523665, 38.9847931], [-76.9525576, 38.9842244], [-76.9527595, 38.9842301], [-76.9529659, 38.9842379], [-76.953056, 38.9845633], [-76.953157, 38.9849517]]], [[[-76.9582266, 38.9852236], [-76.9573807, 38.9853041], [-76.9571067, 38.9853327], [-76.9569091, 38.98535], [-76.9567111, 38.9853647], [-76.9565128, 38.9853766], [-76.9560656, 38.985363], [-76.9558286, 38.9853512], [-76.9558149, 38.9853495], [-76.9558071, 38.9853476], [-76.9557996, 38.985345], [-76.9557925, 38.9853419], [-76.9557859, 38.9853382], [-76.9557797, 38.985334], [-76.9557742, 38.9853293], [-76.9557693, 38.9853242], [-76.9557652, 38.9853187], [-76.9557617, 38.9853129], [-76.9557591, 38.9853069], [-76.9557574, 38.9853007], [-76.9556664, 38.9848817], [-76.9555754, 38.9844006], [-76.9555309, 38.9841961], [-76.9555298, 38.9841883], [-76.9555299, 38.984182], [-76.9555309, 38.9841752], [-76.9555327, 38.9841688], [-76.9555354, 38.9841626], [-76.9555389, 38.9841566], [-76.9555432, 38.9841509], [-76.9555482, 38.9841456], [-76.9555538, 38.9841408], [-76.9555602, 38.9841364], [-76.955567, 38.9841326], [-76.9555743, 38.9841294], [-76.955582, 38.9841268], [-76.9555901, 38.9841248], [-76.9555983, 38.9841235], [-76.9562388, 38.9840484], [-76.956673, 38.9840014], [-76.9568092, 38.9839799], [-76.9569449, 38.9839565], [-76.9570801, 38.9839313], [-76.957238, 38.9838993], [-76.9573097, 38.9838806], [-76.9573848, 38.9838599], [-76.9574594, 38.9838381], [-76.9575336, 38.9838153], [-76.9576072, 38.9837915], [-76.9576803, 38.9837667], [-76.9577528, 38.9837409], [-76.9578248, 38.9837141], [-76.9578961, 38.9836864], [-76.9579874, 38.983649], [-76.958058, 38.983617], [-76.9581288, 38.9835836], [-76.9581989, 38.9835492], [-76.9582682, 38.9835139], [-76.9583367, 38.9834777], [-76.9584043, 38.9834405], [-76.9584711, 38.9834024], [-76.9585371, 38.9833634], [-76.9586327, 38.9833043], [-76.958641, 38.9832999], [-76.9586476, 38.9832973], [-76.9586545, 38.9832955], [-76.9586617, 38.9832942], [-76.958669, 38.9832937], [-76.9586763, 38.9832939], [-76.9586836, 38.9832948], [-76.9586907, 38.9832964], [-76.9586974, 38.9832986], [-76.9587038, 38.9833015], [-76.9587097, 38.9833049], [-76.958715, 38.9833089], [-76.9591423, 38.9836719], [-76.959676, 38.9841112], [-76.9597584, 38.9841804], [-76.9597899, 38.9842038], [-76.9598092, 38.984219], [-76.9598282, 38.9842344], [-76.9598469, 38.9842501], [-76.9598651, 38.984266], [-76.9598831, 38.9842822], [-76.9599006, 38.9842987], [-76.9599178, 38.9843153], [-76.9599346, 38.9843323], [-76.959951, 38.9843494], [-76.9599671, 38.9843667], [-76.9599827, 38.9843843], [-76.959998, 38.9844021], [-76.9600128, 38.9844201], [-76.9600273, 38.9844383], [-76.9600413, 38.9844567], [-76.9600549, 38.9844752], [-76.9600682, 38.984494], [-76.9600809, 38.9845129], [-76.9600933, 38.984532], [-76.9601052, 38.9845513], [-76.9601167, 38.9845707], [-76.9601278, 38.9845903], [-76.9601384, 38.98461], [-76.9601486, 38.9846299], [-76.9601642, 38.984662], [-76.9601732, 38.984682], [-76.9601818, 38.9847021], [-76.9601899, 38.9847223], [-76.9601976, 38.9847426], [-76.9602048, 38.9847631], [-76.9602116, 38.9847836], [-76.9602179, 38.9848042], [-76.9602237, 38.9848249], [-76.9602291, 38.9848457], [-76.960234, 38.9848665], [-76.9602384, 38.9848874], [-76.9602424, 38.9849084], [-76.9602459, 38.9849294], [-76.960249, 38.9849505], [-76.9602517, 38.9849739], [-76.9602515, 38.9849797], [-76.9602505, 38.9849854], [-76.9602485, 38.984991], [-76.9602457, 38.9849963], [-76.9602421, 38.9850014], [-76.9602377, 38.9850061], [-76.9602326, 38.9850103], [-76.9602269, 38.985014], [-76.9602206, 38.9850171], [-76.9602139, 38.9850196], [-76.9602069, 38.9850215], [-76.9601997, 38.9850226], [-76.9597125, 38.9850777], [-76.9590692, 38.9851417], [-76.9582266, 38.9852236]]], [[[-76.9553928, 38.9853613], [-76.9553914, 38.9853671], [-76.9553886, 38.9853726], [-76.9553843, 38.9853775], [-76.9553788, 38.9853816], [-76.9553723, 38.9853847], [-76.9553652, 38.9853867], [-76.9553577, 38.9853875], [-76.9553501, 38.985387], [-76.9549858, 38.9853356], [-76.9548375, 38.9853157], [-76.9547269, 38.9852989], [-76.9543494, 38.9852486], [-76.9545723, 38.9847942], [-76.9548082, 38.9847801], [-76.9548071, 38.9847827], [-76.9552785, 38.9847616], [-76.9552972, 38.9848636], [-76.9553885, 38.9853302], [-76.9553926, 38.9853556], [-76.9553928, 38.9853613]]], [[[-76.9424309, 38.9795851], [-76.9424146, 38.9795901], [-76.9423971, 38.9795908], [-76.9423801, 38.9795873], [-76.942365, 38.9795804], [-76.9420991, 38.9794462], [-76.942025, 38.9794092], [-76.9420099, 38.9794022], [-76.9419638, 38.9793822], [-76.9419173, 38.9793627], [-76.9418704, 38.9793439], [-76.941823, 38.9793257], [-76.9417912, 38.979314], [-76.9417592, 38.9793025], [-76.941741, 38.9792981], [-76.941722, 38.9792941], [-76.9417141, 38.9792843], [-76.9417119, 38.9792714], [-76.9417101, 38.9792584], [-76.9417087, 38.9792451], [-76.9417076, 38.9792317], [-76.9417067, 38.9792181], [-76.9417062, 38.9792043], [-76.9417057, 38.9791766], [-76.941706, 38.9790923], [-76.9417056, 38.9790645], [-76.9417057, 38.9790508], [-76.9417074, 38.9790371], [-76.9417082, 38.9790234], [-76.9417081, 38.9790097], [-76.9417072, 38.978996], [-76.9417053, 38.9789823], [-76.9417026, 38.9789688], [-76.9416989, 38.9789553], [-76.9416944, 38.9789421], [-76.9416891, 38.978929], [-76.9416829, 38.9789161], [-76.9416758, 38.9789036], [-76.941668, 38.9788913], [-76.9416594, 38.9788793], [-76.94165, 38.9788677], [-76.9416398, 38.9788565], [-76.9416289, 38.9788457], [-76.9416174, 38.9788354], [-76.9415932, 38.9788154], [-76.9415715, 38.9787966], [-76.9415589, 38.9787871], [-76.9415456, 38.9787781], [-76.9415317, 38.9787696], [-76.9415174, 38.9787617], [-76.9415025, 38.9787544], [-76.9414872, 38.9787476], [-76.9414714, 38.9787415], [-76.9414553, 38.978736], [-76.9414389, 38.9787312], [-76.9414221, 38.978727], [-76.9414051, 38.9787235], [-76.9413879, 38.9787206], [-76.9413705, 38.9787185], [-76.941353, 38.9787171], [-76.9413355, 38.9787162], [-76.9413182, 38.9787138], [-76.9413013, 38.97871], [-76.9408778, 38.9786176], [-76.9408611, 38.9786134], [-76.9408448, 38.9786083], [-76.9408287, 38.9786027], [-76.9407966, 38.9785914], [-76.9407807, 38.9785855], [-76.9407492, 38.9785734], [-76.9407335, 38.9785672], [-76.9407179, 38.9785608], [-76.940687, 38.9785478], [-76.9406564, 38.9785342], [-76.9406262, 38.9785202], [-76.9405963, 38.9785057], [-76.9405815, 38.9784983], [-76.9405522, 38.9784831], [-76.9405233, 38.9784674], [-76.9404948, 38.9784513], [-76.9404667, 38.9784348], [-76.940439, 38.9784179], [-76.9404256, 38.978409], [-76.940202, 38.978254], [-76.9401765, 38.9782351], [-76.9401635, 38.9782259], [-76.9401502, 38.9782169], [-76.9401367, 38.9782081], [-76.9401229, 38.9781996], [-76.9401088, 38.9781914], [-76.9400945, 38.9781834], [-76.94008, 38.9781756], [-76.9400652, 38.9781682], [-76.9400502, 38.978161], [-76.940035, 38.9781541], [-76.9400196, 38.9781475], [-76.940004, 38.9781411], [-76.9399882, 38.9781351], [-76.9399723, 38.9781293], [-76.9399561, 38.9781238], [-76.9399398, 38.9781187], [-76.9399234, 38.9781138], [-76.9399068, 38.9781092], [-76.9398901, 38.978105], [-76.9398732, 38.978101], [-76.9398563, 38.9780974], [-76.9398392, 38.978094], [-76.9398221, 38.978091], [-76.9398048, 38.9780883], [-76.9397345, 38.9780917], [-76.9395762, 38.9780999], [-76.9395059, 38.9781034], [-76.9394357, 38.9781065], [-76.9393659, 38.9781092], [-76.9393519, 38.9781032], [-76.9393281, 38.978083], [-76.9393159, 38.9780731], [-76.9392913, 38.9780535], [-76.9392787, 38.9780439], [-76.9392533, 38.9780249], [-76.9392273, 38.9780064], [-76.9392009, 38.9779883], [-76.939174, 38.9779706], [-76.9391603, 38.977962], [-76.9391327, 38.977945], [-76.9391046, 38.9779284], [-76.9390904, 38.9779203], [-76.9390617, 38.9779045], [-76.9390325, 38.9778891], [-76.9390178, 38.9778816], [-76.9390027, 38.9778745], [-76.9389882, 38.9778668], [-76.9388605, 38.9777938], [-76.9386201, 38.9776554], [-76.9386039, 38.9776378], [-76.9386002, 38.9776323], [-76.9385972, 38.9776266], [-76.938595, 38.9776206], [-76.9385936, 38.9776145], [-76.9385931, 38.9776083], [-76.9385933, 38.9776022], [-76.9385944, 38.977596], [-76.9385963, 38.97759], [-76.938599, 38.9775842], [-76.9386025, 38.9775787], [-76.9386067, 38.9775734], [-76.9388168, 38.9773614], [-76.9390784, 38.9774835], [-76.9393339, 38.9776012], [-76.9394515, 38.9776558], [-76.9397693, 38.9778099], [-76.9425442, 38.9790478], [-76.9427676, 38.9791477], [-76.94257, 38.9794112], [-76.9424543, 38.9795651], [-76.9424446, 38.9795765], [-76.9424309, 38.9795851]]], [[[-76.9305016, 38.967465], [-76.9305382, 38.9674625], [-76.9305656, 38.9674603], [-76.9314161, 38.9673871], [-76.9315442, 38.9673778], [-76.9316724, 38.967372], [-76.9318007, 38.9673696], [-76.9319291, 38.9673707], [-76.9320574, 38.9673752], [-76.9321855, 38.9673832], [-76.9323133, 38.9673946], [-76.9323319, 38.9673967], [-76.9323504, 38.9674], [-76.9323685, 38.9674045], [-76.9323864, 38.96741], [-76.9324039, 38.9674167], [-76.9324209, 38.9674245], [-76.9324374, 38.9674333], [-76.9324533, 38.9674432], [-76.9324686, 38.967454], [-76.9324831, 38.9674658], [-76.9324969, 38.9674785], [-76.9325062, 38.9674876], [-76.9325158, 38.9674963], [-76.9325259, 38.9675046], [-76.9325422, 38.9675168], [-76.9325526, 38.9675258], [-76.9325624, 38.9675355], [-76.9325716, 38.9675458], [-76.93258, 38.9675567], [-76.9325877, 38.9675682], [-76.9325945, 38.9675802], [-76.9326006, 38.9675926], [-76.9326058, 38.9676054], [-76.9326101, 38.9676185], [-76.9326135, 38.9676318], [-76.9326128, 38.9676457], [-76.9326113, 38.9676596], [-76.9326089, 38.9676733], [-76.9326058, 38.9676869], [-76.9326018, 38.9677003], [-76.932597, 38.9677134], [-76.9325915, 38.9677261], [-76.9323141, 38.9684022], [-76.9323083, 38.9684167], [-76.9323027, 38.9684314], [-76.9322975, 38.9684461], [-76.9322926, 38.968461], [-76.9322879, 38.9684759], [-76.9322836, 38.9684909], [-76.9322795, 38.968506], [-76.9322707, 38.9685443], [-76.9322639, 38.968583], [-76.9322591, 38.968622], [-76.9322564, 38.9686612], [-76.9322557, 38.9687004], [-76.932257, 38.9687397], [-76.9322604, 38.9687788], [-76.9322629, 38.9687986], [-76.932266, 38.9688184], [-76.9322695, 38.968838], [-76.9322736, 38.9688576], [-76.9322782, 38.9688771], [-76.9322833, 38.9688964], [-76.9322889, 38.9689156], [-76.9322939, 38.9689314], [-76.9322992, 38.9689472], [-76.9323049, 38.9689628], [-76.9323109, 38.9689783], [-76.9323172, 38.9689937], [-76.9323238, 38.9690089], [-76.9323307, 38.969024], [-76.9321485, 38.9694682], [-76.929951, 38.9689186], [-76.9299225, 38.9689102], [-76.9299007, 38.9689018], [-76.9298743, 38.9688889], [-76.9298623, 38.968882], [-76.9298414, 38.9688679], [-76.9298241, 38.9688538], [-76.929804, 38.9688339], [-76.9297932, 38.9688208], [-76.9297834, 38.9688069], [-76.9297739, 38.9687905], [-76.9297652, 38.9687712], [-76.9297594, 38.9687537], [-76.9297558, 38.9687381], [-76.9297535, 38.9687203], [-76.929753, 38.968707], [-76.9297534, 38.9686942], [-76.9297551, 38.96868], [-76.9297571, 38.9686691], [-76.9297602, 38.968657], [-76.9297666, 38.968639], [-76.9301208, 38.9677758], [-76.9301321, 38.9677422], [-76.9301381, 38.9677121], [-76.9301406, 38.9676838], [-76.9301396, 38.9676527], [-76.930135, 38.9676226], [-76.9301273, 38.9675942], [-76.9301158, 38.9675651], [-76.930103, 38.9675406], [-76.9300863, 38.967515], [-76.9300947, 38.967495], [-76.9300992, 38.9674791], [-76.9301016, 38.9674655], [-76.9303195, 38.9674689], [-76.930359, 38.9674692], [-76.9303984, 38.9674689], [-76.9304378, 38.9674679], [-76.9304701, 38.9674666], [-76.9305016, 38.967465]]], [[[-76.9194251, 38.9677833], [-76.9188127, 38.9675651], [-76.9184134, 38.9674177], [-76.9185027, 38.9673932], [-76.9194811, 38.9677161], [-76.9194251, 38.9677833]]], [[[-76.964793, 39.002315], [-76.9646245, 39.0023143], [-76.9644213, 39.0023276], [-76.9642423, 39.0023524], [-76.9640157, 39.0023969], [-76.9637206, 39.002446], [-76.9635235, 39.002477], [-76.9627581, 39.0026049], [-76.9625122, 39.0026466], [-76.9622282, 39.0026962], [-76.9619491, 39.0027409], [-76.9614639, 39.0028232], [-76.9609668, 39.0029056], [-76.9608818, 39.0029199], [-76.9608724, 39.0029212], [-76.9607157, 39.0029517], [-76.9603836, 39.0030065], [-76.9625258, 38.9996318], [-76.9626438, 38.9994497], [-76.9627447, 38.999588], [-76.9627499, 38.9996319], [-76.9638482, 39.000846], [-76.9640089, 39.0010316], [-76.964747, 39.0018871], [-76.9652254, 39.0023437], [-76.9651264, 39.0023325], [-76.9649381, 39.0023192], [-76.964793, 39.002315]]], [[[-76.9641047, 39.0025285], [-76.9643042, 39.0024905], [-76.9644797, 39.0024642], [-76.9646403, 39.0024482], [-76.9647942, 39.0024435], [-76.964895, 39.0024457], [-76.9650388, 39.0024551], [-76.9651778, 39.0024694], [-76.965315, 39.0024912], [-76.9654241, 39.0024998], [-76.9655714, 39.0026145], [-76.9658076, 39.0027961], [-76.9656702, 39.0029509], [-76.9653357, 39.0029135], [-76.9644696, 39.0025951], [-76.9640933, 39.0025738], [-76.9638668, 39.0029887], [-76.963611, 39.0034493], [-76.9633776, 39.0038801], [-76.9631559, 39.0039893], [-76.9622169, 39.004443], [-76.9614329, 39.0048266], [-76.9611588, 39.0049596], [-76.9604089, 39.0047518], [-76.9594497, 39.0044864], [-76.9602947, 39.0031466], [-76.9609234, 39.0030534], [-76.9609695, 39.0030481], [-76.9610151, 39.003041], [-76.961422, 39.0029732], [-76.9616481, 39.0029361], [-76.962183, 39.0028464], [-76.9625328, 39.0027919], [-76.9628218, 39.0027442], [-76.9634055, 39.002646], [-76.963556, 39.0026221], [-76.9638643, 39.0025697], [-76.9641047, 39.0025285]]], [[[-76.9518663, 39.0045083], [-76.9533813, 39.0030963], [-76.9523701, 39.0023355], [-76.9526103, 39.0023778], [-76.9527827, 39.0024067], [-76.9532858, 39.0024898], [-76.9559418, 39.0029358], [-76.9565914, 39.0030517], [-76.9570216, 39.0031153], [-76.9576927, 39.0031977], [-76.9581225, 39.0032315], [-76.9578689, 39.0036354], [-76.9577975, 39.003747], [-76.957158, 39.0036774], [-76.9566109, 39.0035878], [-76.9561333, 39.0034989], [-76.9559613, 39.0034636], [-76.9548592, 39.0052066], [-76.9545066, 39.0056977], [-76.9540303, 39.0061452], [-76.9532031, 39.0064836], [-76.9529745, 39.0065786], [-76.9527825, 39.0066533], [-76.9527438, 39.0066743], [-76.9523759, 39.0068299], [-76.9501188, 39.0075007], [-76.9499178, 39.007553], [-76.9489834, 39.0075665], [-76.9488832, 39.0075245], [-76.9488141, 39.007491], [-76.9476673, 39.0069339], [-76.9479264, 39.0063907], [-76.9479872, 39.0062629], [-76.9483771, 39.0054387], [-76.9484845, 39.0052316], [-76.9512623, 39.004643], [-76.9516421, 39.0045612], [-76.9518663, 39.0045083]]], [[[-76.9238692, 38.9976089], [-76.9235639, 38.9976031], [-76.9236191, 38.9979811], [-76.9225835, 38.9979761], [-76.9224268, 38.9979769], [-76.9224669, 38.9977829], [-76.9221774, 38.9978067], [-76.9221627, 38.9979039], [-76.9206916, 38.9976511], [-76.9218593, 38.9948511], [-76.9222028, 38.9949484], [-76.9230763, 38.9951943], [-76.9230495, 38.9952743], [-76.9231992, 38.9953147], [-76.9234923, 38.9953989], [-76.9234909, 38.9954007], [-76.9237144, 38.9954561], [-76.9237821, 38.9955047], [-76.9238956, 38.9955342], [-76.9238988, 38.9955931], [-76.9239115, 38.9958155], [-76.9239301, 38.9960894], [-76.9239401, 38.9962235], [-76.9239646, 38.9966418], [-76.923984, 38.9969615], [-76.9241885, 38.9968899], [-76.9242372, 38.9971554], [-76.9242584, 38.9971572], [-76.9243498, 38.9976102], [-76.9244571, 38.9976123], [-76.9245349, 38.9979986], [-76.9238575, 38.9979851], [-76.9238692, 38.9976089]]], [[[-76.9415003, 38.9789473], [-76.9415106, 38.9789585], [-76.9415131, 38.9789719], [-76.9415435, 38.9792347], [-76.9415103, 38.9792255], [-76.9414603, 38.9792125], [-76.9414268, 38.9792042], [-76.9413762, 38.9791923], [-76.9413424, 38.9791849], [-76.9412914, 38.9791742], [-76.9412232, 38.9791608], [-76.941206, 38.9791577], [-76.9411888, 38.979155], [-76.9411542, 38.9791502], [-76.9411022, 38.9791433], [-76.9410328, 38.9791343], [-76.9407722, 38.9791016], [-76.9407549, 38.9790995], [-76.9407374, 38.9790977], [-76.94072, 38.9790956], [-76.9407027, 38.9790933], [-76.9406681, 38.9790882], [-76.9406509, 38.9790854], [-76.9406166, 38.9790792], [-76.9405826, 38.9790724], [-76.9405656, 38.9790687], [-76.9405487, 38.9790649], [-76.9405145, 38.9790567], [-76.9404985, 38.9790524], [-76.9404653, 38.9790432], [-76.9404318, 38.9790333], [-76.9404, 38.9790228], [-76.9403679, 38.9790116], [-76.9403361, 38.9789998], [-76.9403048, 38.9789873], [-76.9402892, 38.9789809], [-76.9402585, 38.9789675], [-76.9402133, 38.9789463], [-76.9401985, 38.9789389], [-76.9401692, 38.9789237], [-76.9401547, 38.9789159], [-76.9401262, 38.9788999], [-76.9400982, 38.9788832], [-76.9400707, 38.9788661], [-76.9400439, 38.9788483], [-76.9400176, 38.9788301], [-76.9399919, 38.9788113], [-76.9399669, 38.978792], [-76.9399425, 38.9787722], [-76.9399188, 38.978752], [-76.9399071, 38.9787417], [-76.9398844, 38.9787207], [-76.9398624, 38.9786993], [-76.9398516, 38.9786884], [-76.9398307, 38.9786664], [-76.9398204, 38.9786552], [-76.9398105, 38.9786439], [-76.939688, 38.9784932], [-76.9396038, 38.9783886], [-76.9395948, 38.9783768], [-76.9395869, 38.9783645], [-76.9395784, 38.9783518], [-76.9395699, 38.9783397], [-76.9395526, 38.9783166], [-76.9395344, 38.9782931], [-76.9395156, 38.9782698], [-76.939506, 38.9782584], [-76.9394863, 38.9782356], [-76.9394754, 38.9782241], [-76.9395093, 38.978222], [-76.9395441, 38.9782202], [-76.9395793, 38.9782185], [-76.9397034, 38.9782132], [-76.9397207, 38.9782156], [-76.9397378, 38.9782186], [-76.9397549, 38.9782219], [-76.9397719, 38.9782256], [-76.9397887, 38.9782295], [-76.9398055, 38.9782337], [-76.9398221, 38.9782383], [-76.9398385, 38.9782431], [-76.9398548, 38.9782483], [-76.939871, 38.9782537], [-76.9398869, 38.9782595], [-76.9399027, 38.9782655], [-76.9399183, 38.9782718], [-76.9399338, 38.9782784], [-76.939949, 38.9782853], [-76.939964, 38.9782925], [-76.9399788, 38.9782999], [-76.9399933, 38.9783076], [-76.9400076, 38.9783156], [-76.9400217, 38.9783238], [-76.9400355, 38.9783323], [-76.9400491, 38.978341], [-76.9400624, 38.97835], [-76.9400754, 38.9783593], [-76.9400955, 38.9783744], [-76.9403323, 38.9785384], [-76.9403459, 38.978547], [-76.9403737, 38.9785639], [-76.9403877, 38.9785722], [-76.9404019, 38.9785803], [-76.9404305, 38.9785963], [-76.9404436, 38.9786038], [-76.9404889, 38.9786269], [-76.9405187, 38.9786415], [-76.9405488, 38.9786556], [-76.9405793, 38.9786693], [-76.9405947, 38.978676], [-76.9406257, 38.9786889], [-76.9406437, 38.9786961], [-76.9406571, 38.9787014], [-76.9406887, 38.9787134], [-76.9407207, 38.9787248], [-76.9407368, 38.9787304], [-76.9407529, 38.9787358], [-76.9407694, 38.9787405], [-76.9412268, 38.9788404], [-76.9412442, 38.9788414], [-76.9412609, 38.9788421], [-76.9412799, 38.9788445], [-76.9412965, 38.9788468], [-76.9413136, 38.97885], [-76.9413305, 38.9788538], [-76.9413471, 38.9788584], [-76.9413634, 38.9788635], [-76.9413793, 38.9788693], [-76.9413948, 38.9788758], [-76.9414099, 38.9788828], [-76.9414246, 38.9788904], [-76.9414387, 38.9788986], [-76.9414522, 38.9789074], [-76.9414652, 38.9789166], [-76.9414776, 38.9789264], [-76.9414893, 38.9789367], [-76.9415003, 38.9789473]]], [[[-76.9196318, 38.9675351], [-76.9188829, 38.9673228], [-76.9187665, 38.9671728], [-76.9188198, 38.9671832], [-76.9194997, 38.9673211], [-76.919763, 38.9673774], [-76.9196318, 38.9675351]]], [[[-76.9330248, 38.993362], [-76.9331856, 38.9929686], [-76.934508, 38.9930861], [-76.9339221, 38.993947], [-76.9338953, 38.9941482], [-76.9327944, 38.9938808], [-76.9330248, 38.993362]]], [[[-76.9621262, 38.9985149], [-76.9614082, 38.9996314], [-76.961316, 38.9997887], [-76.9607116, 39.0007362], [-76.9601855, 39.0015585], [-76.9595454, 39.00257], [-76.9592036, 39.0031092], [-76.9585505, 39.0030988], [-76.9580445, 39.003086], [-76.9580007, 39.0030837], [-76.9575763, 39.0030415], [-76.957136, 39.0029951], [-76.9564644, 39.0028911], [-76.9556437, 39.0027439], [-76.9533066, 39.0023564], [-76.9530233, 39.0023059], [-76.9527594, 39.0022635], [-76.9524573, 39.0022122], [-76.9521186, 39.0021491], [-76.9517115, 39.0018476], [-76.9513001, 39.0015405], [-76.9509044, 39.00127], [-76.9506881, 39.0011137], [-76.9505733, 39.0010092], [-76.9503153, 39.0007733], [-76.9502511, 39.0007163], [-76.9502571, 39.0007116], [-76.950128, 38.9996729], [-76.9501019, 38.9996262], [-76.9500268, 38.9990078], [-76.9499567, 38.9984479], [-76.9498744, 38.9978771], [-76.9494583, 38.9979144], [-76.9485157, 38.9980139], [-76.9478349, 38.9980871], [-76.9475282, 38.9981086], [-76.9476836, 38.997982], [-76.9480665, 38.9976452], [-76.9486228, 38.9970939], [-76.9489776, 38.9967088], [-76.9494777, 38.9961007], [-76.9495146, 38.9961155], [-76.949567, 38.9960452], [-76.9495318, 38.9960264], [-76.9498162, 38.9956352], [-76.9502674, 38.9950138], [-76.9508534, 38.9941736], [-76.9509484, 38.994216], [-76.9511051, 38.9939976], [-76.9510216, 38.9939534], [-76.9516912, 38.992989], [-76.9518122, 38.9928219], [-76.9519015, 38.9928594], [-76.9521608, 38.9925065], [-76.9520715, 38.9924596], [-76.9533199, 38.9906661], [-76.9543988, 38.9891607], [-76.9546642, 38.9887891], [-76.9547674, 38.9886463], [-76.9551766, 38.9881596], [-76.9552979, 38.9879801], [-76.955856, 38.9872644], [-76.9561061, 38.9873222], [-76.9561741, 38.9874804], [-76.9562069, 38.9875637], [-76.9562378, 38.9876474], [-76.9562668, 38.9877315], [-76.956294, 38.987816], [-76.9563192, 38.9879008], [-76.9563426, 38.987986], [-76.956364, 38.9880715], [-76.9563836, 38.9881573], [-76.9564012, 38.9882433], [-76.9564169, 38.9883296], [-76.9564306, 38.988416], [-76.9564584, 38.9885027], [-76.9564831, 38.9885902], [-76.9565059, 38.988647], [-76.9565226, 38.988991], [-76.9565216, 38.9891265], [-76.9565026, 38.9892891], [-76.9564915, 38.9894893], [-76.9564871, 38.9895302], [-76.9566577, 38.9895446], [-76.9565999, 38.9898557], [-76.9565324, 38.9901526], [-76.956465, 38.9903773], [-76.9564469, 38.9905072], [-76.9564389, 38.990713], [-76.9564445, 38.9908621], [-76.9564787, 38.9910494], [-76.9565186, 38.9912067], [-76.9565972, 38.9914132], [-76.9566399, 38.9915193], [-76.9567132, 38.9916467], [-76.9567892, 38.9917553], [-76.9568582, 38.991856], [-76.9569162, 38.9919334], [-76.9570379, 38.992065], [-76.957135, 38.992159], [-76.9571966, 38.992216], [-76.9572634, 38.9922708], [-76.9573408, 38.9923328], [-76.9574397, 38.9924035], [-76.9575311, 38.9924648], [-76.9577426, 38.9926153], [-76.9578476, 38.9926873], [-76.9582763, 38.992991], [-76.9585414, 38.9931768], [-76.9587849, 38.9933478], [-76.9591071, 38.9935762], [-76.9593287, 38.9937347], [-76.9599433, 38.9941873], [-76.9601561, 38.9943529], [-76.9603882, 38.9945543], [-76.9605187, 38.9946781], [-76.9606431, 38.9947997], [-76.9607803, 38.9949518], [-76.9609011, 38.9950984], [-76.9610444, 38.9952892], [-76.9611455, 38.9954362], [-76.9612404, 38.9955882], [-76.9613353, 38.9957479], [-76.9614096, 38.9959049], [-76.9614878, 38.9960747], [-76.961562, 38.9962779], [-76.9616366, 38.996512], [-76.961684, 38.9966868], [-76.9617165, 38.9968437], [-76.9619078, 38.9977098], [-76.9619881, 38.9980618], [-76.9620847, 38.9983909], [-76.9621262, 38.9985149]]], [[[-76.926722, 38.9672923], [-76.928712, 38.9673986], [-76.9286695, 38.9674197], [-76.928631, 38.9674393], [-76.9285703, 38.9674742], [-76.9285379, 38.9674951], [-76.9284778, 38.9675361], [-76.9284113, 38.9675884], [-76.9283515, 38.9676419], [-76.9282928, 38.9677031], [-76.9282481, 38.9677571], [-76.9279305, 38.9681721], [-76.9278203, 38.9683332], [-76.9277302, 38.9685018], [-76.9276611, 38.9686763], [-76.9276137, 38.9688552], [-76.9275862, 38.9689598], [-76.9275465, 38.969062], [-76.9274947, 38.9691608], [-76.9274315, 38.9692555], [-76.9273574, 38.9693452], [-76.9272729, 38.9694292], [-76.9271789, 38.9695067], [-76.9269508, 38.969681], [-76.9268286, 38.9696808], [-76.9267839, 38.9696472], [-76.9267157, 38.9695972], [-76.9266456, 38.9695473], [-76.9265811, 38.9695027], [-76.9265165, 38.9694593], [-76.9264453, 38.9694128], [-76.9263797, 38.9693712], [-76.926323, 38.9693362], [-76.9262761, 38.9693077], [-76.9261901, 38.9692572], [-76.9261567, 38.9692379], [-76.9261162, 38.9692151], [-76.926079, 38.9691944], [-76.9260338, 38.9691697], [-76.9259934, 38.969148], [-76.9259529, 38.9691265], [-76.9259233, 38.9691111], [-76.9258762, 38.969087], [-76.9258227, 38.9690601], [-76.9257904, 38.9690443], [-76.9257624, 38.9690306], [-76.9257129, 38.9690069], [-76.925674, 38.9689886], [-76.9256301, 38.9689684], [-76.9255609, 38.9689372], [-76.9255344, 38.9689255], [-76.9254597, 38.9688931], [-76.9253814, 38.9688604], [-76.9253457, 38.9688459], [-76.9253138, 38.968833], [-76.9252619, 38.9688126], [-76.9252149, 38.9687944], [-76.9246521, 38.9686266], [-76.9238385, 38.9684068], [-76.9237415, 38.9682826], [-76.923938, 38.9677857], [-76.9240344, 38.9675442], [-76.924267, 38.9676095], [-76.9243516, 38.967668], [-76.9245214, 38.9677126], [-76.9246041, 38.9677697], [-76.9246531, 38.9677833], [-76.92496, 38.9678612], [-76.9250297, 38.9679086], [-76.9252847, 38.9679411], [-76.9257172, 38.9679221], [-76.9257956, 38.9679387], [-76.9259094, 38.9679554], [-76.9261028, 38.9679418], [-76.9262576, 38.9679062], [-76.9263315, 38.9679145], [-76.926532, 38.9678158], [-76.9265146, 38.9676538], [-76.926585, 38.9676181], [-76.9265921, 38.967577], [-76.9265675, 38.9675165], [-76.9266625, 38.9674617], [-76.9266556, 38.967382], [-76.926722, 38.9672923]]], [[[-76.9368747, 38.9857067], [-76.93681, 38.9858258], [-76.936784, 38.9858723], [-76.9367037, 38.986012], [-76.9366263, 38.9861411], [-76.936563, 38.9862431], [-76.9365144, 38.9863195], [-76.9362065, 38.986802], [-76.9361845, 38.9867956], [-76.9348835, 38.9862914], [-76.9343367, 38.9871483], [-76.935568, 38.9876269], [-76.935519, 38.9876791], [-76.9354767, 38.9877215], [-76.9353977, 38.9878108], [-76.9350897, 38.9882934], [-76.9348585, 38.9883491], [-76.934839, 38.9883403], [-76.9348281, 38.9883359], [-76.9344509, 38.9881715], [-76.9344268, 38.9881608], [-76.9343924, 38.9881449], [-76.9343753, 38.9881368], [-76.9343575, 38.9881281], [-76.9343383, 38.9881185], [-76.9343086, 38.9881032], [-76.9342868, 38.9880915], [-76.934268, 38.9880811], [-76.9342311, 38.9880602], [-76.9341954, 38.9880388], [-76.9341658, 38.9880203], [-76.9340952, 38.9879732], [-76.9340515, 38.9879417], [-76.9339952, 38.987898], [-76.9339447, 38.9878557], [-76.9339308, 38.9878436], [-76.9338843, 38.9878014], [-76.9338058, 38.987725], [-76.933767, 38.9876844], [-76.9337348, 38.9876491], [-76.9337176, 38.9876297], [-76.9336921, 38.9875999], [-76.9336666, 38.987569], [-76.9335122, 38.9873518], [-76.9334281, 38.9872009], [-76.9333499, 38.9870219], [-76.9333409, 38.9869972], [-76.9333348, 38.9869798], [-76.9333248, 38.9869503], [-76.9333142, 38.9869167], [-76.9333054, 38.9868868], [-76.9333008, 38.9868705], [-76.9332893, 38.9868266], [-76.933282, 38.9867956], [-76.9332755, 38.9867658], [-76.9332689, 38.9867329], [-76.9332626, 38.9866974], [-76.933257, 38.9866619], [-76.9332541, 38.9866413], [-76.9332493, 38.986602], [-76.9331203, 38.9854251], [-76.9331141, 38.9853477], [-76.9331034, 38.9852714], [-76.9330945, 38.9851905], [-76.9330903, 38.9851581], [-76.9330833, 38.9851136], [-76.9330768, 38.9850789], [-76.933065, 38.9850247], [-76.933055, 38.9849849], [-76.9330398, 38.9849321], [-76.9330269, 38.984892], [-76.9330128, 38.9848518], [-76.9329977, 38.9848125], [-76.9329805, 38.9847712], [-76.932961, 38.9847301], [-76.932931, 38.9846672], [-76.932905, 38.9846192], [-76.932878, 38.984573], [-76.9328393, 38.9845119], [-76.9328035, 38.9844601], [-76.9327656, 38.9844092], [-76.9327062, 38.9843362], [-76.9326667, 38.9842916], [-76.932616, 38.9842381], [-76.9325834, 38.9842057], [-76.9325574, 38.9841808], [-76.9325144, 38.9841417], [-76.9324609, 38.9840959], [-76.9324245, 38.9840665], [-76.9323812, 38.984033], [-76.9323425, 38.9840046], [-76.9322677, 38.983953], [-76.9321982, 38.9839089], [-76.9321482, 38.9838792], [-76.9320963, 38.98385], [-76.9320744, 38.9838382], [-76.9320371, 38.9838187], [-76.9320242, 38.9838124], [-76.9319915, 38.9837959], [-76.9319385, 38.9837709], [-76.931883, 38.9837463], [-76.9317784, 38.9837039], [-76.9316895, 38.9836718], [-76.9312996, 38.9835445], [-76.9311065, 38.9834816], [-76.9311609, 38.9833799], [-76.931165, 38.983372], [-76.931167, 38.9833676], [-76.9311714, 38.9833554], [-76.9311733, 38.9833481], [-76.9311751, 38.9833376], [-76.9311755, 38.9833312], [-76.9311757, 38.9833247], [-76.9311745, 38.9833109], [-76.9311714, 38.9832972], [-76.9311663, 38.9832836], [-76.9311549, 38.9832638], [-76.9311388, 38.9832451], [-76.93112, 38.9832298], [-76.9311052, 38.9832207], [-76.9310857, 38.9832115], [-76.9310701, 38.9832039], [-76.9310492, 38.9831894], [-76.9312257, 38.9827108], [-76.9318573, 38.9828527], [-76.9321006, 38.982193], [-76.9327767, 38.982345], [-76.932909, 38.9823764], [-76.933534, 38.982518], [-76.9332939, 38.9831639], [-76.9342648, 38.983057], [-76.9343834, 38.9827382], [-76.935059, 38.9828913], [-76.9352552, 38.9823639], [-76.9359259, 38.982517], [-76.9358707, 38.9826612], [-76.9357852, 38.9828945], [-76.9359422, 38.9828769], [-76.936001, 38.9827131], [-76.9360171, 38.9826791], [-76.9365617, 38.9828034], [-76.9377394, 38.9826742], [-76.9377577, 38.9826115], [-76.937742, 38.9828041], [-76.9377619, 38.9828053], [-76.9377353, 38.9830431], [-76.9377182, 38.9831677], [-76.9377009, 38.9832809], [-76.9376569, 38.9835269], [-76.9376073, 38.9837603], [-76.9375193, 38.9841063], [-76.9375146, 38.9841231], [-76.9374674, 38.9842836], [-76.9374058, 38.9844762], [-76.9373702, 38.98458], [-76.937333, 38.9846838], [-76.9372948, 38.9847861], [-76.9372457, 38.9849112], [-76.9372057, 38.9850089], [-76.9371759, 38.9850793], [-76.9371537, 38.9851308], [-76.9371228, 38.9852005], [-76.9370413, 38.9853767], [-76.9370108, 38.9854401], [-76.9369726, 38.9855172], [-76.9369387, 38.9855842], [-76.9368747, 38.9857067]]], [[[-76.9403471, 39.001261], [-76.9410096, 39.0011392], [-76.9415661, 39.0010074], [-76.9414745, 39.001209], [-76.9414886, 39.0012175], [-76.9415039, 39.0012251], [-76.9415221, 39.0012329], [-76.941539, 39.0012387], [-76.9415611, 39.0012449], [-76.9415789, 39.0012485], [-76.9416299, 39.0009914], [-76.9420179, 39.0008925], [-76.9423609, 39.0007944], [-76.9424477, 39.0007681], [-76.9425377, 39.0007469], [-76.9425551, 39.0008309], [-76.9425994, 39.0010181], [-76.9426542, 39.0012819], [-76.9426651, 39.001321], [-76.9426977, 39.0013819], [-76.9427173, 39.0014231], [-76.9427686, 39.0016188], [-76.9432701, 39.0017052], [-76.9435188, 39.0008004], [-76.9435773, 39.0008139], [-76.9436389, 39.0008233], [-76.9440311, 39.0008891], [-76.9440395, 39.0008759], [-76.9441332, 39.0008945], [-76.9452503, 39.0010717], [-76.9448475, 39.0025469], [-76.944702, 39.0030833], [-76.9442917, 39.0046075], [-76.944263, 39.0047127], [-76.9440848, 39.0053579], [-76.9439132, 39.0060004], [-76.9436361, 39.0070444], [-76.939792, 39.0073047], [-76.9379611, 39.0074265], [-76.9374092, 39.0018555], [-76.938939, 39.0021175], [-76.9390867, 39.0015849], [-76.9402092, 39.0017673], [-76.9403471, 39.001261]]], [[[-76.9217592, 38.968129], [-76.92251, 38.9682795], [-76.9233282, 38.9684616], [-76.9233857, 38.9685479], [-76.923236, 38.9689157], [-76.9232142, 38.9689732], [-76.9231964, 38.9690278], [-76.92318, 38.9690882], [-76.9231681, 38.9691469], [-76.9231585, 38.969203], [-76.9231512, 38.9692578], [-76.9231481, 38.9693118], [-76.9231463, 38.9693704], [-76.9231485, 38.9694298], [-76.9231521, 38.9694855], [-76.9231598, 38.9695429], [-76.9231692, 38.9695971], [-76.9231834, 38.9696631], [-76.9231974, 38.9697133], [-76.9232118, 38.9697578], [-76.9232306, 38.9698178], [-76.9232426, 38.9698649], [-76.9232527, 38.9699135], [-76.9232615, 38.9699715], [-76.9232668, 38.9700253], [-76.9232683, 38.9700535], [-76.9232692, 38.9700861], [-76.9232687, 38.9701314], [-76.9232673, 38.9701594], [-76.9232656, 38.9701832], [-76.9232597, 38.9702364], [-76.9232575, 38.9702511], [-76.9232549, 38.9702676], [-76.9232511, 38.9702884], [-76.9232448, 38.9703193], [-76.9232398, 38.9703406], [-76.9232323, 38.9703695], [-76.923226, 38.9703917], [-76.9232186, 38.9704156], [-76.923209, 38.9704439], [-76.9231884, 38.9704977], [-76.9231708, 38.9705379], [-76.9231656, 38.9705475], [-76.9231618, 38.9705532], [-76.9231574, 38.9705588], [-76.9231522, 38.9705643], [-76.9231428, 38.9705727], [-76.9231364, 38.9705775], [-76.92313, 38.9705816], [-76.9231238, 38.9705851], [-76.9231164, 38.9705887], [-76.9231107, 38.9705911], [-76.9231041, 38.9705935], [-76.9230986, 38.9705953], [-76.9230801, 38.9706002], [-76.9230723, 38.9706025], [-76.9230557, 38.9706082], [-76.9230362, 38.9706165], [-76.9230156, 38.9706274], [-76.9229974, 38.9706392], [-76.9229861, 38.9706478], [-76.9229703, 38.970662], [-76.9229584, 38.9706748], [-76.9229447, 38.9706932], [-76.922932, 38.9707159], [-76.9229233, 38.9707394], [-76.9229199, 38.9707543], [-76.9229177, 38.9707737], [-76.9229177, 38.9707878], [-76.9229192, 38.9708035], [-76.9229225, 38.9708196], [-76.9229278, 38.970836], [-76.9229308, 38.9708433], [-76.9229352, 38.9708524], [-76.9229416, 38.9708638], [-76.9229462, 38.9708709], [-76.9229526, 38.9708798], [-76.9229569, 38.9708852], [-76.9229608, 38.9708898], [-76.922966, 38.9708955], [-76.9229707, 38.9709003], [-76.9229763, 38.9709056], [-76.922986, 38.970914], [-76.9229918, 38.9709185], [-76.9229982, 38.9709232], [-76.9230038, 38.9709271], [-76.92301, 38.9709311], [-76.923017, 38.9709353], [-76.9230229, 38.9709386], [-76.9230342, 38.9709444], [-76.9230405, 38.9709474], [-76.923048, 38.9709506], [-76.9230563, 38.9709539], [-76.923067, 38.9709577], [-76.9230765, 38.9709607], [-76.9230872, 38.9709636], [-76.9230971, 38.970966], [-76.9231045, 38.9709675], [-76.923113, 38.970969], [-76.9231221, 38.9709704], [-76.9231303, 38.9709714], [-76.9231394, 38.9709722], [-76.923147, 38.9709727], [-76.9231575, 38.9709731], [-76.9231671, 38.9709731], [-76.9231767, 38.9709729], [-76.9231844, 38.9709725], [-76.9231926, 38.9709718], [-76.9232018, 38.9709708], [-76.9232128, 38.9709693], [-76.9232222, 38.9709676], [-76.9232333, 38.9709653], [-76.9232439, 38.9709627], [-76.9232503, 38.9709609], [-76.9232603, 38.9709577], [-76.9232695, 38.9709545], [-76.9232779, 38.9709512], [-76.9232856, 38.970948], [-76.9232917, 38.9709451], [-76.9233042, 38.9709388], [-76.92331, 38.9709355], [-76.9233188, 38.9709302], [-76.9233304, 38.9709224], [-76.9233358, 38.9709184], [-76.9233413, 38.9709141], [-76.9233473, 38.970909], [-76.9233526, 38.9709042], [-76.9233601, 38.9708968], [-76.9233653, 38.9708913], [-76.9233718, 38.9708836], [-76.9233774, 38.9708764], [-76.9233823, 38.9708695], [-76.923387, 38.9708619], [-76.9233906, 38.9708556], [-76.9233959, 38.9708449], [-76.9233984, 38.9708391], [-76.9234017, 38.9708303], [-76.9234043, 38.9708219], [-76.9234055, 38.9708172], [-76.9234072, 38.9708096], [-76.9234084, 38.9708022], [-76.9234096, 38.9707902], [-76.9234099, 38.9707811], [-76.9234096, 38.9707709], [-76.9234087, 38.970762], [-76.9234071, 38.9707522], [-76.923406, 38.9707468], [-76.9234039, 38.9707388], [-76.9234014, 38.9707307], [-76.9233986, 38.9707233], [-76.9233948, 38.9707146], [-76.9233871, 38.9706994], [-76.923385, 38.9706944], [-76.923383, 38.9706883], [-76.9233817, 38.970683], [-76.9233808, 38.9706778], [-76.9233802, 38.9706713], [-76.9233803, 38.9706618], [-76.9233808, 38.9706567], [-76.9233826, 38.9706477], [-76.9233855, 38.9706387], [-76.9234089, 38.9705879], [-76.9234188, 38.9705651], [-76.9234313, 38.9705341], [-76.923439, 38.9705136], [-76.9234502, 38.970482], [-76.9234568, 38.9704616], [-76.9234669, 38.9704285], [-76.9234782, 38.9703864], [-76.9234848, 38.9703583], [-76.9234922, 38.9703229], [-76.923499, 38.9702836], [-76.9235034, 38.9702534], [-76.9235081, 38.9702118], [-76.923512, 38.970157], [-76.9235132, 38.9700976], [-76.9235122, 38.9700481], [-76.9235081, 38.96999], [-76.9235016, 38.9699348], [-76.923492, 38.9698769], [-76.9234798, 38.9698224], [-76.9234664, 38.9697714], [-76.9234579, 38.9697433], [-76.9234418, 38.9696951], [-76.9234362, 38.969678], [-76.9234308, 38.9696604], [-76.9234279, 38.9696504], [-76.9234174, 38.9696112], [-76.9234108, 38.9695827], [-76.9234049, 38.9695534], [-76.9234001, 38.9695258], [-76.9233962, 38.9694991], [-76.9233932, 38.9694734], [-76.9233911, 38.9694521], [-76.9233893, 38.9694271], [-76.9233882, 38.9694054], [-76.9233877, 38.9693894], [-76.9233874, 38.9693642], [-76.9233875, 38.9693476], [-76.923388, 38.9693298], [-76.9233887, 38.969314], [-76.9233898, 38.9692942], [-76.9233909, 38.9692798], [-76.9233926, 38.9692618], [-76.9233948, 38.9692418], [-76.9233969, 38.9692259], [-76.9234011, 38.9691983], [-76.9234058, 38.9691717], [-76.9234112, 38.9691457], [-76.9234173, 38.9691195], [-76.9234224, 38.9690995], [-76.9234268, 38.9690833], [-76.9234316, 38.9690671], [-76.9234384, 38.9690452], [-76.9234465, 38.9690212], [-76.923455, 38.9689977], [-76.9234644, 38.9689737], [-76.923612, 38.9686083], [-76.9237235, 38.9685642], [-76.9239055, 38.9686133], [-76.9240654, 38.9686581], [-76.9242334, 38.9687067], [-76.9243922, 38.9687543], [-76.9245592, 38.9688059], [-76.9236051, 38.9706591], [-76.9236265, 38.9707914], [-76.9245006, 38.9712513], [-76.9252249, 38.9715878], [-76.9263064, 38.970649], [-76.927027, 38.9701791], [-76.9271088, 38.9702557], [-76.9271887, 38.970335], [-76.9272664, 38.9704156], [-76.9273418, 38.9704975], [-76.9274109, 38.9705816], [-76.9274817, 38.970666], [-76.9275502, 38.9707516], [-76.9276163, 38.9708383], [-76.9276805, 38.9709273], [-76.9277417, 38.9710162], [-76.9278004, 38.9711061], [-76.9278541, 38.9711964], [-76.9279077, 38.9712882], [-76.9279588, 38.9713808], [-76.9279839, 38.9714277], [-76.9280073, 38.9714744], [-76.9280523, 38.9715695], [-76.9280769, 38.9716205], [-76.9281361, 38.9717604], [-76.928174, 38.9718568], [-76.9282093, 38.9719539], [-76.9282418, 38.9720515], [-76.9282716, 38.9721497], [-76.9282971, 38.9722478], [-76.9283214, 38.9723469], [-76.928343, 38.9724464], [-76.9283618, 38.9725462], [-76.9283778, 38.9726463], [-76.9283895, 38.9727452], [-76.9284004, 38.9728473], [-76.928407, 38.9729438], [-76.9284131, 38.9730516], [-76.9270727, 38.9729771], [-76.9270381, 38.97306], [-76.9262866, 38.9748088], [-76.9261707, 38.9750958], [-76.9261612, 38.9750936], [-76.9261516, 38.9750918], [-76.9261418, 38.9750903], [-76.9261319, 38.9750893], [-76.926122, 38.9750887], [-76.9261121, 38.9750884], [-76.9261022, 38.9750886], [-76.9260922, 38.9750892], [-76.9260824, 38.9750902], [-76.9260726, 38.9750916], [-76.9260629, 38.9750934], [-76.9260534, 38.9750956], [-76.926044, 38.9750982], [-76.9260348, 38.9751011], [-76.9260258, 38.9751044], [-76.9260171, 38.9751081], [-76.9260086, 38.9751122], [-76.9260004, 38.9751166], [-76.9259925, 38.9751213], [-76.925985, 38.9751263], [-76.9259777, 38.9751317], [-76.9259709, 38.9751373], [-76.9259644, 38.9751432], [-76.9259583, 38.9751494], [-76.9259527, 38.9751558], [-76.9259475, 38.9751624], [-76.9259434, 38.9751682], [-76.9259392, 38.9751751], [-76.9259355, 38.9751822], [-76.9259323, 38.9751894], [-76.9259295, 38.9751967], [-76.9259273, 38.9752042], [-76.9259255, 38.9752117], [-76.9259243, 38.9752193], [-76.9259235, 38.9752269], [-76.9259233, 38.9752345], [-76.9259236, 38.9752422], [-76.9259244, 38.9752498], [-76.9259257, 38.9752574], [-76.9259275, 38.9752649], [-76.9259298, 38.9752723], [-76.9259326, 38.9752796], [-76.9259359, 38.9752868], [-76.9259397, 38.9752939], [-76.9259439, 38.9753008], [-76.9259486, 38.9753075], [-76.9259537, 38.975314], [-76.9259593, 38.9753203], [-76.9259686, 38.9753297], [-76.9259729, 38.9753349], [-76.9259765, 38.9753404], [-76.9259793, 38.9753462], [-76.9259813, 38.9753522], [-76.9259825, 38.9753583], [-76.9259829, 38.9753644], [-76.9259825, 38.9753706], [-76.9259812, 38.9753767], [-76.9259792, 38.9753827], [-76.9253308, 38.9769317], [-76.9252672, 38.9770849], [-76.9252243, 38.9770827], [-76.9251802, 38.9771661], [-76.9251697, 38.9771632], [-76.9245847, 38.9770328], [-76.9243497, 38.9769689], [-76.9238616, 38.9768451], [-76.9238304, 38.9767577], [-76.9237537, 38.9767337], [-76.9243479, 38.975335], [-76.9243842, 38.9753352], [-76.9244052, 38.9752833], [-76.9242591, 38.9752777], [-76.9232124, 38.9752377], [-76.9219172, 38.9751647], [-76.9214241, 38.9748133], [-76.9206028, 38.9742333], [-76.9198244, 38.9736866], [-76.9202191, 38.9725983], [-76.9208325, 38.9726297], [-76.9208392, 38.972556], [-76.920703, 38.9723497], [-76.9205141, 38.9721432], [-76.920511, 38.9720444], [-76.9205534, 38.972006], [-76.9205115, 38.9719537], [-76.9205048, 38.9718796], [-76.9206886, 38.9717017], [-76.9210103, 38.9713484], [-76.9211067, 38.9710522], [-76.9211648, 38.971029], [-76.9211193, 38.9709789], [-76.9210878, 38.9705963], [-76.921177, 38.9703385], [-76.921414, 38.9700591], [-76.9214357, 38.9699301], [-76.9214246, 38.9693232], [-76.9214672, 38.96923], [-76.9215484, 38.9691671], [-76.9215836, 38.9691727], [-76.9215973, 38.9692496], [-76.9216638, 38.969302], [-76.9217763, 38.969327], [-76.9218256, 38.9692969], [-76.9218297, 38.9691899], [-76.9217074, 38.9690165], [-76.9217996, 38.9688521], [-76.9217439, 38.9687421], [-76.9218009, 38.9685967], [-76.9217729, 38.9685555], [-76.9217272, 38.9685553], [-76.9216954, 38.9685799], [-76.9216391, 38.968588], [-76.9216267, 38.9685158], [-76.9217592, 38.968129]]], [[[-76.9307532, 38.9838579], [-76.9313027, 38.9836852], [-76.9315718, 38.9837774], [-76.9316107, 38.9837921], [-76.9316454, 38.9838048], [-76.9316798, 38.9838179], [-76.9317116, 38.9838295], [-76.9317476, 38.9838456], [-76.931781, 38.9838602], [-76.9318141, 38.9838752], [-76.9318469, 38.9838907], [-76.9318793, 38.9839066], [-76.9319081, 38.9839232], [-76.9319114, 38.9839229], [-76.931943, 38.9839397], [-76.9319743, 38.9839569], [-76.9320053, 38.9839745], [-76.9320358, 38.9839925], [-76.9320659, 38.984011], [-76.9320956, 38.9840299], [-76.9321248, 38.9840491], [-76.9321537, 38.9840688], [-76.932182, 38.9840888], [-76.93221, 38.9841093], [-76.9322374, 38.9841301], [-76.9322644, 38.9841513], [-76.9322471, 38.9841368], [-76.932291, 38.9841728], [-76.932317, 38.9841947], [-76.9323425, 38.984217], [-76.9323676, 38.9842396], [-76.9323921, 38.9842625], [-76.9324161, 38.9842858], [-76.9324396, 38.9843094], [-76.9324626, 38.9843333], [-76.932485, 38.9843575], [-76.9325069, 38.984382], [-76.9325282, 38.9844069], [-76.9325489, 38.984432], [-76.9325691, 38.9844573], [-76.9325888, 38.984483], [-76.9326078, 38.9845089], [-76.9326448, 38.984562], [-76.9326615, 38.9845882], [-76.9326781, 38.9846151], [-76.9326942, 38.9846422], [-76.9327097, 38.9846695], [-76.9327246, 38.984697], [-76.9327388, 38.9847248], [-76.9327524, 38.9847527], [-76.9327654, 38.9847808], [-76.9327778, 38.9848091], [-76.9327895, 38.9848375], [-76.9328006, 38.9848661], [-76.932811, 38.9848949], [-76.9328208, 38.9849238], [-76.93283, 38.9849528], [-76.9328385, 38.9849819], [-76.9328464, 38.9850111], [-76.9328536, 38.9850405], [-76.9328601, 38.9850699], [-76.932866, 38.9850995], [-76.9328712, 38.9851291], [-76.9328758, 38.9851587], [-76.9328796, 38.9851884], [-76.9328829, 38.9852182], [-76.9328854, 38.985248], [-76.9328873, 38.9852779], [-76.933043, 38.9866083], [-76.9330458, 38.9866516], [-76.9330485, 38.9866809], [-76.9330519, 38.9867101], [-76.9330559, 38.9867393], [-76.9330606, 38.9867684], [-76.9330659, 38.9867974], [-76.9330719, 38.9868264], [-76.9330785, 38.9868553], [-76.9330858, 38.9868841], [-76.9330937, 38.9869128], [-76.9331022, 38.9869414], [-76.9331114, 38.9869698], [-76.9331213, 38.9869981], [-76.9331317, 38.9870263], [-76.9331428, 38.9870544], [-76.933155, 38.9870822], [-76.9331669, 38.98711], [-76.9331798, 38.9871375], [-76.9334275, 38.9876872], [-76.933437, 38.9877087], [-76.9334429, 38.9877209], [-76.933449, 38.9877331], [-76.9334554, 38.9877452], [-76.933462, 38.9877572], [-76.933469, 38.9877691], [-76.9334762, 38.9877809], [-76.9334836, 38.9877926], [-76.9334914, 38.9878042], [-76.9334993, 38.9878156], [-76.9335076, 38.987827], [-76.9335161, 38.9878383], [-76.9335248, 38.9878494], [-76.9335338, 38.9878605], [-76.933543, 38.9878714], [-76.9335525, 38.9878821], [-76.9335622, 38.9878928], [-76.9335722, 38.9879033], [-76.9335824, 38.9879137], [-76.9335929, 38.9879239], [-76.9336482, 38.9879807], [-76.9336542, 38.9879865], [-76.9336623, 38.9879944], [-76.9337036, 38.9880339], [-76.933723, 38.9880517], [-76.9337589, 38.9880838], [-76.9338097, 38.9881274], [-76.9338723, 38.9881777], [-76.9339142, 38.9882099], [-76.9339503, 38.9882364], [-76.9339869, 38.9882625], [-76.9340242, 38.9882881], [-76.934062, 38.9883131], [-76.9341003, 38.9883376], [-76.9341392, 38.9883616], [-76.9341786, 38.9883851], [-76.9342186, 38.988408], [-76.934259, 38.9884304], [-76.9343, 38.9884522], [-76.9343414, 38.9884734], [-76.9343833, 38.9884941], [-76.9344257, 38.9885142], [-76.9344684, 38.9885338], [-76.9345117, 38.9885527], [-76.9345553, 38.9885711], [-76.9346076, 38.9885832], [-76.9347942, 38.9886713], [-76.9348843, 38.9889144], [-76.9347017, 38.989211], [-76.9347394, 38.9892524], [-76.9345397, 38.9893673], [-76.934371, 38.9896609], [-76.9336966, 38.9895746], [-76.9338173, 38.9889732], [-76.9338025, 38.9889627], [-76.9335102, 38.9889304], [-76.9334418, 38.9893328], [-76.9329791, 38.9888637], [-76.9325861, 38.9883727], [-76.9324196, 38.9881984], [-76.9320363, 38.9869144], [-76.931704, 38.985755], [-76.9317989, 38.9857395], [-76.9325572, 38.9856071], [-76.9323042, 38.9847497], [-76.9321561, 38.9846464], [-76.9314371, 38.984224], [-76.9307532, 38.9838579]]], [[[-76.9391317, 39.0014278], [-76.939059, 39.0014376], [-76.9384996, 39.0014729], [-76.9390279, 39.0015645], [-76.9390893, 39.0015748], [-76.9391317, 39.0014278]]]]}}