{"type": "Feature", "properties": {"market_key": 2295, "university": "University of Massachusetts Amherst", "osm_type": "relation", "osm_id": 9361144, "osm_name": "University of Massachusetts Amherst"}, "geometry": {"type": "MultiPolygon", "coordinates": [[[[-72.5208248, 42.3832472], [-72.521399, 42.3830954], [-72.5213282, 42.3829492], [-72.5211014, 42.3824811], [-72.5208749, 42.3825409], [-72.5205272, 42.3826328], [-72.5208248, 42.3832472]]], [[[-72.5221424, 42.4048534], [-72.5207287, 42.4021234], [-72.5219585, 42.4016723], [-72.5215669, 42.3997448], [-72.5215059, 42.3996689], [-72.5157581, 42.4014093], [-72.5158262, 42.4011335], [-72.5168131, 42.4008201], [-72.5170369, 42.3990417], [-72.5166742, 42.3990962], [-72.5165197, 42.3982068], [-72.5164391, 42.3982332], [-72.5162878, 42.3982843], [-72.516265, 42.3982868], [-72.5162303, 42.3982854], [-72.5162123, 42.3982829], [-72.5159983, 42.3983515], [-72.5159822, 42.3983752], [-72.5158888, 42.3983954], [-72.5158207, 42.3984109], [-72.5154315, 42.3984657], [-72.515383, 42.3984682], [-72.5152989, 42.3984664], [-72.5147581, 42.3984448], [-72.5146844, 42.399145], [-72.5142715, 42.3991193], [-72.5139905, 42.3993502], [-72.5137908, 42.3995166], [-72.513741, 42.399757], [-72.5146513, 42.399857], [-72.5148466, 42.399743], [-72.515643, 42.3998248], [-72.5156347, 42.3999589], [-72.5149988, 42.399889], [-72.5148581, 42.4006918], [-72.5125143, 42.4004411], [-72.5123742, 42.4004261], [-72.5119539, 42.400386], [-72.5119989, 42.4001281], [-72.5120563, 42.3995782], [-72.5058417, 42.3988072], [-72.5045426, 42.3986399], [-72.5048998, 42.3978191], [-72.5051254, 42.3970381], [-72.5051142, 42.3962111], [-72.5058124, 42.3962739], [-72.5092487, 42.3966231], [-72.5096362, 42.3961662], [-72.51109, 42.3963434], [-72.5112043, 42.3959592], [-72.5113475, 42.3957146], [-72.5114122, 42.3956099], [-72.5111539, 42.3954406], [-72.5110173, 42.3952803], [-72.5109895, 42.3951784], [-72.5110034, 42.3950785], [-72.5110642, 42.3949818], [-72.510349, 42.3946788], [-72.5105668, 42.3943632], [-72.5154802, 42.3949495], [-72.5153898, 42.3953467], [-72.5147844, 42.3952214], [-72.5148287, 42.3951254], [-72.5144253, 42.39511], [-72.514259, 42.3955569], [-72.5146948, 42.3956626], [-72.5153571, 42.3957718], [-72.5153148, 42.3960899], [-72.5145468, 42.3960639], [-72.5145292, 42.396489], [-72.514159, 42.3964773], [-72.5142276, 42.3971872], [-72.5153505, 42.3972345], [-72.5155952, 42.3972233], [-72.5155259, 42.3968481], [-72.5155664, 42.396026], [-72.5157133, 42.3948872], [-72.5157197, 42.3948553], [-72.5157251, 42.3948281], [-72.5157354, 42.3948108], [-72.515767, 42.3947705], [-72.5158123, 42.394583], [-72.5157857, 42.394473], [-72.5158987, 42.3940367], [-72.5162305, 42.3932542], [-72.5164532, 42.3927863], [-72.5164865, 42.3927052], [-72.5165364, 42.3925779], [-72.5166534, 42.3921087], [-72.5167374, 42.3916825], [-72.5167971, 42.3912918], [-72.5168372, 42.3909093], [-72.5168736, 42.3904852], [-72.5168859, 42.3901198], [-72.5168927, 42.3894762], [-72.5169016, 42.3891755], [-72.5169196, 42.3889026], [-72.5169903, 42.3884287], [-72.5170243, 42.3882296], [-72.5170479, 42.3880913], [-72.5170846, 42.3878818], [-72.51818, 42.3876574], [-72.5182838, 42.3874176], [-72.5189079, 42.3874908], [-72.5189055, 42.3882364], [-72.5195087, 42.3880537], [-72.5195868, 42.3888297], [-72.520866, 42.3884295], [-72.5208236, 42.3881729], [-72.5206821, 42.3872474], [-72.5206817, 42.3872343], [-72.520669, 42.3867629], [-72.5206778, 42.3864452], [-72.5206955, 42.3862705], [-72.5207516, 42.385945], [-72.5207884, 42.3857997], [-72.5208184, 42.3856978], [-72.5208472, 42.3856214], [-72.5208814, 42.3855518], [-72.5209423, 42.3854616], [-72.5210107, 42.3853806], [-72.5210591, 42.3853437], [-72.5211066, 42.3853172], [-72.5213492, 42.385233], [-72.5217662, 42.3850975], [-72.5217298, 42.3850276], [-72.5215587, 42.3846987], [-72.5226316, 42.3843795], [-72.5228654, 42.3848309], [-72.5238221, 42.3845345], [-72.5247539, 42.3842417], [-72.5244887, 42.3834471], [-72.5244171, 42.3831497], [-72.5254981, 42.3828722], [-72.5255637, 42.3830359], [-72.5262744, 42.3828443], [-72.5265779, 42.3837918], [-72.5268377, 42.3837521], [-72.5269441, 42.3837504], [-72.5270264, 42.3837572], [-72.5270861, 42.3837709], [-72.5271647, 42.3837973], [-72.5287645, 42.3844157], [-72.5287615, 42.3843471], [-72.528752, 42.3842767], [-72.5287352, 42.3841945], [-72.528694, 42.3840343], [-72.5285407, 42.3834887], [-72.5279614, 42.3813925], [-72.5281476, 42.3813389], [-72.5287747, 42.3811684], [-72.529045, 42.3810961], [-72.529275, 42.3810327], [-72.5294263, 42.3809923], [-72.5300505, 42.3808444], [-72.5301778, 42.3808223], [-72.5308648, 42.3807486], [-72.5310582, 42.3807421], [-72.5313123, 42.3807418], [-72.531521, 42.3807364], [-72.5316126, 42.3807211], [-72.531711, 42.3807116], [-72.5318155, 42.3806866], [-72.5318799, 42.3806214], [-72.5319089, 42.3805894], [-72.5319228, 42.3805542], [-72.5320287, 42.3803473], [-72.5329345, 42.3738855], [-72.5340231, 42.373727], [-72.5352076, 42.373625], [-72.5358798, 42.3736193], [-72.5393226, 42.3738189], [-72.5401121, 42.3738352], [-72.5416466, 42.3737334], [-72.5406754, 42.3811109], [-72.5404429, 42.3814721], [-72.5393343, 42.3821728], [-72.5388749, 42.3825954], [-72.5384483, 42.3837304], [-72.5380307, 42.3839639], [-72.5379836, 42.3842305], [-72.5403953, 42.3843912], [-72.5390165, 42.3963341], [-72.5390094, 42.3963421], [-72.5386525, 42.400824], [-72.5281914, 42.4019526], [-72.5285362, 42.4025975], [-72.5221424, 42.4048534]], [[-72.5260914, 42.4002553], [-72.5262622, 42.400643], [-72.5280264, 42.4002563], [-72.52801, 42.4007718], [-72.5280698, 42.4008243], [-72.5302972, 42.4004909], [-72.5299475, 42.4001132], [-72.5320544, 42.3999745], [-72.5316227, 42.3985152], [-72.5316569, 42.396833], [-72.5307433, 42.3970388], [-72.5302803, 42.3956667], [-72.5299069, 42.395447], [-72.5297623, 42.3953565], [-72.5294831, 42.3951866], [-72.5294072, 42.3951408], [-72.5293668, 42.3951161], [-72.5290991, 42.3951723], [-72.5289203, 42.3952127], [-72.5285164, 42.3953042], [-72.5284854, 42.3952495], [-72.5284464, 42.3952042], [-72.5283711, 42.3951616], [-72.5282683, 42.3951133], [-72.5281413, 42.3950831], [-72.5280502, 42.3950788], [-72.5279368, 42.3950765], [-72.5278649, 42.3950759], [-72.5275122, 42.3950662], [-72.5273122, 42.3950656], [-72.5272487, 42.3950879], [-72.5272036, 42.3950958], [-72.5271658, 42.3950959], [-72.5271338, 42.3950927], [-72.5269248, 42.3950603], [-72.5269062, 42.3950618], [-72.5268753, 42.3950669], [-72.5268504, 42.3950717], [-72.5267807, 42.3950942], [-72.5267513, 42.3951069], [-72.5267284, 42.3951357], [-72.526709, 42.3951796], [-72.5266994, 42.3952386], [-72.5267012, 42.3952495], [-72.5267057, 42.3952657], [-72.5267136, 42.3952821], [-72.526721, 42.3952952], [-72.5268046, 42.3953793], [-72.5268442, 42.3954039], [-72.5268867, 42.3954438], [-72.5269706, 42.3955193], [-72.527037, 42.3955902], [-72.5271198, 42.3956973], [-72.5271952, 42.395824], [-72.5272612, 42.3959673], [-72.5278348, 42.3973013], [-72.5278698, 42.39738], [-72.5278736, 42.3973953], [-72.5278716, 42.3974103], [-72.5278671, 42.397427], [-72.5278675, 42.3974437], [-72.5278719, 42.3974598], [-72.5278852, 42.3974983], [-72.527928, 42.3976189], [-72.5279366, 42.3976544], [-72.5279429, 42.3976725], [-72.5279599, 42.3976918], [-72.5279748, 42.3977043], [-72.5279783, 42.3977125], [-72.5279916, 42.3977645], [-72.5280044, 42.3978474], [-72.5280206, 42.3979845], [-72.528027, 42.3980729], [-72.5280282, 42.3981738], [-72.528027, 42.3981901], [-72.5280154, 42.3982139], [-72.5279788, 42.39824], [-72.5279262, 42.3982554], [-72.5275567, 42.3983544], [-72.5274098, 42.3985099], [-72.5274305, 42.3988071], [-72.5261399, 42.3991934], [-72.5260914, 42.4002553]], [[-72.5367047, 42.3854454], [-72.5385045, 42.385564], [-72.5385314, 42.3856619], [-72.5388302, 42.3861471], [-72.5390568, 42.3864012], [-72.5392785, 42.3865914], [-72.5399446, 42.3871308], [-72.5399188, 42.3872436], [-72.5398851, 42.3873776], [-72.5396868, 42.3874186], [-72.5393824, 42.3876742], [-72.5386268, 42.3873878], [-72.5384672, 42.3876281], [-72.5382917, 42.3875834], [-72.5382395, 42.3876628], [-72.5382082, 42.3877098], [-72.5380931, 42.3876676], [-72.5380595, 42.387718], [-72.5379724, 42.3878199], [-72.5378712, 42.387784], [-72.5378197, 42.3876815], [-72.5377377, 42.3876459], [-72.537661, 42.3876127], [-72.5375331, 42.387639], [-72.5374984, 42.3876244], [-72.537425, 42.3874391], [-72.5374607, 42.3873937], [-72.5373327, 42.3870793], [-72.537296, 42.386989], [-72.5372466, 42.387], [-72.5372003, 42.3868859], [-72.5372108, 42.3868593], [-72.5369502, 42.3861285], [-72.5369243, 42.3861344], [-72.536744, 42.3857115], [-72.5367973, 42.385703], [-72.5367385, 42.3855393], [-72.5367047, 42.3854454]]]]}}