{"type": "Feature", "properties": {"market_key": 2300, "university": "Central Michigan University", "osm_type": "way", "osm_id": 285252074, "osm_name": "Central Michigan University"}, "geometry": {"type": "Polygon", "coordinates": [[[-84.7803588, 43.594998], [-84.7797105, 43.5949944], [-84.7788041, 43.5949894], [-84.7788066, 43.5934096], [-84.7781931, 43.593414], [-84.7779853, 43.5934155], [-84.777852, 43.5934203], [-84.7776809, 43.5934299], [-84.7775639, 43.5934397], [-84.7774438, 43.5934502], [-84.7773619, 43.5934594], [-84.7771903, 43.5934767], [-84.7769159, 43.5935043], [-84.7765451, 43.5935194], [-84.7676937, 43.5934748], [-84.767651, 43.593448], [-84.7676329, 43.5918651], [-84.7678625, 43.5918652], [-84.7685355, 43.5918596], [-84.7688349, 43.5918571], [-84.7688479, 43.591448], [-84.7688431, 43.5911329], [-84.7688463, 43.5906864], [-84.7689067, 43.589977], [-84.7689035, 43.5890675], [-84.7689027, 43.5888241], [-84.7689044, 43.5882931], [-84.768885, 43.5876901], [-84.7688793, 43.5875133], [-84.7689415, 43.5867075], [-84.7689467, 43.5865451], [-84.7689282, 43.5858915], [-84.7688981, 43.5854137], [-84.7688956, 43.5853428], [-84.7688842, 43.585106], [-84.7688749, 43.5848977], [-84.7687996, 43.5848976], [-84.7688124, 43.58483], [-84.7688092, 43.5844535], [-84.7688618, 43.5844421], [-84.7688884, 43.5842186], [-84.7685586, 43.584213], [-84.7685869, 43.5836782], [-84.7683903, 43.5836629], [-84.7684131, 43.5827742], [-84.7684174, 43.5825055], [-84.7686467, 43.5824808], [-84.769179, 43.5823949], [-84.7691753, 43.5820962], [-84.7692349, 43.5820859], [-84.7692375, 43.5818196], [-84.7692412, 43.5817062], [-84.7692323, 43.5814453], [-84.7686356, 43.5814518], [-84.7686483, 43.5808423], [-84.7685834, 43.5801488], [-84.76857, 43.5794635], [-84.7685387, 43.5789953], [-84.7676821, 43.5789802], [-84.767684, 43.5785896], [-84.7677049, 43.5774869], [-84.7677134, 43.5771583], [-84.7677227, 43.5767989], [-84.7677016, 43.5764606], [-84.767696, 43.5763704], [-84.7676356, 43.5759565], [-84.7675544, 43.5755076], [-84.767574, 43.5753734], [-84.768181, 43.575381], [-84.76844, 43.575384], [-84.7687052, 43.5753849], [-84.7688477, 43.5753858], [-84.7690044, 43.5753811], [-84.769243, 43.575365], [-84.7697195, 43.5753183], [-84.769824, 43.575308], [-84.77079, 43.575154], [-84.7714124, 43.5750695], [-84.771534, 43.575053], [-84.7722872, 43.5749511], [-84.7722661, 43.5735557], [-84.7722442, 43.5729669], [-84.771092, 43.5729662], [-84.7701646, 43.5724623], [-84.769746, 43.572526], [-84.769403, 43.57236], [-84.76928, 43.572333], [-84.7690779, 43.5722584], [-84.768416, 43.5722651], [-84.7673736, 43.5721238], [-84.7673589, 43.5712663], [-84.7673458, 43.570505], [-84.767453, 43.5699902], [-84.7675149, 43.5699866], [-84.7691701, 43.5702673], [-84.7705437, 43.5705763], [-84.7707751, 43.570581], [-84.7712494, 43.5705709], [-84.7715902, 43.5709086], [-84.7724925, 43.570419], [-84.7724914, 43.570362], [-84.7725117, 43.5703439], [-84.7725529, 43.5703387], [-84.7726457, 43.5703282], [-84.7730138, 43.5701359], [-84.7731209, 43.5701041], [-84.7731982, 43.5702616], [-84.773355, 43.570518], [-84.773514, 43.570736], [-84.773731, 43.570921], [-84.774333, 43.571344], [-84.7743734, 43.5713617], [-84.774705, 43.571507], [-84.775035, 43.571628], [-84.776353, 43.572098], [-84.7764681, 43.5721483], [-84.7767606, 43.5722763], [-84.7771628, 43.5724604], [-84.7775998, 43.5726847], [-84.7779326, 43.5728724], [-84.778109, 43.572986], [-84.7783157, 43.5730959], [-84.7784846, 43.5731698], [-84.7787347, 43.5732371], [-84.7785875, 43.573827], [-84.7788067, 43.5738761], [-84.7790858, 43.5740065], [-84.7792476, 43.5741313], [-84.7793258, 43.574273], [-84.7794667, 43.574394], [-84.7797015, 43.574532], [-84.7803041, 43.5747796], [-84.7804514, 43.5747703], [-84.7809019, 43.5747419], [-84.7811367, 43.5747271], [-84.7813209, 43.5746616], [-84.7814799, 43.5745838], [-84.7823018, 43.5745683], [-84.7823061, 43.575203], [-84.7823026, 43.5753811], [-84.782158, 43.5753859], [-84.7821656, 43.5755179], [-84.7818757, 43.5756274], [-84.7818707, 43.5761131], [-84.7818515, 43.5773443], [-84.7824225, 43.5773529], [-84.7824231, 43.577455], [-84.7824272, 43.5779016], [-84.782431, 43.5783199], [-84.7824436, 43.5797096], [-84.7824507, 43.5804846], [-84.7824608, 43.5815967], [-84.7824274, 43.5822391], [-84.7808501, 43.5823027], [-84.780866, 43.5825319], [-84.7808706, 43.5826139], [-84.7808688, 43.582697], [-84.7808675, 43.583437], [-84.7808751, 43.584301], [-84.780876, 43.5843529], [-84.780877, 43.584417], [-84.7808769, 43.5845776], [-84.7808712, 43.584679], [-84.7808589, 43.5847705], [-84.780844, 43.5848336], [-84.7808234, 43.5848976], [-84.7807945, 43.5849742], [-84.7807612, 43.58505], [-84.7807292, 43.5851113], [-84.780685, 43.5851836], [-84.7806337, 43.5852543], [-84.7804977, 43.5854344], [-84.7804038, 43.5855587], [-84.7801198, 43.5859425], [-84.7798029, 43.5863846], [-84.7797428, 43.5864703], [-84.7796932, 43.5865511], [-84.7796435, 43.5866551], [-84.7796072, 43.5867496], [-84.7795918, 43.5867969], [-84.7795801, 43.5868373], [-84.7795694, 43.5868868], [-84.7795607, 43.586937], [-84.7795509, 43.5869991], [-84.7795442, 43.5870828], [-84.7795417, 43.5871685], [-84.7795599, 43.5878899], [-84.7795824, 43.5882988], [-84.7795797, 43.5883751], [-84.779639, 43.588563], [-84.7798812, 43.5888942], [-84.779903, 43.588924], [-84.779972, 43.589096], [-84.7800316, 43.5893717], [-84.7800936, 43.5896583], [-84.7801564, 43.5899041], [-84.7800596, 43.5899061], [-84.7793912, 43.5899197], [-84.7801519, 43.5931541], [-84.7802142, 43.5933024], [-84.7805691, 43.5931339], [-84.780625, 43.5930894], [-84.7806743, 43.5930402], [-84.780711, 43.5929987], [-84.7807344, 43.5929633], [-84.7807546, 43.5929229], [-84.7807738, 43.5928679], [-84.7812937, 43.5929837], [-84.7812963, 43.593528], [-84.781968, 43.59354], [-84.7831355, 43.5935832], [-84.7831856, 43.5943748], [-84.782578, 43.594411], [-84.7826324, 43.5961633], [-84.7826205, 43.5962951], [-84.7826689, 43.59698], [-84.7826813, 43.5971357], [-84.7811464, 43.5971431], [-84.7806284, 43.5949995], [-84.7803588, 43.594998]]]}}