{"type": "Feature", "properties": {"market_key": 2302, "university": "Minnesota State University Mankato", "osm_type": "way", "osm_id": 510968150, "osm_name": "Minnesota State University, Mankato"}, "geometry": {"type": "Polygon", "coordinates": [[[-94.002975, 44.152066], [-93.9993973, 44.1521031], [-93.9991353, 44.150901], [-93.9963752, 44.1503187], [-93.9963532, 44.1484102], [-93.9943236, 44.1484229], [-93.9942467, 44.1472188], [-93.9942574, 44.1467796], [-93.9929939, 44.146787], [-93.992977, 44.1463943], [-93.9942501, 44.1463829], [-93.9941941, 44.1456256], [-93.9942174, 44.1450292], [-93.9935515, 44.1450342], [-93.9892973, 44.1450818], [-93.9860215, 44.1450469], [-93.9859095, 44.1450457], [-93.9842375, 44.1450279], [-93.984196, 44.1433775], [-93.9813203, 44.1432626], [-93.9806798, 44.1424067], [-93.9840536, 44.1423526], [-93.9891721, 44.1423862], [-93.9892373, 44.1424367], [-93.9892085, 44.1412846], [-93.9893236, 44.1412834], [-93.9917952, 44.1412566], [-93.9919377, 44.1412148], [-93.9921016, 44.1411667], [-93.9934762, 44.1401456], [-93.9940683, 44.1402199], [-93.9942828, 44.1397896], [-93.9948678, 44.1392569], [-93.9951588, 44.1381617], [-93.9969137, 44.1381297], [-93.9983709, 44.1379384], [-93.9989334, 44.1383285], [-93.9996933, 44.1393285], [-94.0005059, 44.1402572], [-94.0008389, 44.1402495], [-94.0030163, 44.1389838], [-94.003683, 44.1390181], [-94.0040633, 44.1394714], [-94.0041402, 44.1404882], [-94.0033452, 44.140943], [-94.0032727, 44.1419542], [-94.0024983, 44.1440443], [-94.0012373, 44.1447557], [-94.0012495, 44.1460134], [-94.0038146, 44.1460119], [-94.0038979, 44.148897], [-94.0039146, 44.1513495], [-94.002975, 44.152066]]]}}