{"type": "Feature", "properties": {"market_key": 2308, "university": "Dartmouth College", "osm_type": "relation", "osm_id": 15261101, "osm_name": "Dartmouth College"}, "geometry": {"type": "MultiPolygon", "coordinates": [[[[-72.2909728, 43.707759], [-72.2912131, 43.7078214], [-72.2913502, 43.7078581], [-72.2914704, 43.7078949], [-72.2915151, 43.7079272], [-72.2915428, 43.7079606], [-72.2915525, 43.7079978], [-72.2915379, 43.708042], [-72.2915074, 43.7080898], [-72.2913566, 43.7082109], [-72.2912421, 43.7083105], [-72.2910687, 43.7084443], [-72.2905233, 43.7082068], [-72.2909728, 43.707759]]], [[[-72.293387, 43.7076232], [-72.2934561, 43.7074929], [-72.2935547, 43.7072813], [-72.2936872, 43.706965], [-72.2937257, 43.7069305], [-72.2937673, 43.7069238], [-72.2938782, 43.7069305], [-72.2939313, 43.7069415], [-72.2944821, 43.7070652], [-72.2947059, 43.7071144], [-72.2950559, 43.7072315], [-72.2941396, 43.7078468], [-72.293387, 43.7076232]]], [[[-72.2896002, 43.7073114], [-72.2894585, 43.707269], [-72.2893244, 43.7072178], [-72.2892243, 43.7071733], [-72.2891873, 43.7071343], [-72.289326, 43.7069428], [-72.2895262, 43.7066499], [-72.289554, 43.7065819], [-72.2895848, 43.7064505], [-72.2895909, 43.7063781], [-72.2895986, 43.7062924], [-72.289594, 43.7060418], [-72.2896048, 43.7060196], [-72.2896341, 43.7059995], [-72.2896864, 43.7060062], [-72.290144, 43.7061008], [-72.2909944, 43.706298], [-72.2920142, 43.7065329], [-72.2932112, 43.7068013], [-72.2935963, 43.7068893], [-72.2936256, 43.7069283], [-72.2935008, 43.7072022], [-72.2933714, 43.7074817], [-72.2932878, 43.7076009], [-72.2932365, 43.7076528], [-72.2931436, 43.707724], [-72.2930261, 43.7078129], [-72.2928879, 43.707906], [-72.2927315, 43.7080201], [-72.2926063, 43.7081039], [-72.2923181, 43.7083413], [-72.291797, 43.7080106], [-72.2916065, 43.7079001], [-72.2914812, 43.7078314], [-72.2910097, 43.7076972], [-72.2901797, 43.7074755], [-72.2898277, 43.7073823], [-72.2896002, 43.7073114]]], [[[-72.2885078, 43.7079702], [-72.2885091, 43.707948], [-72.2885254, 43.707921], [-72.2887216, 43.7076889], [-72.289115, 43.7072349], [-72.2891792, 43.7072366], [-72.2893287, 43.7072948], [-72.2896112, 43.707386], [-72.2893438, 43.7077545], [-72.2897093, 43.7079146], [-72.290072, 43.7080727], [-72.2896858, 43.7085043], [-72.2894324, 43.7083964], [-72.289132, 43.7082622], [-72.288955, 43.7081898], [-72.2885627, 43.7079976], [-72.2885078, 43.7079702]]], [[[-72.2882791, 43.7079809], [-72.2881632, 43.708112], [-72.2876968, 43.7086402], [-72.287305, 43.7090456], [-72.2870869, 43.7092705], [-72.286924, 43.7094561], [-72.2858229, 43.7089735], [-72.2838149, 43.710994], [-72.2822521, 43.7103392], [-72.2806419, 43.7089739], [-72.2808399, 43.7088573], [-72.2811233, 43.7087147], [-72.2813067, 43.7086201], [-72.2815793, 43.7084976], [-72.2819614, 43.7083639], [-72.2823558, 43.708247], [-72.2825791, 43.708188], [-72.2829874, 43.7081134], [-72.2835204, 43.7080466], [-72.2838701, 43.7080143], [-72.284169, 43.707972], [-72.2843554, 43.7079419], [-72.2845418, 43.7079007], [-72.2847189, 43.7078428], [-72.2848607, 43.7077993], [-72.285027, 43.7077192], [-72.2851549, 43.7076457], [-72.2853505, 43.7075109], [-72.2854907, 43.7073973], [-72.2855416, 43.7073127], [-72.2858959, 43.7070165], [-72.2861747, 43.7067949], [-72.2862024, 43.7067782], [-72.2862471, 43.7067804], [-72.2863103, 43.706806], [-72.2866569, 43.7070321], [-72.2869388, 43.7072281], [-72.2871175, 43.7073483], [-72.2872885, 43.7074408], [-72.2877291, 43.7076468], [-72.2882837, 43.7079029], [-72.2883176, 43.7079296], [-72.2882791, 43.7079809]]], [[[-72.2923327, 43.7024814], [-72.2923171, 43.7027104], [-72.2923014, 43.7032179], [-72.2928012, 43.7032204], [-72.2934236, 43.7032235], [-72.2941568, 43.7032271], [-72.2942168, 43.7026896], [-72.2948983, 43.7027604], [-72.2956906, 43.7028456], [-72.2958931, 43.7028567], [-72.2966313, 43.7029165], [-72.2970008, 43.7029777], [-72.2970834, 43.7029953], [-72.2973155, 43.7030448], [-72.2974749, 43.7030927], [-72.2979305, 43.7032294], [-72.2983158, 43.7033559], [-72.2983669, 43.7035006], [-72.2985154, 43.7035227], [-72.2985987, 43.7035388], [-72.2986893, 43.7035174], [-72.2987978, 43.7035316], [-72.2989177, 43.7035587], [-72.2989075, 43.7035736], [-72.298883, 43.7036358], [-72.2987828, 43.7038469], [-72.2987721, 43.703912], [-72.2987958, 43.7039369], [-72.2988379, 43.7039662], [-72.2988598, 43.7039937], [-72.2988809, 43.7040482], [-72.2988804, 43.7041227], [-72.2988827, 43.7042197], [-72.2988818, 43.7043318], [-72.2988458, 43.7044529], [-72.2988181, 43.7045453], [-72.298765, 43.704806], [-72.298568, 43.70508], [-72.298258, 43.70546], [-72.298016, 43.705679], [-72.2965781, 43.7067696], [-72.2961147, 43.7065399], [-72.2959738, 43.7059322], [-72.2958479, 43.705823], [-72.2949972, 43.7062524], [-72.2947807, 43.7066236], [-72.2942688, 43.7069416], [-72.2938736, 43.706867], [-72.293108, 43.7066911], [-72.2922129, 43.7064873], [-72.2910775, 43.7062289], [-72.2902333, 43.7060385], [-72.2896911, 43.7059138], [-72.2896729, 43.7055107], [-72.289611, 43.7044042], [-72.2895685, 43.7036545], [-72.2895296, 43.7029496], [-72.2895066, 43.7025607], [-72.2895374, 43.7025252], [-72.2896335, 43.7025128], [-72.2901214, 43.70249], [-72.2904223, 43.7024857], [-72.2905589, 43.7024794], [-72.2906759, 43.7024742], [-72.2907527, 43.7024723], [-72.2907594, 43.7028118], [-72.2912453, 43.7028052], [-72.2912079, 43.7024617], [-72.2917605, 43.7024506], [-72.2923033, 43.7024767], [-72.2923327, 43.7024814]]], [[[-72.2822781, 43.703411], [-72.282232, 43.703235], [-72.2821314, 43.7028191], [-72.2820745, 43.7025774], [-72.2819678, 43.7021138], [-72.2818397, 43.7015825], [-72.281734, 43.7011262], [-72.2816558, 43.7007713], [-72.2815704, 43.7003863], [-72.2815633, 43.7002408], [-72.2815074, 43.7000468], [-72.2814876, 43.6999644], [-72.2820549, 43.6997415], [-72.2822012, 43.700187], [-72.2822845, 43.7004899], [-72.2836221, 43.70026], [-72.2837483, 43.7003676], [-72.2844357, 43.7002643], [-72.2854274, 43.7008952], [-72.2854339, 43.7009363], [-72.2854082, 43.7010039], [-72.285316, 43.7011144], [-72.2852307, 43.7012478], [-72.2852156, 43.7013145], [-72.2852226, 43.7013913], [-72.2852844, 43.7015922], [-72.2853755, 43.7019171], [-72.2854853, 43.7023062], [-72.2855985, 43.7026599], [-72.2856686, 43.7028785], [-72.2856674, 43.7029249], [-72.2856522, 43.7029603], [-72.2855752, 43.7029975], [-72.2846003, 43.7032583], [-72.2836593, 43.7035157], [-72.2828385, 43.7037419], [-72.2825758, 43.7038069], [-72.282507, 43.703817], [-72.2824579, 43.703817], [-72.2823926, 43.7037951], [-72.282368, 43.7037613], [-72.2822945, 43.7034769], [-72.2822781, 43.703411]]], [[[-72.2810394, 43.7017582], [-72.2809647, 43.7007315], [-72.2815, 43.7007211], [-72.2814721, 43.7005671], [-72.2814317, 43.7004061], [-72.2807452, 43.7004415], [-72.2806938, 43.7003251], [-72.2806331, 43.7001461], [-72.2804813, 43.6998963], [-72.2802572, 43.6985947], [-72.2802175, 43.6985981], [-72.2798935, 43.6971576], [-72.2798546, 43.697123], [-72.279575, 43.6971755], [-72.2786601, 43.6973751], [-72.2778354, 43.6976233], [-72.2777275, 43.6977474], [-72.2776001, 43.6980238], [-72.2775187, 43.6982489], [-72.2774284, 43.6983436], [-72.2773046, 43.6984434], [-72.2773033, 43.6985979], [-72.277301, 43.6988835], [-72.2772568, 43.6991522], [-72.2771807, 43.6993825], [-72.2770356, 43.6996473], [-72.2769206, 43.7002422], [-72.2768816, 43.700571], [-72.276894, 43.7008345], [-72.2770285, 43.701107], [-72.2771471, 43.701267], [-72.2774143, 43.7015996], [-72.2776195, 43.7017429], [-72.2782743, 43.7017761], [-72.2790246, 43.7017825], [-72.2797131, 43.7017802], [-72.2810394, 43.7017582]]], [[[-72.2946005, 43.7006087], [-72.2940857, 43.7006703], [-72.2940401, 43.7004567], [-72.2941907, 43.7004424], [-72.2942164, 43.7004382], [-72.2943297, 43.7002711], [-72.294402, 43.7003909], [-72.2945048, 43.7005108], [-72.2946005, 43.7006087]]], [[[-72.2921129, 43.7011639], [-72.2921145, 43.7009702], [-72.2921157, 43.7008205], [-72.2914891, 43.700823], [-72.2914929, 43.7011716], [-72.2921129, 43.7011639]]], [[[-72.2914001, 43.7022792], [-72.2910166, 43.7022888], [-72.2910152, 43.7019282], [-72.29138, 43.7019136], [-72.2914001, 43.7022792]]], [[[-72.286914, 43.7009174], [-72.2868804, 43.7004479], [-72.2863142, 43.7004287], [-72.2863332, 43.700636], [-72.2863619, 43.7009494], [-72.286914, 43.7009174]]], [[[-72.2863163, 43.7003137], [-72.2863294, 43.700094], [-72.286428, 43.7000873], [-72.2864342, 43.6999325], [-72.2861769, 43.6999113], [-72.2860845, 43.6999113], [-72.2860475, 43.699928], [-72.2860151, 43.6999748], [-72.2859624, 43.7002728], [-72.2863163, 43.7003137]]], [[[-72.2864817, 43.7101423], [-72.2871958, 43.7104424], [-72.2873281, 43.7103213], [-72.2876615, 43.7101735], [-72.2868144, 43.7097982], [-72.2864817, 43.7101423]]], [[[-72.2862253, 43.7129369], [-72.2859812, 43.7131075], [-72.2857103, 43.7131986], [-72.285544, 43.7132199], [-72.2853992, 43.7131714], [-72.2853428, 43.7130648], [-72.285316, 43.7127798], [-72.2853187, 43.7126286], [-72.2853133, 43.7125278], [-72.2856728, 43.7122098], [-72.2860349, 43.712332], [-72.2860536, 43.7125704], [-72.2860858, 43.7128031], [-72.2862253, 43.7129369]]], [[[-72.2863726, 43.7066711], [-72.2863899, 43.7066975], [-72.2867334, 43.7069268], [-72.2869245, 43.7070509], [-72.2870475, 43.7071994], [-72.2873544, 43.7073852], [-72.2876735, 43.7075381], [-72.2880272, 43.7076747], [-72.2883901, 43.707829], [-72.2884419, 43.7078033], [-72.2885558, 43.7077438], [-72.2889999, 43.7072177], [-72.289254, 43.706915], [-72.2893841, 43.7067549], [-72.2894227, 43.7066549], [-72.2894481, 43.7065205], [-72.2894796, 43.7063449], [-72.2894705, 43.7060554], [-72.2894796, 43.7059004], [-72.2894664, 43.7055418], [-72.2894593, 43.7051612], [-72.2894502, 43.7049614], [-72.2894441, 43.7046454], [-72.2894248, 43.7042046], [-72.2893983, 43.7041708], [-72.2891574, 43.7041723], [-72.2886584, 43.7041796], [-72.2882529, 43.704187], [-72.2879744, 43.7041921], [-72.2879409, 43.7041958], [-72.2879358, 43.7042413], [-72.2879317, 43.7046322], [-72.2879327, 43.7049768], [-72.2879104, 43.7050951], [-72.2878656, 43.7052171], [-72.2877904, 43.7053817], [-72.2876675, 43.7054941], [-72.2875363, 43.7056006], [-72.2873412, 43.7057931], [-72.2877782, 43.7060047], [-72.2881401, 43.7061179], [-72.2881482, 43.7062971], [-72.288076, 43.7064206], [-72.2878931, 43.7066307], [-72.2877477, 43.7067233], [-72.2875506, 43.7066182], [-72.2876237, 43.7065469], [-72.2870119, 43.7061076], [-72.286705, 43.7063493], [-72.2863797, 43.7066211], [-72.2863726, 43.7066711]]], [[[-72.2893619, 43.7040975], [-72.2879269, 43.7041247], [-72.2878267, 43.7026621], [-72.2892891, 43.7025274], [-72.2893619, 43.7040975]]], [[[-72.2696104, 43.7184433], [-72.2697342, 43.7181543], [-72.2698864, 43.7175941], [-72.2698829, 43.7167628], [-72.2698793, 43.7162435], [-72.2715852, 43.7162588], [-72.2717764, 43.7160951], [-72.2720029, 43.7160516], [-72.2729974, 43.7161156], [-72.2735389, 43.7162179], [-72.2736238, 43.7170058], [-72.2736167, 43.7171439], [-72.2743423, 43.7172692], [-72.2741972, 43.7178371], [-72.2739423, 43.7179215], [-72.2736592, 43.7180929], [-72.2732734, 43.7181722], [-72.271702, 43.7182668], [-72.2696104, 43.7184433]]], [[[-72.2503732, 43.7369947], [-72.2507862, 43.7375063], [-72.2503249, 43.737735], [-72.2504161, 43.7378513], [-72.2516088, 43.7384502], [-72.2516896, 43.7383968], [-72.2519602, 43.7382185], [-72.2522992, 43.7379724], [-72.2526863, 43.7375867], [-72.2530587, 43.7372573], [-72.2537784, 43.7366555], [-72.2541005, 43.7363621], [-72.2543646, 43.7361496], [-72.254475, 43.736001], [-72.2536884, 43.7354288], [-72.2503732, 43.7369947]]], [[[-72.2824711, 43.7040177], [-72.2824696, 43.7040712], [-72.2826128, 43.7046882], [-72.282733, 43.7051782], [-72.2829086, 43.7061303], [-72.2830796, 43.706833], [-72.2832059, 43.7074188], [-72.2833831, 43.7078542], [-72.2834047, 43.7078765], [-72.2834879, 43.7079077], [-72.2838268, 43.7078787], [-72.2843875, 43.7078186], [-72.2845785, 43.7077741], [-72.2848528, 43.7076694], [-72.2851162, 43.7075224], [-72.2852179, 43.7074622], [-72.2854844, 43.707254], [-72.2858526, 43.7069466], [-72.2861437, 43.7066938], [-72.2865027, 43.7063943], [-72.2869848, 43.7059822], [-72.2873684, 43.7056559], [-72.2874901, 43.7055435], [-72.2876149, 43.7053798], [-72.2876966, 43.7052194], [-72.2877151, 43.7051637], [-72.2877459, 43.705039], [-72.2877597, 43.7049042], [-72.287769, 43.704647], [-72.2877582, 43.7043273], [-72.2877505, 43.7039398], [-72.287732, 43.7034264], [-72.2877058, 43.702698], [-72.2876919, 43.7026858], [-72.2875749, 43.7026646], [-72.2872236, 43.7027292], [-72.2865858, 43.7028606], [-72.2860482, 43.7029909], [-72.2855121, 43.7031313], [-72.2844476, 43.7034275], [-72.2834062, 43.7037104], [-72.2825158, 43.7039498], [-72.2824711, 43.7040177]]], [[[-72.2809819, 43.7043381], [-72.2811641, 43.7047364], [-72.281505, 43.7046672], [-72.2813298, 43.7042486], [-72.2809819, 43.7043381]]], [[[-72.2818319, 43.7051905], [-72.2817548, 43.7048563], [-72.2824016, 43.7047921], [-72.2824717, 43.7051196], [-72.2818319, 43.7051905]]], [[[-72.2858428, 43.7010932], [-72.2860812, 43.7011002], [-72.2862247, 43.7010924], [-72.2865378, 43.7010667], [-72.2871863, 43.7010279], [-72.2872285, 43.701009], [-72.287482, 43.7010003], [-72.2875591, 43.7010308], [-72.2877817, 43.7010124], [-72.2882732, 43.7009833], [-72.2884187, 43.7009552], [-72.2884932, 43.7009441], [-72.2886031, 43.7009378], [-72.2886105, 43.7011835], [-72.28864, 43.7015394], [-72.2887983, 43.7016383], [-72.2888774, 43.7017323], [-72.2889076, 43.7017371], [-72.2889067, 43.7017777], [-72.2889064, 43.7017886], [-72.2889061, 43.7018005], [-72.2889012, 43.7019774], [-72.2889705, 43.701978], [-72.2889792, 43.7020301], [-72.2891432, 43.7020313], [-72.2891799, 43.7020316], [-72.2891906, 43.7020375], [-72.2891862, 43.7020725], [-72.2891526, 43.7023808], [-72.2883788, 43.7024457], [-72.2878303, 43.7024884], [-72.2877338, 43.7025146], [-72.2873006, 43.702596], [-72.2866515, 43.7027356], [-72.2858857, 43.7029092], [-72.285812, 43.7028694], [-72.2856671, 43.7024089], [-72.2854686, 43.7017535], [-72.2853613, 43.7014258], [-72.2854378, 43.701259], [-72.2856524, 43.7010913], [-72.2857623, 43.7010787], [-72.2858428, 43.7010932]]], [[[-72.2724173, 43.6752051], [-72.2722829, 43.6748365], [-72.2729447, 43.6746855], [-72.2729093, 43.6745882], [-72.2724244, 43.6746931], [-72.2723076, 43.6743962], [-72.2738578, 43.6740788], [-72.2740731, 43.6747719], [-72.2736773, 43.6749082], [-72.2737375, 43.6750694], [-72.2730226, 43.6752409], [-72.2729765, 43.675095], [-72.2724173, 43.6752051]]]]}}