{"type": "Feature", "properties": {"market_key": 2310, "university": "University of New Hampshire", "osm_type": "relation", "osm_id": 15954211, "osm_name": "University of New Hampshire"}, "geometry": {"type": "MultiPolygon", "coordinates": [[[[-70.9348884, 43.1448115], [-70.935599, 43.1418026], [-70.9353528, 43.1417123], [-70.935793, 43.1395821], [-70.935946, 43.1395995], [-70.9360827, 43.1396222], [-70.9361248, 43.139623], [-70.9362633, 43.1390093], [-70.9363753, 43.1386162], [-70.93813, 43.1306888], [-70.9379999, 43.130342], [-70.9382092, 43.1299417], [-70.9385432, 43.129268], [-70.9383115, 43.1293845], [-70.9382145, 43.1294109], [-70.9381378, 43.1294216], [-70.9380025, 43.1294257], [-70.9378311, 43.1294166], [-70.937477, 43.1293574], [-70.9368082, 43.1291368], [-70.9363353, 43.1299087], [-70.9362767, 43.1299818], [-70.9359459, 43.1297768], [-70.9359097, 43.1298169], [-70.9355314, 43.130036], [-70.9352749, 43.1301136], [-70.934563, 43.1303243], [-70.9340556, 43.1304478], [-70.9334832, 43.1306205], [-70.9331272, 43.130718], [-70.933098, 43.1307287], [-70.9323172, 43.1309312], [-70.9321352, 43.1306166], [-70.9317549, 43.1306997], [-70.9318851, 43.1309453], [-70.9319421, 43.1310529], [-70.9306496, 43.1316239], [-70.9300157, 43.1319731], [-70.9293971, 43.1323548], [-70.9288173, 43.1327761], [-70.9283611, 43.1331124], [-70.9282227, 43.1331388], [-70.9280271, 43.1330492], [-70.9278543, 43.1329297], [-70.9273515, 43.1334199], [-70.9266705, 43.133965], [-70.9266516, 43.1340173], [-70.926646, 43.1341048], [-70.9266676, 43.1341863], [-70.9267788, 43.1342854], [-70.9268361, 43.1343126], [-70.9269679, 43.1343061], [-70.9273782, 43.1344881], [-70.9280578, 43.1348316], [-70.928715, 43.1351631], [-70.928919, 43.1352226], [-70.9288148, 43.1354], [-70.9286675, 43.1355221], [-70.928565, 43.1355856], [-70.9284016, 43.1356452], [-70.9280621, 43.1357663], [-70.9277912, 43.1358446], [-70.9276625, 43.1360118], [-70.9275994, 43.1360704], [-70.9275124, 43.1361512], [-70.9272258, 43.1362839], [-70.9271163, 43.1363089], [-70.9267755, 43.1363867], [-70.9268286, 43.1364344], [-70.9268484, 43.1364879], [-70.9267092, 43.1365241], [-70.9266879, 43.1365297], [-70.9268127, 43.1366852], [-70.9268893, 43.1367807], [-70.9270958, 43.1374107], [-70.9279782, 43.1371917], [-70.9280468, 43.1372779], [-70.9286967, 43.1380946], [-70.9277672, 43.1384361], [-70.9278188, 43.138528], [-70.9279133, 43.1386963], [-70.9282003, 43.1392076], [-70.928208, 43.1392214], [-70.9282639, 43.139271], [-70.9285221, 43.1393153], [-70.9289312, 43.1393908], [-70.9288769, 43.1396779], [-70.9284172, 43.1407632], [-70.9287083, 43.1408562], [-70.9287583, 43.140906], [-70.9290864, 43.1417115], [-70.9292684, 43.1417083], [-70.9295459, 43.1412769], [-70.9303603, 43.1416318], [-70.9305741, 43.1413298], [-70.9297463, 43.1409912], [-70.9304561, 43.1402113], [-70.9305243, 43.1400586], [-70.9312512, 43.1402284], [-70.9313849, 43.140201], [-70.93151, 43.1401694], [-70.9330436, 43.1407593], [-70.9329573, 43.1408776], [-70.9320062, 43.1405503], [-70.9310736, 43.1414697], [-70.9310691, 43.1415194], [-70.9315012, 43.1417916], [-70.9314246, 43.1422267], [-70.9337762, 43.1435147], [-70.9336261, 43.1436674], [-70.9336169, 43.1437404], [-70.9341264, 43.1439761], [-70.9341868, 43.1440761], [-70.9339531, 43.1443758], [-70.9340365, 43.1445823], [-70.9344323, 43.1447615], [-70.9348884, 43.1448115]]], [[[-70.9374783, 43.1395544], [-70.9364081, 43.1390879], [-70.9357921, 43.1418487], [-70.9350172, 43.1450957], [-70.9346634, 43.1471042], [-70.9371121, 43.1474651], [-70.943659, 43.1481948], [-70.9450375, 43.1471289], [-70.9464014, 43.1464064], [-70.9467218, 43.1460452], [-70.9475324, 43.1448057], [-70.947212, 43.144402], [-70.9461685, 43.1453546], [-70.9461248, 43.1458363], [-70.9454258, 43.1464312], [-70.9426446, 43.1457371], [-70.9421422, 43.1448241], [-70.9414837, 43.1435573], [-70.9416404, 43.1433494], [-70.9411548, 43.1430988], [-70.9401394, 43.1425865], [-70.9397829, 43.1422696], [-70.9394984, 43.1419643], [-70.9393327, 43.1417352], [-70.9390654, 43.1414157], [-70.9389039, 43.1412436], [-70.938199, 43.1406519], [-70.9377808, 43.1402638], [-70.9376412, 43.1400702], [-70.9375905, 43.1399757], [-70.9375951, 43.1398335], [-70.9375759, 43.1396737], [-70.9374783, 43.1395544]]], [[[-70.9458526, 43.1422253], [-70.9378261, 43.1397125], [-70.9377912, 43.1398775], [-70.9378716, 43.1400209], [-70.9380516, 43.1402668], [-70.9384912, 43.1407056], [-70.9389428, 43.141127], [-70.9392495, 43.1415026], [-70.9392565, 43.1415111], [-70.9393077, 43.1415738], [-70.9393554, 43.1416354], [-70.9394826, 43.1417996], [-70.9397169, 43.1420561], [-70.940266, 43.1424842], [-70.9412474, 43.1430197], [-70.9418646, 43.1423876], [-70.9427332, 43.1427983], [-70.9421445, 43.1434736], [-70.9429789, 43.1437129], [-70.9432501, 43.143761], [-70.9434503, 43.1437716], [-70.9436055, 43.1437609], [-70.9438, 43.143718], [-70.9441527, 43.1436546], [-70.9444544, 43.1435757], [-70.9451593, 43.1433806], [-70.9454671, 43.1432767], [-70.9457097, 43.1431357], [-70.9464617, 43.1424131], [-70.9458526, 43.1422253]]], [[[-70.9455889, 43.1418639], [-70.9459734, 43.1419823], [-70.9463514, 43.1421008], [-70.9465632, 43.1421588], [-70.9466302, 43.1421659], [-70.946738, 43.142168], [-70.9468214, 43.1421573], [-70.9469001, 43.1421391], [-70.9470055, 43.1421019], [-70.9472925, 43.1419961], [-70.9474707, 43.1419186], [-70.9477028, 43.1418284], [-70.9481789, 43.1416647], [-70.948538, 43.1415412], [-70.9488752, 43.1413656], [-70.9496048, 43.1411041], [-70.9486849, 43.1405873], [-70.9506968, 43.1396023], [-70.9504422, 43.1394475], [-70.951627, 43.1384993], [-70.9522266, 43.1390859], [-70.9524942, 43.1396766], [-70.9537438, 43.138876], [-70.9547012, 43.138507], [-70.9563579, 43.1376649], [-70.9558947, 43.136572], [-70.9550987, 43.135951], [-70.9548829, 43.1342464], [-70.9533173, 43.130243], [-70.9532686, 43.1301851], [-70.9532209, 43.1302321], [-70.9516799, 43.1297849], [-70.951122, 43.1297741], [-70.9492398, 43.1309734], [-70.947952, 43.1304696], [-70.9479216, 43.1307714], [-70.947606, 43.1311107], [-70.9454318, 43.1313042], [-70.9446616, 43.1312404], [-70.94424, 43.1311305], [-70.9433636, 43.130677], [-70.9429385, 43.1305008], [-70.9420279, 43.1297123], [-70.9411877, 43.129202], [-70.940109, 43.1287553], [-70.939651, 43.1287225], [-70.9390085, 43.1290279], [-70.9377284, 43.1338621], [-70.9374461, 43.1350123], [-70.9374169, 43.1351313], [-70.9371766, 43.1361104], [-70.9364818, 43.1388466], [-70.937458, 43.1393402], [-70.9383992, 43.1396719], [-70.9441652, 43.1414306], [-70.9444978, 43.1415414], [-70.9448426, 43.1416454], [-70.9449172, 43.141666], [-70.9455889, 43.1418639]]], [[[-70.9470359, 43.1423001], [-70.9470543, 43.1423561], [-70.9470988, 43.1423892], [-70.9472534, 43.1424396], [-70.9486655, 43.1428782], [-70.9495072, 43.1431344], [-70.9498977, 43.1432532], [-70.95046, 43.143426], [-70.9513976, 43.1437142], [-70.9526226, 43.1440949], [-70.9534667, 43.1443538], [-70.9542501, 43.1443707], [-70.9549062, 43.1443401], [-70.954402, 43.1433865], [-70.9543411, 43.1426617], [-70.9553635, 43.1423871], [-70.9564777, 43.1422573], [-70.9566302, 43.1430051], [-70.9598655, 43.143829], [-70.9602619, 43.1438138], [-70.9603533, 43.1430279], [-70.9607823, 43.1430127], [-70.9627185, 43.142944], [-70.9651147, 43.1435086], [-70.9655572, 43.1429898], [-70.9659062, 43.1425059], [-70.9659742, 43.1424024], [-70.9658473, 43.1423565], [-70.9657862, 43.1422879], [-70.9661977, 43.1421048], [-70.9663354, 43.1419369], [-70.9663661, 43.141792], [-70.9662432, 43.1413189], [-70.9662283, 43.1412274], [-70.9659995, 43.1409985], [-70.9659846, 43.1409146], [-70.9661062, 43.1406781], [-70.966076, 43.140617], [-70.9659077, 43.1405102], [-70.9654657, 43.1404187], [-70.9653585, 43.1403729], [-70.9652825, 43.1403042], [-70.9652514, 43.1402356], [-70.9652979, 43.1401059], [-70.9654348, 43.1397626], [-70.9655113, 43.1396253], [-70.9656486, 43.1394955], [-70.9658465, 43.1393887], [-70.9661214, 43.1392667], [-70.9665712, 43.1390464], [-70.967437, 43.1388445], [-70.9682776, 43.1374434], [-70.9662452, 43.1368652], [-70.9660533, 43.1362603], [-70.9649067, 43.1363301], [-70.9647421, 43.1359001], [-70.963261, 43.1361209], [-70.9616878, 43.1362683], [-70.9607813, 43.13634], [-70.959888, 43.136447], [-70.9590761, 43.1365973], [-70.958742, 43.1366938], [-70.9580564, 43.1369419], [-70.9573481, 43.137294], [-70.9568913, 43.1375371], [-70.9564834, 43.1378239], [-70.9562672, 43.1379699], [-70.9558929, 43.1381893], [-70.9559302, 43.1382293], [-70.9563019, 43.1386275], [-70.9561707, 43.1398874], [-70.9554617, 43.1399719], [-70.9560195, 43.140823], [-70.9563871, 43.1414523], [-70.954814, 43.1418683], [-70.9540906, 43.1412401], [-70.9531805, 43.1405536], [-70.9531178, 43.1405727], [-70.953087, 43.1406081], [-70.9530813, 43.1406221], [-70.9529887, 43.1405551], [-70.9528761, 43.1403691], [-70.9528385, 43.1403328], [-70.9525713, 43.1406018], [-70.952007, 43.1401768], [-70.9518018, 43.1402688], [-70.9515658, 43.1403696], [-70.9508322, 43.1407072], [-70.9507048, 43.1407601], [-70.9512586, 43.1412045], [-70.950374, 43.1414792], [-70.9501751, 43.1413418], [-70.9499924, 43.1414258], [-70.9497486, 43.1411867], [-70.9493785, 43.1413477], [-70.9487776, 43.1415791], [-70.9470943, 43.1422326], [-70.9470496, 43.1422734], [-70.9470359, 43.1423001]]]]}}