{"type": "Feature", "properties": {"market_key": 2323, "university": "State University of New York at Oswego", "osm_type": "relation", "osm_id": 9701464, "osm_name": "State University of New York at Oswego"}, "geometry": {"type": "MultiPolygon", "coordinates": [[[[-76.5464696, 43.4551225], [-76.546558, 43.4550615], [-76.5467918, 43.4549002], [-76.5471054, 43.4546219], [-76.5483738, 43.4530255], [-76.5492887, 43.4522038], [-76.5502375, 43.451659], [-76.5512048, 43.4516793], [-76.5524698, 43.4516793], [-76.5527966, 43.4514173], [-76.5529941, 43.4512369], [-76.5530234, 43.451236], [-76.55299, 43.4506998], [-76.5526494, 43.450711], [-76.5525867, 43.4497058], [-76.552158, 43.4497198], [-76.552097, 43.4487406], [-76.5508846, 43.4487804], [-76.5508636, 43.4484432], [-76.5507428, 43.4484471], [-76.5505538, 43.4484269], [-76.5505097, 43.4476273], [-76.5504216, 43.4473715], [-76.5501006, 43.4471293], [-76.5489993, 43.4466724], [-76.548307, 43.446645], [-76.5469287, 43.4467501], [-76.5445813, 43.4468323], [-76.5426617, 43.4478101], [-76.5426123, 43.4478332], [-76.5420915, 43.4480762], [-76.5415971, 43.4484466], [-76.5415149, 43.4489277], [-76.5415529, 43.4501244], [-76.5415552, 43.4501983], [-76.5415576, 43.4502741], [-76.5411611, 43.4503007], [-76.5411641, 43.4503385], [-76.5412639, 43.4515702], [-76.541277, 43.4519659], [-76.5412285, 43.4520199], [-76.5411658, 43.4520825], [-76.5411534, 43.452206], [-76.5411994, 43.4528902], [-76.5411366, 43.4529491], [-76.5405083, 43.4534806], [-76.5404341, 43.4534843], [-76.5392515, 43.4535426], [-76.5335856, 43.4537544], [-76.5337027, 43.4558465], [-76.5350052, 43.4558282], [-76.5350444, 43.4561107], [-76.5351186, 43.4563347], [-76.5351913, 43.4571678], [-76.5372047, 43.4571162], [-76.5372069, 43.4571483], [-76.5372536, 43.4578391], [-76.5372725, 43.4581186], [-76.5374525, 43.4584967], [-76.5375576, 43.4587175], [-76.5375976, 43.4588015], [-76.538249, 43.4585195], [-76.5384273, 43.4584992], [-76.5385955, 43.4584708], [-76.5386799, 43.4584153], [-76.5387565, 43.4583494], [-76.538949, 43.4582021], [-76.5390494, 43.4581341], [-76.5395206, 43.4579936], [-76.5395408, 43.4579424], [-76.53959, 43.4579163], [-76.5395773, 43.4579623], [-76.5396343, 43.457956], [-76.539911, 43.4578391], [-76.5399654, 43.4578594], [-76.540064, 43.4578582], [-76.5401142, 43.4578103], [-76.5401974, 43.4577562], [-76.5407283, 43.4575266], [-76.5409885, 43.457449], [-76.5412411, 43.4573555], [-76.5413031, 43.4573864], [-76.5413779, 43.4573593], [-76.5413954, 43.457281], [-76.5415241, 43.4572412], [-76.5417256, 43.4571208], [-76.5418969, 43.4570074], [-76.5419756, 43.4569509], [-76.5420751, 43.4569454], [-76.5421559, 43.456819], [-76.542353, 43.4567055], [-76.5424236, 43.4567261], [-76.5424759, 43.4566424], [-76.5426839, 43.4564973], [-76.5430162, 43.4563163], [-76.5434456, 43.4561206], [-76.5438703, 43.4558774], [-76.5446769, 43.4555217], [-76.5455297, 43.4553675], [-76.5458571, 43.4553878], [-76.5459002, 43.4553195], [-76.545972, 43.4552651], [-76.5462369, 43.4551729], [-76.5464696, 43.4551225]]], [[[-76.5323041, 43.4513658], [-76.5318758, 43.4441037], [-76.5335454, 43.444063], [-76.5362883, 43.4440077], [-76.5363057, 43.4443636], [-76.5364438, 43.4471962], [-76.5382387, 43.4471456], [-76.5381904, 43.4483334], [-76.5368815, 43.4489799], [-76.5368225, 43.4489721], [-76.5367523, 43.4486007], [-76.5361826, 43.4486115], [-76.5361989, 43.4488923], [-76.5353565, 43.4493064], [-76.5356154, 43.4496461], [-76.5344139, 43.4502612], [-76.5323041, 43.4513658]]]]}}