{"type": "Feature", "properties": {"market_key": 2333, "university": "SUNY Oneonta", "osm_type": "way", "osm_id": 132165918, "osm_name": "State University of New York at Oneonta"}, "geometry": {"type": "Polygon", "coordinates": [[[-75.0682883, 42.4639876], [-75.0677987, 42.4636285], [-75.067427, 42.4634398], [-75.0671985, 42.4637242], [-75.0660827, 42.4637875], [-75.0656106, 42.4639299], [-75.0647737, 42.4639141], [-75.0639262, 42.4640859], [-75.062628, 42.4645465], [-75.0618737, 42.4649185], [-75.0607247, 42.4650412], [-75.0604617, 42.4654537], [-75.0600731, 42.4659716], [-75.059841, 42.4659142], [-75.059643, 42.4657781], [-75.0594818, 42.4656139], [-75.0591188, 42.4654194], [-75.0590223, 42.4649399], [-75.0589434, 42.4646187], [-75.0587334, 42.464719], [-75.0584437, 42.4649422], [-75.0582828, 42.4652414], [-75.0582935, 42.4655596], [-75.058327, 42.4656923], [-75.058433, 42.4658587], [-75.058669, 42.4660487], [-75.0590982, 42.466207], [-75.058315, 42.4702131], [-75.059066, 42.4701656], [-75.059184, 42.4706863], [-75.060225, 42.470533], [-75.062009, 42.4743648], [-75.0621724, 42.4747992], [-75.0627062, 42.4759935], [-75.0622547, 42.4771321], [-75.061995, 42.4785522], [-75.0624027, 42.4799132], [-75.0667049, 42.4792976], [-75.0668551, 42.478079], [-75.0668122, 42.4765755], [-75.0663804, 42.4749845], [-75.0660533, 42.4731008], [-75.0664544, 42.4719683], [-75.065396, 42.4717167], [-75.0659968, 42.4692476], [-75.0667361, 42.4672564], [-75.0669862, 42.4670845], [-75.0670692, 42.4667625], [-75.0668551, 42.4663827], [-75.067413, 42.4660028], [-75.0682883, 42.4639876]]]}}