{"type": "Feature", "properties": {"market_key": 2339, "university": "College at Brockport SUNY", "osm_type": "way", "osm_id": 558864835, "osm_name": "The College at Brockport"}, "geometry": {"type": "Polygon", "coordinates": [[[-77.9429996, 43.2106624], [-77.9429346, 43.2120084], [-77.9426905, 43.212797], [-77.9469047, 43.2131705], [-77.9472708, 43.2142259], [-77.9490281, 43.2142141], [-77.9533075, 43.2140125], [-77.9541454, 43.214137], [-77.957058, 43.2140421], [-77.9570092, 43.2128978], [-77.9548451, 43.2129363], [-77.954841, 43.2126784], [-77.9550892, 43.2124115], [-77.9563787, 43.2117593], [-77.9567814, 43.2114925], [-77.9568546, 43.211365], [-77.9569115, 43.2112197], [-77.9569237, 43.2105823], [-77.9570905, 43.2101139], [-77.95718, 43.2095921], [-77.95718, 43.2083409], [-77.9572288, 43.2074425], [-77.957416, 43.2070096], [-77.9575136, 43.2066242], [-77.9575299, 43.2055271], [-77.9493292, 43.2055212], [-77.9492315, 43.2073951], [-77.9481169, 43.2073832], [-77.948055, 43.2091053], [-77.9480526, 43.2091712], [-77.9456285, 43.2091856], [-77.9455954, 43.2091892], [-77.9455674, 43.2091996], [-77.945549, 43.2092179], [-77.9455418, 43.209237], [-77.9455436, 43.2102579], [-77.9455596, 43.2107269], [-77.9454284, 43.2107236], [-77.9429996, 43.2106624]]]}}