{"type": "Feature", "properties": {"market_key": 2341, "university": "Appalachian State University", "osm_type": "relation", "osm_id": 17208432, "osm_name": "Appalachian State University"}, "geometry": {"type": "MultiPolygon", "coordinates": [[[[-81.6783835, 36.2158007], [-81.6782896, 36.2158055], [-81.6777076, 36.2157953], [-81.6777096, 36.2161253], [-81.67786, 36.2161271], [-81.6779818, 36.2161285], [-81.6781991, 36.2161475], [-81.6783922, 36.2161664], [-81.6783835, 36.2158007]]], [[[-81.6527295, 36.2014043], [-81.652527, 36.2011561], [-81.6522172, 36.2008119], [-81.652071, 36.200629], [-81.6518243, 36.2003769], [-81.6517371, 36.2003206], [-81.6516928, 36.200313], [-81.6516365, 36.2003238], [-81.6515681, 36.2003542], [-81.6511416, 36.2006182], [-81.6509445, 36.2007264], [-81.6507474, 36.2008292], [-81.6505784, 36.2009494], [-81.6504215, 36.201076], [-81.6501975, 36.2012989], [-81.6502215, 36.2013572], [-81.6502556, 36.2014403], [-81.6507219, 36.2026246], [-81.6511403, 36.2024623], [-81.651599, 36.2021539], [-81.6520093, 36.201893], [-81.652616, 36.2014553], [-81.652659, 36.201436], [-81.6527295, 36.2014043]]], [[[-81.6850166, 36.2174751], [-81.6848718, 36.2176628], [-81.6850568, 36.2177742], [-81.6851138, 36.2178932], [-81.6854189, 36.2181199], [-81.6856469, 36.2178559], [-81.6850166, 36.2174751]]], [[[-81.6760878, 36.2128548], [-81.6760486, 36.2129571], [-81.6759823, 36.2129533], [-81.6759454, 36.2129593], [-81.6759206, 36.2129717], [-81.6759038, 36.2129961], [-81.6758837, 36.2130578], [-81.6758448, 36.2132157], [-81.6757683, 36.2133786], [-81.6756436, 36.213635], [-81.6753553, 36.2142226], [-81.674961, 36.2150319], [-81.674851, 36.2152451], [-81.6752386, 36.2153143], [-81.6751501, 36.2156606], [-81.675487, 36.2156595], [-81.6758005, 36.2156584], [-81.6758059, 36.2153695], [-81.6762511, 36.2153879], [-81.6762635, 36.2150033], [-81.6762646, 36.2149702], [-81.6767082, 36.2149931], [-81.676746, 36.2149951], [-81.676751, 36.2149328], [-81.6767567, 36.214862], [-81.6767782, 36.2147874], [-81.6767943, 36.214743], [-81.6768694, 36.2147699], [-81.6769016, 36.2147814], [-81.6771819, 36.2148691], [-81.6774025, 36.2148853], [-81.6774199, 36.2148545], [-81.6777223, 36.2149199], [-81.6782004, 36.2150449], [-81.6779966, 36.2155112], [-81.6779148, 36.2154896], [-81.6775467, 36.2153803], [-81.6774481, 36.2153392], [-81.6774353, 36.2157038], [-81.6777056, 36.2157103], [-81.6779664, 36.2157179], [-81.6782856, 36.2157266], [-81.67859, 36.2157157], [-81.6785887, 36.2157893], [-81.678586, 36.2161907], [-81.6788127, 36.216221], [-81.6791224, 36.2162751], [-81.6794671, 36.2163476], [-81.6795013, 36.2162957], [-81.6795449, 36.2161237], [-81.6796965, 36.2161589], [-81.6803831, 36.2163184], [-81.6804008, 36.2163914], [-81.6804314, 36.2165175], [-81.6802556, 36.2169383], [-81.6802487, 36.2169707], [-81.6802248, 36.217012], [-81.6802421, 36.2170165], [-81.6802885, 36.2170285], [-81.6803097, 36.217034], [-81.680368, 36.2170491], [-81.6806479, 36.2171216], [-81.6809845, 36.2172087], [-81.6810999, 36.2172386], [-81.6811119, 36.2172065], [-81.6812408, 36.2168609], [-81.6812501, 36.2168361], [-81.6809645, 36.2167653], [-81.6810405, 36.2165502], [-81.6810436, 36.2165413], [-81.6810717, 36.2164493], [-81.6814801, 36.2165516], [-81.6823793, 36.2168394], [-81.6825443, 36.2168232], [-81.6825566, 36.2168305], [-81.6825852, 36.2168474], [-81.682708, 36.2169202], [-81.6830403, 36.2171172], [-81.6830526, 36.2171017], [-81.6832989, 36.2167932], [-81.6839138, 36.2169591], [-81.6841616, 36.2170888], [-81.6842408, 36.2170076], [-81.6839048, 36.2167528], [-81.6837312, 36.2165992], [-81.6835528, 36.2164239], [-81.6834462, 36.216306], [-81.6833442, 36.2161783], [-81.6832417, 36.2160436], [-81.6831223, 36.2158575], [-81.6830606, 36.2157471], [-81.6829875, 36.2156086], [-81.6828749, 36.2153663], [-81.6827428, 36.2150617], [-81.6825865, 36.2147084], [-81.6824926, 36.2145017], [-81.6823887, 36.2142978], [-81.6823022, 36.2141533], [-81.6821721, 36.2139515], [-81.6820253, 36.2137616], [-81.6818791, 36.2135901], [-81.6816947, 36.2133954], [-81.6815291, 36.2132439], [-81.6813111, 36.2130621], [-81.6811247, 36.2129333], [-81.6809336, 36.2128186], [-81.6808035, 36.2127472], [-81.6806788, 36.212679], [-81.680548, 36.2126179], [-81.6801343, 36.2124529], [-81.6799164, 36.2123777], [-81.6794812, 36.2122057], [-81.6793558, 36.2121505], [-81.6791613, 36.2120747], [-81.6789092, 36.2119736], [-81.6786457, 36.2118697], [-81.6784881, 36.2118112], [-81.6784026, 36.2117855], [-81.6784072, 36.2117999], [-81.6784076, 36.2118152], [-81.6784051, 36.2118479], [-81.6783962, 36.2118901], [-81.6783192, 36.2120904], [-81.6781831, 36.2124129], [-81.6781798, 36.2124182], [-81.6781745, 36.2124224], [-81.6781672, 36.212426], [-81.6781599, 36.2124279], [-81.6781508, 36.2124279], [-81.678143, 36.2124267], [-81.6781306, 36.2124235], [-81.6777658, 36.2122773], [-81.6776574, 36.2122359], [-81.6775489, 36.2122023], [-81.6774182, 36.2121706], [-81.6772929, 36.2121466], [-81.6772277, 36.212138], [-81.6771539, 36.2121346], [-81.676986, 36.2121384], [-81.676947, 36.2121443], [-81.6769101, 36.2121528], [-81.6768737, 36.2121652], [-81.6768405, 36.2121801], [-81.6768197, 36.2121924], [-81.6768021, 36.2122055], [-81.676784, 36.2122213], [-81.676769, 36.2122353], [-81.6767549, 36.2122523], [-81.676744, 36.2122694], [-81.6767346, 36.2122877], [-81.6767269, 36.2123064], [-81.6767216, 36.2123254], [-81.6767169, 36.212344], [-81.6767148, 36.2123629], [-81.6767159, 36.2123819], [-81.6767181, 36.2123994], [-81.6767214, 36.2124177], [-81.6767262, 36.2124361], [-81.6767332, 36.2124544], [-81.6767446, 36.2124818], [-81.676752, 36.2125046], [-81.6767552, 36.2125274], [-81.6767562, 36.2125519], [-81.6767519, 36.2125746], [-81.6767464, 36.2125901], [-81.6767325, 36.2126155], [-81.6767133, 36.2126384], [-81.6767315, 36.2126498], [-81.676576, 36.2128228], [-81.6765446, 36.212855], [-81.6765111, 36.2128867], [-81.676463, 36.2129245], [-81.6764277, 36.2129494], [-81.6764124, 36.2129602], [-81.6764011, 36.2129658], [-81.6763876, 36.2129679], [-81.6763734, 36.2129691], [-81.6763591, 36.212968], [-81.6763468, 36.2129652], [-81.676336, 36.2129612], [-81.6760878, 36.2128548]]], [[[-81.677953, 36.2161886], [-81.6777867, 36.2161788], [-81.6774769, 36.2161853], [-81.6772127, 36.2161745], [-81.677206, 36.2165402], [-81.6774461, 36.2165218], [-81.6777746, 36.2165024], [-81.6779543, 36.2164969], [-81.677953, 36.2161886]]], [[[-81.677381, 36.2161271], [-81.6773901, 36.2157846], [-81.6767178, 36.2157736], [-81.6767102, 36.215937], [-81.6767055, 36.2161154], [-81.677381, 36.2161271]]], [[[-81.6781831, 36.2124129], [-81.6781798, 36.2124182], [-81.6781745, 36.2124224], [-81.6781672, 36.212426], [-81.6781599, 36.2124279], [-81.6781508, 36.2124279], [-81.678143, 36.2124267], [-81.6781306, 36.2124235], [-81.6777658, 36.2122773], [-81.6776574, 36.2122359], [-81.6775489, 36.2122023], [-81.6774182, 36.2121706], [-81.6772929, 36.2121466], [-81.6772277, 36.212138], [-81.6771539, 36.2121346], [-81.676986, 36.2121384], [-81.676947, 36.2121443], [-81.6769101, 36.2121528], [-81.6768737, 36.2121652], [-81.6768405, 36.2121801], [-81.6768197, 36.2121924], [-81.6768021, 36.2122055], [-81.676784, 36.2122213], [-81.676769, 36.2122353], [-81.6767549, 36.2122523], [-81.676744, 36.2122694], [-81.6767346, 36.2122877], [-81.6767269, 36.2123064], [-81.6767216, 36.2123254], [-81.6767169, 36.212344], [-81.6767148, 36.2123629], [-81.6767159, 36.2123819], [-81.6767181, 36.2123994], [-81.6767214, 36.2124177], [-81.6767262, 36.2124361], [-81.6767332, 36.2124544], [-81.6767446, 36.2124818], [-81.676752, 36.2125046], [-81.6767552, 36.2125274], [-81.6767562, 36.2125519], [-81.6767519, 36.2125746], [-81.6767464, 36.2125901], [-81.6767325, 36.2126155], [-81.6767133, 36.2126384], [-81.6767315, 36.2126498], [-81.676576, 36.2128228], [-81.6765446, 36.212855], [-81.6765111, 36.2128867], [-81.676463, 36.2129245], [-81.6764277, 36.2129494], [-81.6764124, 36.2129602], [-81.6764011, 36.2129658], [-81.6763876, 36.2129679], [-81.6763734, 36.2129691], [-81.6763591, 36.212968], [-81.6763468, 36.2129652], [-81.676336, 36.2129612], [-81.6760878, 36.2128548], [-81.6760493, 36.2128199], [-81.6759641, 36.2127998], [-81.6759612, 36.2127981], [-81.6759591, 36.2127958], [-81.6759584, 36.2127926], [-81.6759585, 36.2127894], [-81.6759872, 36.2127231], [-81.6759895, 36.2127191], [-81.675993, 36.2127164], [-81.675998, 36.2127152], [-81.6760034, 36.2127149], [-81.6760178, 36.2127172], [-81.6760187, 36.2127135], [-81.676043, 36.2126109], [-81.6760223, 36.2125758], [-81.6760285, 36.2125444], [-81.6760102, 36.2125264], [-81.6759702, 36.2125288], [-81.6759654, 36.2125282], [-81.6759618, 36.2125267], [-81.675959, 36.2125236], [-81.6759574, 36.2125202], [-81.6759518, 36.2124835], [-81.6759225, 36.2124137], [-81.6758729, 36.2122377], [-81.6757919, 36.2120662], [-81.6757015, 36.2119143], [-81.6756884, 36.2118766], [-81.6756888, 36.2118594], [-81.6756935, 36.211844], [-81.6757002, 36.2118286], [-81.6757099, 36.2118134], [-81.6757191, 36.2118028], [-81.6757301, 36.2117915], [-81.6757466, 36.2117806], [-81.6757652, 36.2117705], [-81.6761558, 36.2116359], [-81.6763534, 36.2115736], [-81.676551, 36.2115163], [-81.6766982, 36.2114728], [-81.6767741, 36.2114548], [-81.6768485, 36.2114393], [-81.6769509, 36.211425], [-81.6770133, 36.2114189], [-81.6770772, 36.2114144], [-81.6771183, 36.2114141], [-81.6771571, 36.2114145], [-81.6772311, 36.2114168], [-81.6773016, 36.2114209], [-81.6773722, 36.2114285], [-81.6774757, 36.2114479], [-81.6775792, 36.2114716], [-81.6777788, 36.2115311], [-81.6783794, 36.2117652], [-81.6783926, 36.2117732], [-81.6784026, 36.2117855], [-81.6784072, 36.2117999], [-81.6784076, 36.2118152], [-81.6784051, 36.2118479], [-81.6783962, 36.2118901], [-81.6783192, 36.2120904], [-81.6781831, 36.2124129]]], [[[-81.6746271, 36.210549], [-81.674442, 36.2104008], [-81.6742623, 36.210219], [-81.6741657, 36.2102439], [-81.6739471, 36.210377], [-81.6737071, 36.2105728], [-81.6740209, 36.2109061], [-81.6746271, 36.210549]]], [[[-81.6912192, 36.2171483], [-81.6915867, 36.2176006], [-81.6917181, 36.2177542], [-81.6917878, 36.2179208], [-81.692276, 36.2171959], [-81.6926569, 36.2167848], [-81.6926837, 36.2162048], [-81.691289, 36.2161594], [-81.6914445, 36.2165294], [-81.6915008, 36.2168086], [-81.6912192, 36.2171483]]], [[[-81.6939323, 36.2069143], [-81.6943494, 36.205791], [-81.6945934, 36.2052434], [-81.6939698, 36.205093], [-81.6933422, 36.2069446], [-81.6939323, 36.2069143]]], [[[-81.6963154, 36.2158045], [-81.6963556, 36.2148934], [-81.696817, 36.2148869], [-81.6970316, 36.2149151], [-81.6970691, 36.2143741], [-81.6970021, 36.2136751], [-81.6967955, 36.2136448], [-81.6944835, 36.2123528], [-81.694411, 36.2123117], [-81.694293, 36.2104116], [-81.6943654, 36.2102038], [-81.6937834, 36.2103012], [-81.6933516, 36.210193], [-81.6929412, 36.2102514], [-81.6930217, 36.210602], [-81.6921446, 36.2107903], [-81.691989, 36.2110262], [-81.6919112, 36.2116798], [-81.6924343, 36.2120304], [-81.6928312, 36.2124112], [-81.6924074, 36.212896], [-81.6924986, 36.2130735], [-81.6920668, 36.2133786], [-81.6922841, 36.2137941], [-81.6922465, 36.2147549], [-81.6915942, 36.2147341], [-81.6909948, 36.2146593], [-81.6902595, 36.2145695], [-81.6895489, 36.2144848], [-81.6892166, 36.2144711], [-81.6895027, 36.2133657], [-81.6895153, 36.2132142], [-81.6893994, 36.2119817], [-81.6891564, 36.210759], [-81.6867963, 36.2107081], [-81.6854471, 36.2104441], [-81.6845754, 36.2106237], [-81.6844225, 36.2104397], [-81.6843702, 36.210536], [-81.684334, 36.2106345], [-81.6842844, 36.2107698], [-81.6842508, 36.2108769], [-81.6841047, 36.2108542], [-81.6842321, 36.2104441], [-81.6841958, 36.2103867], [-81.6841355, 36.2103304], [-81.6840617, 36.2102828], [-81.6839933, 36.2102623], [-81.6839424, 36.2102666], [-81.6838968, 36.2102817], [-81.683811, 36.2103413], [-81.6836648, 36.2104635], [-81.6835937, 36.2104949], [-81.6834918, 36.2105101], [-81.6832329, 36.2105209], [-81.6831793, 36.2105436], [-81.683135, 36.2105934], [-81.6831136, 36.2106334], [-81.6831391, 36.2107676], [-81.6831243, 36.2108552], [-81.6830908, 36.2109093], [-81.683013, 36.2109548], [-81.6828065, 36.2110035], [-81.6823773, 36.2110727], [-81.6822352, 36.2106053], [-81.6821225, 36.2103954], [-81.6821828, 36.209824], [-81.6821547, 36.2097277], [-81.6820809, 36.2096195], [-81.68203, 36.2095059], [-81.6820206, 36.2094659], [-81.68203, 36.2094118], [-81.6820796, 36.2093414], [-81.682148, 36.2093014], [-81.6816786, 36.2086673], [-81.6806486, 36.2086759], [-81.6806433, 36.2094702], [-81.6804582, 36.2099809], [-81.6787845, 36.2103835], [-81.6787791, 36.2104614], [-81.6785726, 36.2107211], [-81.6782641, 36.2106064], [-81.6782534, 36.2105588], [-81.6781274, 36.2105263], [-81.6779932, 36.2104506], [-81.6777854, 36.2103467], [-81.6776647, 36.2103142], [-81.6775171, 36.2102958], [-81.6774273, 36.2102915], [-81.6773334, 36.2102114], [-81.6774729, 36.2100956], [-81.677493, 36.2100664], [-81.6772208, 36.2099582], [-81.6769901, 36.2098273], [-81.6767769, 36.2096639], [-81.6766293, 36.2095622], [-81.6763222, 36.2092181], [-81.6760349, 36.2093719], [-81.6757482, 36.2095254], [-81.6757616, 36.2095459], [-81.6752225, 36.2098024], [-81.675256, 36.2098219], [-81.6752882, 36.2098294], [-81.6753177, 36.2098305], [-81.6753137, 36.2099495], [-81.6752681, 36.2099355], [-81.6752145, 36.2099344], [-81.6750562, 36.209942], [-81.6748966, 36.2099669], [-81.6746593, 36.2100253], [-81.6746351, 36.2100502], [-81.6746137, 36.2100924], [-81.674611, 36.2101465], [-81.674898, 36.2104094], [-81.6749959, 36.2105176], [-81.675079, 36.2106832], [-81.675413, 36.2113833], [-81.6754854, 36.2115099], [-81.6755202, 36.2115391], [-81.6755524, 36.211551], [-81.6756007, 36.2115586], [-81.6756503, 36.2115521], [-81.6759199, 36.2114655], [-81.6762431, 36.2113898], [-81.67675, 36.2112653], [-81.6768895, 36.2112361], [-81.6770263, 36.2112264], [-81.6772328, 36.2112231], [-81.6774863, 36.2112491], [-81.6777532, 36.2113216], [-81.678177, 36.2114893], [-81.6786437, 36.211669], [-81.6791828, 36.2118919], [-81.6798332, 36.2121418], [-81.6803147, 36.2123214], [-81.680713, 36.2124902], [-81.6809168, 36.2125919], [-81.6810952, 36.2126958], [-81.6813433, 36.212857], [-81.6815552, 36.2130129], [-81.6817041, 36.213133], [-81.6818503, 36.2132661], [-81.6820662, 36.2134868], [-81.6821681, 36.2135982], [-81.6823009, 36.2137465], [-81.6823035, 36.2137843], [-81.6823156, 36.213806], [-81.6824162, 36.2139467], [-81.6826093, 36.2142518], [-81.682722, 36.2144952], [-81.68295, 36.215007], [-81.6830961, 36.2153284], [-81.6831927, 36.2155307], [-81.6833617, 36.2158423], [-81.6835374, 36.2160912], [-81.6836835, 36.2162546], [-81.68376, 36.2163357], [-81.6838834, 36.2164688], [-81.6840819, 36.2166484], [-81.684287, 36.2168053], [-81.6844131, 36.2168897], [-81.6846746, 36.2170552], [-81.6848007, 36.217136], [-81.6848892, 36.2171927], [-81.6849442, 36.2172208], [-81.6851869, 36.2173625], [-81.6855973, 36.2175822], [-81.6859809, 36.2171937], [-81.6861512, 36.2172392], [-81.686883, 36.2169784], [-81.6875204, 36.2167512], [-81.68906, 36.2168432], [-81.6890574, 36.2169416], [-81.6892558, 36.216867], [-81.689335, 36.2168464], [-81.6894543, 36.2168508], [-81.6898566, 36.2168886], [-81.6899559, 36.2168897], [-81.6900297, 36.2168756], [-81.6900766, 36.2168551], [-81.6901168, 36.216828], [-81.6902374, 36.2167177], [-81.6902965, 36.2166636], [-81.6903068, 36.2166058], [-81.6903086, 36.2165954], [-81.6900431, 36.2164288], [-81.6897695, 36.2162957], [-81.6895616, 36.2162145], [-81.6893765, 36.2161453], [-81.6892491, 36.2160912], [-81.6892022, 36.2160587], [-81.6891673, 36.2160209], [-81.6891499, 36.2159787], [-81.6891526, 36.2159365], [-81.6891781, 36.215878], [-81.6892116, 36.2158402], [-81.6892666, 36.2158131], [-81.6893953, 36.2157926], [-81.6901638, 36.2157071], [-81.6904132, 36.2156649], [-81.6905071, 36.2156411], [-81.6905956, 36.2156054], [-81.6906841, 36.215548], [-81.690841, 36.2154301], [-81.6909496, 36.2153673], [-81.6911159, 36.2153111], [-81.6912286, 36.215297], [-81.6913614, 36.2153024], [-81.6916779, 36.2153511], [-81.6924477, 36.2155037], [-81.692799, 36.2155621], [-81.6931678, 36.2156011], [-81.6935702, 36.2156075], [-81.694002, 36.2155848], [-81.6942219, 36.215587], [-81.6943789, 36.2156065], [-81.6945706, 36.2156454], [-81.6948389, 36.2157266], [-81.6950896, 36.2158066], [-81.6952103, 36.2158337], [-81.6953324, 36.2158337], [-81.6955335, 36.2158055], [-81.695842, 36.2157655], [-81.6959761, 36.2157634], [-81.696186, 36.2157844], [-81.6963154, 36.2158045]]], [[[-81.6947034, 36.206871], [-81.6946578, 36.2073017], [-81.6946203, 36.2077951], [-81.6945612, 36.2095903], [-81.6944942, 36.2095892], [-81.6943654, 36.2102038], [-81.6937834, 36.2103012], [-81.6933516, 36.210193], [-81.6929412, 36.2102514], [-81.6930217, 36.210602], [-81.6921446, 36.2107903], [-81.691989, 36.2110262], [-81.6919112, 36.2116798], [-81.6924343, 36.2120304], [-81.6928312, 36.2124112], [-81.6924074, 36.212896], [-81.6924986, 36.2130735], [-81.6920668, 36.2133786], [-81.6922841, 36.2137941], [-81.6922465, 36.2147549], [-81.6915942, 36.2147341], [-81.6909948, 36.2146593], [-81.6902595, 36.2145695], [-81.6895489, 36.2144848], [-81.6892166, 36.2144711], [-81.6892964, 36.2142012], [-81.6895027, 36.2133657], [-81.6895153, 36.2132142], [-81.6893994, 36.2119817], [-81.6891564, 36.210759], [-81.6867963, 36.2107081], [-81.6854471, 36.2104441], [-81.6845754, 36.2106237], [-81.6844225, 36.2104397], [-81.6846022, 36.2102147], [-81.6848409, 36.2099679], [-81.6849428, 36.2098121], [-81.684975, 36.209665], [-81.686756, 36.2096628], [-81.6867158, 36.208875], [-81.6870484, 36.2089551], [-81.687094, 36.2088685], [-81.6876894, 36.208888], [-81.6876975, 36.207622], [-81.6879818, 36.2076198], [-81.6882286, 36.2075073], [-81.6883412, 36.2074142], [-81.688368, 36.2072757], [-81.6890037, 36.2069337], [-81.6901115, 36.2069164], [-81.6914848, 36.2069532], [-81.6933422, 36.2069446], [-81.6939323, 36.2069143], [-81.6947034, 36.206871]]], [[[-81.6631137, 36.2046926], [-81.6631106, 36.2057011], [-81.6636917, 36.2058029], [-81.6640417, 36.2052921], [-81.6642791, 36.2053127], [-81.664432, 36.2053105], [-81.6645822, 36.2052921], [-81.6647163, 36.2052543], [-81.6648504, 36.2052077], [-81.6649336, 36.2051623], [-81.6650194, 36.2051017], [-81.6651817, 36.2049826], [-81.6643395, 36.2048376], [-81.6631137, 36.2046926]]], [[[-81.6783339, 36.1977979], [-81.6772449, 36.1978932], [-81.6765314, 36.1981616], [-81.6760379, 36.1979711], [-81.6747344, 36.1980317], [-81.6744018, 36.1980533], [-81.6743481, 36.197062], [-81.673817, 36.1968282], [-81.6736186, 36.1967806], [-81.6734791, 36.1967806], [-81.6733611, 36.1968239], [-81.6731197, 36.1970577], [-81.6728354, 36.1973304], [-81.6725135, 36.1975339], [-81.6724759, 36.1976378], [-81.6725296, 36.1977027], [-81.6726369, 36.1977373], [-81.673184, 36.1978152], [-81.6735381, 36.1979018], [-81.6736347, 36.1979711], [-81.673699, 36.1980923], [-81.6737098, 36.1982222], [-81.6736829, 36.1983217], [-81.6736454, 36.1983823], [-81.6735381, 36.1984429], [-81.6733342, 36.19872], [-81.6729185, 36.1994473], [-81.6725028, 36.2001442], [-81.6721112, 36.2004342], [-81.6726771, 36.200826], [-81.6717437, 36.2021917], [-81.6725591, 36.2032739], [-81.6726422, 36.2033064], [-81.6727039, 36.2033085], [-81.6727898, 36.2032956], [-81.6742703, 36.2030964], [-81.6752842, 36.2029471], [-81.6751394, 36.2023259], [-81.6755927, 36.2023584], [-81.6765288, 36.2021896], [-81.6766387, 36.2025489], [-81.6768399, 36.2024991], [-81.6768748, 36.2022913], [-81.676982, 36.2021679], [-81.6769472, 36.2021138], [-81.6781515, 36.2012264], [-81.6788837, 36.2012805], [-81.6792056, 36.200958], [-81.6790178, 36.2008801], [-81.6790125, 36.2003239], [-81.6788542, 36.2002784], [-81.6786968, 36.2001801], [-81.6785927, 36.200115], [-81.6784385, 36.2000187], [-81.6787711, 36.1999104], [-81.6789562, 36.1998109], [-81.6790366, 36.1997308], [-81.6791064, 36.1995511], [-81.6783232, 36.1992048], [-81.6783339, 36.1977979]]]]}}