{"type": "Feature", "properties": {"market_key": 2342, "university": "Elon University", "osm_type": "relation", "osm_id": 6442121, "osm_name": "Elon University"}, "geometry": {"type": "MultiPolygon", "coordinates": [[[[-79.4974009, 36.100477], [-79.4973995, 36.1004688], [-79.4972883, 36.0998615], [-79.4970619, 36.0995071], [-79.4968412, 36.0992563], [-79.4966714, 36.0990773], [-79.4964561, 36.0989047], [-79.4964021, 36.0988656], [-79.4971048, 36.0977474], [-79.4972175, 36.0941019], [-79.4972481, 36.0940057], [-79.4989663, 36.0941019], [-79.5000799, 36.0940837], [-79.5044273, 36.0941713], [-79.503805, 36.0954283], [-79.5030733, 36.0952281], [-79.5024296, 36.0966238], [-79.5022501, 36.0970657], [-79.5021527, 36.0973702], [-79.5021106, 36.0976249], [-79.5021045, 36.0978254], [-79.5022072, 36.100438], [-79.5009609, 36.1004727], [-79.4975018, 36.1005691], [-79.4974009, 36.100477]]], [[[-79.5090605, 36.1002077], [-79.5090365, 36.0997577], [-79.5080704, 36.0997913], [-79.5080943, 36.1002412], [-79.5090605, 36.1002077]]], [[[-79.5068331, 36.0987013], [-79.5094724, 36.0985799], [-79.5094832, 36.0980424], [-79.5100732, 36.0980338], [-79.5101604, 36.096712], [-79.5101612, 36.0966996], [-79.5077472, 36.0965956], [-79.5074097, 36.0973731], [-79.5068331, 36.0987013]]], [[[-79.5065421, 36.1007957], [-79.5066161, 36.1030652], [-79.5066441, 36.103269], [-79.5066862, 36.1034539], [-79.5067469, 36.1036614], [-79.5069617, 36.1041557], [-79.5071938, 36.1046923], [-79.5074007, 36.1051706], [-79.5074478, 36.1053449], [-79.508639, 36.1073838], [-79.508977, 36.1080339], [-79.5091648, 36.1085019], [-79.5093525, 36.1091174], [-79.5094705, 36.1097241], [-79.5095134, 36.1103568], [-79.5095456, 36.1124067], [-79.5095134, 36.1124847], [-79.509433, 36.1125151], [-79.5039401, 36.1106832], [-79.5025764, 36.1102456], [-79.5018666, 36.1100946], [-79.5014649, 36.1100628], [-79.5010095, 36.1100562], [-79.4874793, 36.1103775], [-79.4873519, 36.1081415], [-79.4866653, 36.1083131], [-79.4863821, 36.1076325], [-79.4873873, 36.1073352], [-79.4871545, 36.1068072], [-79.4904279, 36.1059191], [-79.4907922, 36.1067605], [-79.4910864, 36.1068322], [-79.4917818, 36.1071826], [-79.4923976, 36.1075143], [-79.4929639, 36.1076916], [-79.4934169, 36.1076573], [-79.493424, 36.1070625], [-79.495052, 36.1050323], [-79.4948744, 36.1047927], [-79.4948375, 36.1046931], [-79.4951397, 36.1045927], [-79.4959466, 36.1043247], [-79.4959361, 36.1047124], [-79.4966041, 36.1047115], [-79.4966932, 36.1055991], [-79.4966229, 36.1073766], [-79.4973834, 36.1074266], [-79.4974907, 36.1055212], [-79.4974847, 36.1036254], [-79.4973726, 36.1034424], [-79.4973606, 36.1026712], [-79.4984521, 36.1026391], [-79.4984278, 36.1009902], [-79.4998794, 36.1009403], [-79.4998946, 36.1014233], [-79.500762, 36.1013902], [-79.5007358, 36.1009109], [-79.5037602, 36.1008069], [-79.5065421, 36.1007957]]], [[[-79.5106117, 36.1058854], [-79.5128478, 36.1069089], [-79.5133757, 36.1078199], [-79.512152, 36.1082541], [-79.5116242, 36.1086612], [-79.5112787, 36.1087852], [-79.5110004, 36.1088317], [-79.5098199, 36.108886], [-79.5099591, 36.1095955], [-79.5099351, 36.1100335], [-79.5096424, 36.1100374], [-79.5096424, 36.1098474], [-79.509604, 36.1094443], [-79.5094697, 36.1089209], [-79.5093017, 36.1083471], [-79.5090378, 36.1078044], [-79.5085243, 36.1068042], [-79.5088938, 36.1066801], [-79.5101942, 36.1065522], [-79.5106117, 36.1058854]]], [[[-79.5122991, 36.1041762], [-79.5137934, 36.1029049], [-79.5129323, 36.102887], [-79.5128405, 36.1029765], [-79.5125967, 36.1028103], [-79.5126917, 36.1021938], [-79.5113399, 36.1026747], [-79.5109188, 36.1027898], [-79.5104408, 36.1028512], [-79.5095987, 36.1028691], [-79.509637, 36.1034913], [-79.5068971, 36.1034642], [-79.5076552, 36.1053561], [-79.5102992, 36.1052864], [-79.5103472, 36.1036464], [-79.5106639, 36.1035379], [-79.5115586, 36.1035339], [-79.5122991, 36.1041762]]]]}}