{"type": "Feature", "properties": {"market_key": 2345, "university": "University of North Carolina at Pembroke", "osm_type": "way", "osm_id": 510825904, "osm_name": "University of North Carolina at Pembroke"}, "geometry": {"type": "Polygon", "coordinates": [[[-79.1974132, 34.6999335], [-79.2001236, 34.7004241], [-79.2004932, 34.6985101], [-79.2041558, 34.6983584], [-79.2040474, 34.697955], [-79.2011063, 34.6973637], [-79.2015153, 34.6946091], [-79.2046953, 34.6946468], [-79.2044539, 34.694425], [-79.204383, 34.6941682], [-79.2051637, 34.6925108], [-79.2029307, 34.6905518], [-79.2030298, 34.690097], [-79.2059352, 34.6908284], [-79.2076889, 34.6871096], [-79.2039357, 34.6857746], [-79.2031459, 34.6854969], [-79.2025376, 34.6852831], [-79.1996933, 34.6841852], [-79.1993042, 34.6869558], [-79.1992839, 34.6871062], [-79.1992359, 34.6874225], [-79.1991789, 34.6877845], [-79.1991398, 34.6880331], [-79.1990942, 34.6883107], [-79.1990494, 34.6886128], [-79.1989887, 34.6890124], [-79.1989416, 34.6892757], [-79.1988837, 34.6894673], [-79.1974132, 34.6999335]]]}}