{"type": "Feature", "properties": {"market_key": 2347, "university": "Bowling Green State University", "osm_type": "relation", "osm_id": 13559203, "osm_name": "Bowling Green State University"}, "geometry": {"type": "MultiPolygon", "coordinates": [[[[-83.6298847, 41.3961686], [-83.6275943, 41.3961568], [-83.6275181, 41.3960599], [-83.6276395, 41.3934212], [-83.6300124, 41.3935189], [-83.6300142, 41.3935441], [-83.629888, 41.3961026], [-83.6298868, 41.396127], [-83.6298857, 41.3961489], [-83.6298847, 41.3961686]]], [[[-83.6419771, 41.3733235], [-83.6418968, 41.3733241], [-83.6414503, 41.373325], [-83.6414501, 41.3735649], [-83.6418997, 41.3735638], [-83.6419798, 41.3735641], [-83.6419796, 41.3735457], [-83.6419784, 41.3734344], [-83.6419771, 41.3733235]]], [[[-83.6445004, 41.3817939], [-83.6444149, 41.3817932], [-83.6442669, 41.3817904], [-83.643985, 41.3817864], [-83.6440024, 41.3822467], [-83.6440772, 41.3822468], [-83.6440764, 41.3826737], [-83.6441391, 41.3828472], [-83.6443495, 41.3828479], [-83.6444227, 41.3828482], [-83.6445043, 41.3828485], [-83.6445004, 41.3817939]]], [[[-83.641867, 41.3709997], [-83.6417047, 41.370998], [-83.6411268, 41.3709918], [-83.640808, 41.3709884], [-83.6408084, 41.3710539], [-83.6408099, 41.3712899], [-83.6397365, 41.3712808], [-83.6395842, 41.3712795], [-83.6395741, 41.3719511], [-83.6403537, 41.3719577], [-83.6403491, 41.3722589], [-83.6408683, 41.3722607], [-83.6409166, 41.3731179], [-83.6409552, 41.3731292], [-83.640989, 41.373139], [-83.641129, 41.373056], [-83.641189, 41.373038], [-83.6412605, 41.3730274], [-83.64129, 41.373023], [-83.6413195, 41.3730217], [-83.6413733, 41.3730195], [-83.6413598, 41.372813], [-83.6418933, 41.3728225], [-83.6419738, 41.372825], [-83.6419714, 41.372578], [-83.6419712, 41.3725593], [-83.641968, 41.372208], [-83.6419573, 41.3716918], [-83.6419549, 41.3715726], [-83.6419516, 41.3714135], [-83.6419442, 41.3710571], [-83.641943, 41.3710005], [-83.641867, 41.3709997]]], [[[-83.6444927, 41.3760261], [-83.6444926, 41.3760402], [-83.6444997, 41.3763803], [-83.6453101, 41.3763783], [-83.6452966, 41.3773718], [-83.6452953, 41.3774431], [-83.6453006, 41.3775149], [-83.6453007, 41.3779091], [-83.6453007, 41.3782839], [-83.6453008, 41.3783231], [-83.6457547, 41.3783308], [-83.6460379, 41.3783356], [-83.646115, 41.378337], [-83.6461155, 41.3783802], [-83.6461187, 41.3792196], [-83.646121, 41.379788], [-83.6460045, 41.3797869], [-83.6459983, 41.3797868], [-83.6456805, 41.3797859], [-83.6446987, 41.3797831], [-83.6445928, 41.3797828], [-83.6444947, 41.3797814], [-83.6444916, 41.378351], [-83.6444915, 41.3783112], [-83.6444917, 41.3782847], [-83.6444969, 41.3775142], [-83.6444948, 41.3774425], [-83.6443008, 41.37744], [-83.6441089, 41.3774394], [-83.6439365, 41.37744], [-83.6435414, 41.37744], [-83.6434402, 41.37744], [-83.643441, 41.3782496], [-83.6428729, 41.378224], [-83.6429648, 41.3826204], [-83.6428454, 41.3826296], [-83.6413931, 41.3826133], [-83.6411268, 41.3825978], [-83.6411005, 41.3827391], [-83.6411265, 41.383295], [-83.6411542, 41.3833745], [-83.6411607, 41.3834563], [-83.6411468, 41.383596], [-83.6412219, 41.3853086], [-83.6411656, 41.3853669], [-83.6411737, 41.3854517], [-83.6202505, 41.3852129], [-83.6192066, 41.3851603], [-83.6167064, 41.3850343], [-83.6167054, 41.3848392], [-83.6166751, 41.3788333], [-83.6167449, 41.3774687], [-83.6169729, 41.3761202], [-83.6172813, 41.3755446], [-83.6179948, 41.3751008], [-83.6176957, 41.3748734], [-83.617862, 41.3747707], [-83.6179921, 41.3747143], [-83.6181886, 41.3746741], [-83.6188233, 41.374606], [-83.6192353, 41.3745956], [-83.625808, 41.3746232], [-83.6297796, 41.3746399], [-83.630603, 41.374656], [-83.6309571, 41.3746419], [-83.6314748, 41.3746298], [-83.6319696, 41.3746374], [-83.6321292, 41.3746399], [-83.6325691, 41.3746339], [-83.6327354, 41.3746238], [-83.6331619, 41.3746198], [-83.6340546, 41.3746277], [-83.6341273, 41.3746218], [-83.6350313, 41.3746349], [-83.6350439, 41.3740697], [-83.636327, 41.3740689], [-83.6363326, 41.3746333], [-83.6388515, 41.3746896], [-83.6393293, 41.3746885], [-83.6398067, 41.3747046], [-83.6399355, 41.3747046], [-83.6411464, 41.3747375], [-83.6411763, 41.3747383], [-83.6413793, 41.374736], [-83.6416275, 41.3747419], [-83.6417757, 41.3747745], [-83.6418007, 41.3747818], [-83.6420328, 41.3747893], [-83.6428898, 41.3748129], [-83.6429409, 41.374811], [-83.6429694, 41.3748107], [-83.6429912, 41.3748117], [-83.6430103, 41.3748155], [-83.6430326, 41.3748243], [-83.6430569, 41.3748364], [-83.6430768, 41.3748515], [-83.6430961, 41.3748732], [-83.6431005, 41.3748938], [-83.6431646, 41.3760367], [-83.6444927, 41.3760261]]], [[[-83.6391775, 41.3737828], [-83.639715, 41.3737731], [-83.6397133, 41.3739345], [-83.6404065, 41.3739279], [-83.6403922, 41.3745805], [-83.639405, 41.3745573], [-83.6393105, 41.3745549], [-83.639227, 41.3745029], [-83.6392109, 41.374039], [-83.6391775, 41.3737828]]]]}}