{"type": "Feature", "properties": {"market_key": 2349, "university": "Kent State University", "osm_type": "way", "osm_id": 194552384, "osm_name": "Kent State University"}, "geometry": {"type": "Polygon", "coordinates": [[[-81.3525065, 41.1536732], [-81.3527982, 41.1536737], [-81.3528505, 41.1536667], [-81.3530566, 41.1535873], [-81.3530751, 41.153584], [-81.3531383, 41.1535478], [-81.3533419, 41.153419], [-81.3542618, 41.1529701], [-81.3547859, 41.1526516], [-81.3555394, 41.1526842], [-81.3563085, 41.152679], [-81.356301, 41.1519752], [-81.3559443, 41.151988], [-81.3554649, 41.1522361], [-81.3551043, 41.1522943], [-81.3551865, 41.1522443], [-81.3551227, 41.152216], [-81.3550836, 41.1522079], [-81.355009, 41.1522062], [-81.354527, 41.1522057], [-81.3536962, 41.1522048], [-81.3536955, 41.1520475], [-81.3536161, 41.1520465], [-81.3531551, 41.1520411], [-81.3531385, 41.1520409], [-81.3530366, 41.15204], [-81.3530365, 41.1520206], [-81.3514418, 41.1520344], [-81.3513295, 41.152035], [-81.3513053, 41.1514756], [-81.3513073, 41.1512594], [-81.3513081, 41.1512216], [-81.3513091, 41.1511751], [-81.3513666, 41.1511765], [-81.3514571, 41.1512083], [-81.3514638, 41.1511775], [-81.3515832, 41.151177], [-81.351713, 41.1511765], [-81.3518007, 41.1511761], [-81.3518683, 41.1511758], [-81.3519164, 41.1511762], [-81.3523235, 41.1511796], [-81.3529392, 41.1511846], [-81.353049, 41.151186], [-81.3530523, 41.1510988], [-81.3530564, 41.1509908], [-81.3530622, 41.1508383], [-81.353067, 41.150713], [-81.3530673, 41.1506833], [-81.353069, 41.1505072], [-81.3530693, 41.150479], [-81.3530723, 41.1501501], [-81.3530725, 41.1500825], [-81.3529694, 41.1500831], [-81.3524053, 41.1500833], [-81.3522584, 41.1500839], [-81.3519942, 41.1500828], [-81.3518343, 41.1500784], [-81.3518227, 41.1500781], [-81.3516904, 41.1500682], [-81.3516283, 41.1500621], [-81.3515872, 41.1500581], [-81.3515392, 41.1500525], [-81.3514405, 41.1500402], [-81.3513496, 41.1500224], [-81.3512499, 41.1499974], [-81.3511459, 41.1499666], [-81.351089, 41.149946], [-81.350983, 41.1499011], [-81.3508777, 41.1498511], [-81.3507939, 41.1498051], [-81.3506236, 41.1496961], [-81.3503453, 41.1495007], [-81.3502863, 41.1494612], [-81.3500726, 41.1493065], [-81.3499526, 41.1492196], [-81.3498814, 41.1491685], [-81.3497124, 41.1490469], [-81.3494584, 41.1488856], [-81.3493488, 41.1488129], [-81.3483567, 41.1481743], [-81.3482396, 41.1480996], [-81.3483368, 41.1480461], [-81.3483699, 41.1480212], [-81.3483994, 41.147999], [-81.3484443, 41.1479606], [-81.3484798, 41.1479278], [-81.3485107, 41.1478945], [-81.3485386, 41.1478609], [-81.3485511, 41.1478355], [-81.3485637, 41.1478097], [-81.3485824, 41.1477652], [-81.3485909, 41.1477174], [-81.3485956, 41.1475542], [-81.3485938, 41.147505], [-81.3485304, 41.1474933], [-81.3485322, 41.1471459], [-81.3485423, 41.146521], [-81.3485428, 41.1464892], [-81.3485456, 41.1463183], [-81.3485292, 41.146318], [-81.3485049, 41.1463178], [-81.3474798, 41.1463078], [-81.3474332, 41.1463075], [-81.3473836, 41.1463073], [-81.3473101, 41.1463069], [-81.3472708, 41.1463067], [-81.3466545, 41.1463211], [-81.346675, 41.1455245], [-81.346699, 41.1445892], [-81.3467011, 41.1442356], [-81.3467065, 41.1433361], [-81.3467073, 41.1432097], [-81.3467078, 41.1431384], [-81.3467107, 41.1426539], [-81.3467178, 41.1424846], [-81.3467175, 41.1424077], [-81.346722, 41.142246], [-81.3467279, 41.1420315], [-81.3463064, 41.1420234], [-81.3463363, 41.1411294], [-81.3457265, 41.1411089], [-81.3455961, 41.1411045], [-81.3455876, 41.1409921], [-81.3455678, 41.139811], [-81.3455669, 41.1395154], [-81.3455664, 41.1393353], [-81.3461469, 41.1393411], [-81.3462059, 41.1389798], [-81.3462227, 41.1385172], [-81.3463108, 41.1360979], [-81.3462425, 41.1356092], [-81.3462591, 41.1346722], [-81.3456938, 41.1346665], [-81.3421764, 41.1346643], [-81.3390868, 41.1346548], [-81.337206, 41.134664], [-81.3372514, 41.1368591], [-81.3371807, 41.1417951], [-81.3367888, 41.1416324], [-81.336729, 41.1416075], [-81.3365652, 41.1415429], [-81.3365057, 41.1415164], [-81.3357918, 41.1412225], [-81.3356854, 41.1411808], [-81.3355304, 41.1411178], [-81.335355, 41.1410427], [-81.3341188, 41.140603], [-81.3334195, 41.1403117], [-81.3329095, 41.140143], [-81.3328658, 41.1401286], [-81.3327144, 41.1400784], [-81.332072, 41.1398918], [-81.3312062, 41.1397225], [-81.3297552, 41.1395469], [-81.3292314, 41.1394831], [-81.3291199, 41.13947], [-81.328433, 41.1393869], [-81.3281993, 41.1393586], [-81.3277597, 41.1393054], [-81.3276566, 41.1392914], [-81.3275589, 41.1392811], [-81.3271393, 41.1392251], [-81.3270682, 41.1392151], [-81.3262801, 41.1391104], [-81.3252799, 41.1389769], [-81.3248984, 41.138926], [-81.3246696, 41.1388954], [-81.3240447, 41.138812], [-81.3205868, 41.1383505], [-81.3187133, 41.1380243], [-81.3184559, 41.1379795], [-81.3183721, 41.1379649], [-81.3176589, 41.1378558], [-81.3174762, 41.1378278], [-81.3164565, 41.1376718], [-81.3163169, 41.1376504], [-81.3162317, 41.1376374], [-81.3153196, 41.1374432], [-81.3151487, 41.1374068], [-81.3150512, 41.137386], [-81.3150052, 41.1373772], [-81.3148746, 41.1373523], [-81.314338, 41.13725], [-81.3136592, 41.1371775], [-81.3125444, 41.1371215], [-81.3102356, 41.1369955], [-81.3102381, 41.1372458], [-81.3102514, 41.1385602], [-81.3102469, 41.1387202], [-81.3101978, 41.1404607], [-81.3101774, 41.1411862], [-81.3127013, 41.1421145], [-81.3138031, 41.1421501], [-81.3180143, 41.1422862], [-81.3196611, 41.1423283], [-81.3199771, 41.1423364], [-81.3203806, 41.1423467], [-81.320523, 41.1423504], [-81.3224177, 41.1423915], [-81.3227455, 41.1423995], [-81.3236979, 41.1424227], [-81.3240151, 41.1424304], [-81.3247568, 41.1424485], [-81.3251651, 41.1424585], [-81.326007, 41.142479], [-81.3263815, 41.1424881], [-81.3265461, 41.1424884], [-81.3265366, 41.1426063], [-81.3265252, 41.1427489], [-81.3265131, 41.1430365], [-81.3264556, 41.144649], [-81.3264512, 41.1447734], [-81.3266506, 41.1447809], [-81.328993, 41.1446021], [-81.3296407, 41.1441102], [-81.3317668, 41.1425371], [-81.3322952, 41.1425436], [-81.3330464, 41.1425529], [-81.3330318, 41.1428387], [-81.3330202, 41.1430662], [-81.3330074, 41.143317], [-81.3329916, 41.143626], [-81.3329893, 41.143671], [-81.3329663, 41.1441222], [-81.332966, 41.1441272], [-81.33296, 41.1443377], [-81.3329267, 41.1455007], [-81.3337074, 41.1451624], [-81.3338421, 41.1452853], [-81.3338525, 41.1452949], [-81.3338609, 41.1453025], [-81.3338618, 41.1453467], [-81.3338945, 41.1469507], [-81.3339015, 41.1472962], [-81.3351813, 41.1475715], [-81.3353979, 41.1481069], [-81.3356611, 41.14815], [-81.335873, 41.1481904], [-81.3359535, 41.1482449], [-81.3360912, 41.1481855], [-81.3362677, 41.1489527], [-81.336313, 41.149312], [-81.336317, 41.149926], [-81.3362777, 41.1505791], [-81.3362486, 41.1506899], [-81.3362442, 41.1507084], [-81.336226, 41.150784], [-81.336183, 41.151067], [-81.336171, 41.151239], [-81.336172, 41.151427], [-81.3361965, 41.1517116], [-81.3362382, 41.1520833], [-81.3380201, 41.1526102], [-81.3380741, 41.152308], [-81.3380955, 41.1518371], [-81.3389932, 41.151424], [-81.339058, 41.1514133], [-81.33906, 41.151464], [-81.3390565, 41.1516779], [-81.339053, 41.151894], [-81.339071, 41.152005], [-81.339097, 41.152068], [-81.3391458, 41.1521399], [-81.339184, 41.1522321], [-81.3392116, 41.1523346], [-81.3391812, 41.1524171], [-81.3391593, 41.1524996], [-81.339142, 41.15263], [-81.339121, 41.152682], [-81.339083, 41.152736], [-81.339014, 41.152801], [-81.3388333, 41.1529476], [-81.3388785, 41.1530185], [-81.3388978, 41.1531313], [-81.338909, 41.153597], [-81.3389535, 41.15359], [-81.3389812, 41.1536204], [-81.338998, 41.1536388], [-81.339061, 41.1536656], [-81.3391344, 41.1536755], [-81.3397404, 41.1536242], [-81.3403215, 41.1536082], [-81.340851, 41.1536066], [-81.3408937, 41.1536065], [-81.3411759, 41.1536057], [-81.3412975, 41.1536053], [-81.3431161, 41.1536217], [-81.3431843, 41.1535999], [-81.3435457, 41.1535998], [-81.3435539, 41.1536302], [-81.3435956, 41.1536318], [-81.3449294, 41.1536422], [-81.3452205, 41.1536445], [-81.3459444, 41.1536501], [-81.3464311, 41.1536457], [-81.3464624, 41.1536454], [-81.3477043, 41.1536341], [-81.3497535, 41.1536495], [-81.3497711, 41.1536495], [-81.3497883, 41.1536495], [-81.3511004, 41.1536682], [-81.3514839, 41.1536682], [-81.3517555, 41.1536712], [-81.3525065, 41.1536732]]]}}