{"type": "Feature", "properties": {"market_key": 2350, "university": "Miami University", "osm_type": "way", "osm_id": 183831887, "osm_name": "Miami University"}, "geometry": {"type": "Polygon", "coordinates": [[[-84.7375079, 39.5160384], [-84.7375204, 39.5163815], [-84.7364344, 39.5163751], [-84.7363791, 39.5152225], [-84.7360415, 39.515047], [-84.7352688, 39.5150378], [-84.7351485, 39.5150364], [-84.7346125, 39.5150507], [-84.7345912, 39.5149274], [-84.7346217, 39.5146226], [-84.7346263, 39.5144121], [-84.7346326, 39.5141592], [-84.734634, 39.5140916], [-84.7346386, 39.5138777], [-84.7346459, 39.5135348], [-84.734655, 39.5131121], [-84.7346574, 39.512996], [-84.7346666, 39.5125696], [-84.7346678, 39.5125126], [-84.7346794, 39.5119682], [-84.7346906, 39.5114435], [-84.7346921, 39.5113767], [-84.7346947, 39.5112462], [-84.7347029, 39.5108696], [-84.734711, 39.5104922], [-84.7347122, 39.5103965], [-84.7348447, 39.5103933], [-84.7349758, 39.5104003], [-84.7351615, 39.5103979], [-84.7353986, 39.5104002], [-84.735485, 39.5103745], [-84.7358476, 39.5103748], [-84.7360448, 39.5104065], [-84.7361333, 39.5104099], [-84.7361691, 39.5104086], [-84.7362826, 39.5105075], [-84.736249, 39.5114242], [-84.7370569, 39.5114319], [-84.7370839, 39.5104871], [-84.7370839, 39.510441], [-84.7370839, 39.5103963], [-84.737408, 39.5104001], [-84.7374952, 39.5104224], [-84.7375853, 39.5104233], [-84.7376588, 39.5104241], [-84.7377822, 39.5104239], [-84.7378908, 39.5104027], [-84.7383508, 39.5104048], [-84.738504, 39.5104274], [-84.7388108, 39.5104361], [-84.7391165, 39.5104396], [-84.7391466, 39.51044], [-84.7392352, 39.510441], [-84.7392388, 39.5103682], [-84.7392395, 39.5103533], [-84.7392459, 39.5100703], [-84.7392465, 39.5099298], [-84.7392554, 39.5093926], [-84.7392566, 39.5093082], [-84.7392627, 39.5088738], [-84.7392689, 39.5084312], [-84.73927, 39.5083508], [-84.7392733, 39.5081159], [-84.7392771, 39.5078453], [-84.7392789, 39.507717], [-84.7392835, 39.5073896], [-84.7392846, 39.5073107], [-84.7392866, 39.5072269], [-84.7393069, 39.5063816], [-84.7393122, 39.5061597], [-84.7393244, 39.5056532], [-84.7393263, 39.5055761], [-84.7393274, 39.5055298], [-84.7393368, 39.5051373], [-84.7393401, 39.5050019], [-84.7393425, 39.5048985], [-84.7393808, 39.5033072], [-84.7393876, 39.5030207], [-84.7393933, 39.5027852], [-84.7393996, 39.5025244], [-84.739417, 39.5017969], [-84.7394197, 39.5016847], [-84.7394234, 39.5015337], [-84.7394314, 39.5011983], [-84.7394391, 39.5008782], [-84.7394449, 39.5006053], [-84.7394464, 39.5005363], [-84.7393671, 39.5005353], [-84.7388267, 39.5005278], [-84.7383619, 39.5005214], [-84.7371378, 39.5005045], [-84.7363279, 39.5004934], [-84.7363263, 39.5005617], [-84.7363123, 39.5011692], [-84.7363037, 39.5015457], [-84.7354554, 39.5015429], [-84.7354583, 39.5011195], [-84.7350103, 39.5011159], [-84.7350284, 39.5005398], [-84.7341191, 39.5005332], [-84.7341041, 39.5015272], [-84.7331978, 39.5015123], [-84.7332122, 39.5005188], [-84.7330066, 39.5005176], [-84.7313392, 39.5004884], [-84.7313479, 39.5002303], [-84.731351, 39.5001375], [-84.731359, 39.4997898], [-84.7316299, 39.4997981], [-84.7316299, 39.4996657], [-84.7325922, 39.4996698], [-84.7326223, 39.4994835], [-84.7323809, 39.4990468], [-84.7323317, 39.4990445], [-84.7316648, 39.4990137], [-84.7314502, 39.4993283], [-84.7308708, 39.4994562], [-84.7303001, 39.4996818], [-84.7301711, 39.4997328], [-84.7303193, 39.4999266], [-84.7304585, 39.5001495], [-84.7306017, 39.5004381], [-84.7304416, 39.5004194], [-84.7301204, 39.4999092], [-84.7295414, 39.4991743], [-84.7291406, 39.4986417], [-84.7287649, 39.4981425], [-84.7276152, 39.4980952], [-84.7273935, 39.4978993], [-84.727931, 39.4970938], [-84.726809, 39.4956643], [-84.7259365, 39.4959667], [-84.7249033, 39.4968857], [-84.724175, 39.4970994], [-84.723793, 39.4963381], [-84.7206629, 39.4967552], [-84.7200639, 39.4967312], [-84.7200579, 39.4963746], [-84.7192396, 39.4963696], [-84.7190192, 39.4968364], [-84.7188217, 39.4971594], [-84.7188336, 39.4982838], [-84.7189879, 39.4987258], [-84.7190093, 39.499057], [-84.718945, 39.4994626], [-84.7187542, 39.499924], [-84.7184968, 39.500578], [-84.718427, 39.5010374], [-84.7183948, 39.5014555], [-84.7182339, 39.5021095], [-84.7180515, 39.5026393], [-84.7178852, 39.5030615], [-84.717676, 39.5034588], [-84.71744, 39.5042701], [-84.7174078, 39.5046592], [-84.7174775, 39.5050482], [-84.7174561, 39.506083], [-84.7173792, 39.506345], [-84.7172069, 39.506673], [-84.7170902, 39.5071448], [-84.7170727, 39.5075484], [-84.7171077, 39.5080492], [-84.7171435, 39.5082182], [-84.7174618, 39.5085335], [-84.7178516, 39.5087925], [-84.7180191, 39.5091174], [-84.71835, 39.5094222], [-84.7188014, 39.5096236], [-84.7190917, 39.5096961], [-84.7195412, 39.5097349], [-84.7198159, 39.5098533], [-84.7201815, 39.5097844], [-84.7203968, 39.5096389], [-84.7207859, 39.5093761], [-84.7212785, 39.5092894], [-84.7216231, 39.5093206], [-84.72195, 39.5093719], [-84.722221, 39.5094537], [-84.7224536, 39.5094632], [-84.7226425, 39.5094058], [-84.722801, 39.5093897], [-84.7230481, 39.5094174], [-84.7232953, 39.5095149], [-84.7234543, 39.5096577], [-84.7237665, 39.5100377], [-84.723939, 39.5105308], [-84.7239513, 39.5111332], [-84.7240117, 39.5116117], [-84.7242084, 39.5120558], [-84.7247314, 39.5127222], [-84.7256139, 39.5138996], [-84.7263339, 39.5145133], [-84.7268671, 39.5151564], [-84.7281513, 39.5162253], [-84.7289397, 39.517058], [-84.7291169, 39.5173841], [-84.7292885, 39.5184269], [-84.7298521, 39.5192929], [-84.7299123, 39.5194354], [-84.7304472, 39.5207765], [-84.7342999, 39.5231533], [-84.7343481, 39.5231782], [-84.7355539, 39.5217878], [-84.7358382, 39.5214608], [-84.7360541, 39.5212539], [-84.7362405, 39.5210905], [-84.7365362, 39.520868], [-84.7367699, 39.5207257], [-84.7369499, 39.520633], [-84.737191, 39.5205089], [-84.7376502, 39.5203357], [-84.7357899, 39.5190925], [-84.7357947, 39.5188356], [-84.7381918, 39.5189175], [-84.7382046, 39.5185561], [-84.73826, 39.5170071], [-84.7382799, 39.5164513], [-84.7382949, 39.5160531], [-84.7376001, 39.5160401], [-84.7375079, 39.5160384]]]}}