{"type": "Feature", "properties": {"market_key": 2354, "university": "University of Cincinnati", "osm_type": "way", "osm_id": 225009998, "osm_name": "University of Cincinnati Uptown (West) Campus"}, "geometry": {"type": "Polygon", "coordinates": [[[-84.5108968, 39.1354038], [-84.5111007, 39.1354465], [-84.5117791, 39.1354907], [-84.5119485, 39.1355463], [-84.5120416, 39.1355479], [-84.5121023, 39.1355567], [-84.5121741, 39.1355625], [-84.5123298, 39.1355721], [-84.5129282, 39.1356147], [-84.5130331, 39.1356212], [-84.5131609, 39.1356294], [-84.5134026, 39.1356462], [-84.5135678, 39.1356563], [-84.513854, 39.135678], [-84.5138889, 39.135678], [-84.5139491, 39.135678], [-84.5140395, 39.1356917], [-84.5140988, 39.1356911], [-84.5143728, 39.1357166], [-84.5147272, 39.1357294], [-84.514957, 39.135735], [-84.515102, 39.135715], [-84.5152111, 39.135696], [-84.5154224, 39.1356469], [-84.515592, 39.135581], [-84.516382, 39.135236], [-84.516547, 39.135182], [-84.516719, 39.135143], [-84.517003, 39.135109], [-84.517187, 39.135108], [-84.517745, 39.1351521], [-84.5192922, 39.1352723], [-84.5195898, 39.1352954], [-84.5200364, 39.135328], [-84.52005, 39.1352305], [-84.520065, 39.1351252], [-84.520092, 39.1349311], [-84.5201012, 39.1348516], [-84.5201199, 39.1346688], [-84.5201396, 39.1344799], [-84.5201701, 39.1342135], [-84.5201839, 39.1340793], [-84.5201947, 39.1339752], [-84.5202172, 39.1337575], [-84.5202302, 39.133632], [-84.5202344, 39.1335917], [-84.5202385, 39.1335514], [-84.5202397, 39.1335391], [-84.5202425, 39.1335117], [-84.5202485, 39.1334475], [-84.520261, 39.133332], [-84.5202909, 39.1329657], [-84.5202969, 39.132891], [-84.5203208, 39.132617], [-84.5203365, 39.1324597], [-84.5203364, 39.1324352], [-84.5203952, 39.131951], [-84.5204088, 39.1318472], [-84.5204223, 39.1317434], [-84.5203739, 39.1316477], [-84.5204147, 39.1312568], [-84.5204555, 39.1308724], [-84.5205083, 39.1308058], [-84.5205183, 39.1306935], [-84.5205456, 39.1303858], [-84.5205935, 39.1299245], [-84.5206123, 39.1297713], [-84.5206234, 39.1296774], [-84.5206308, 39.129603], [-84.5206418, 39.1294866], [-84.5206704, 39.1291853], [-84.5206794, 39.1291007], [-84.5206901, 39.1289999], [-84.5206991, 39.1289147], [-84.5207092, 39.1288191], [-84.5207331, 39.1285936], [-84.5198411, 39.1285409], [-84.5196962, 39.128531], [-84.5191327, 39.1284922], [-84.5188323, 39.1284703], [-84.5186224, 39.1284542], [-84.5185174, 39.1284473], [-84.5183646, 39.1284373], [-84.5182019, 39.1284266], [-84.5181256, 39.1284216], [-84.5175709, 39.1283851], [-84.5166476, 39.1283244], [-84.5165613, 39.1283188], [-84.5164779, 39.1283114], [-84.5146649, 39.1281877], [-84.5145601, 39.1281803], [-84.5137219, 39.1281217], [-84.5137129, 39.1282051], [-84.513711, 39.128222], [-84.5136784, 39.1285206], [-84.5136489, 39.1287661], [-84.5129746, 39.1287228], [-84.5124424, 39.1286859], [-84.5119969, 39.1286533], [-84.5120024, 39.1286811], [-84.5120084, 39.1287144], [-84.5117705, 39.128696], [-84.5117577, 39.1287983], [-84.5118839, 39.1288075], [-84.5118455, 39.1291703], [-84.5118278, 39.1293074], [-84.5117069, 39.1292976], [-84.5114076, 39.1292139], [-84.511273, 39.130493], [-84.511126, 39.131754], [-84.5111266, 39.1317716], [-84.5110896, 39.1321174], [-84.51106, 39.132413], [-84.5110385, 39.1326342], [-84.5110384, 39.1326462], [-84.5110111, 39.1329561], [-84.511006, 39.133015], [-84.5110057, 39.1330277], [-84.5109963, 39.1330926], [-84.5109864, 39.1331748], [-84.5109569, 39.1334159], [-84.510884, 39.134012], [-84.5109851, 39.1341415], [-84.5108606, 39.1345804], [-84.5106852, 39.1351927], [-84.5106943, 39.1352613], [-84.5107425, 39.1353292], [-84.5107775, 39.1353529], [-84.5108191, 39.1353746], [-84.5108968, 39.1354038]]]}}