{"type": "Feature", "properties": {"market_key": 2362, "university": "Kutztown University of Pennsylvania", "osm_type": "way", "osm_id": 28942586, "osm_name": "Kutztown University of Pennsylvania"}, "geometry": {"type": "Polygon", "coordinates": [[[-75.7857653, 40.5169184], [-75.7863865, 40.5166851], [-75.78752, 40.5162595], [-75.7876659, 40.5162073], [-75.787726, 40.5161681], [-75.7877517, 40.5161224], [-75.7877517, 40.5160768], [-75.7877174, 40.5160311], [-75.7874685, 40.5157244], [-75.7873483, 40.5155547], [-75.7872968, 40.5154699], [-75.7872882, 40.5154047], [-75.7872882, 40.5153525], [-75.7892779, 40.5146153], [-75.7899094, 40.5143813], [-75.7899781, 40.5143747], [-75.7900382, 40.5143943], [-75.7900897, 40.5144335], [-75.7902528, 40.5146097], [-75.7908278, 40.5141659], [-75.7895575, 40.5132328], [-75.7877894, 40.5119865], [-75.7855373, 40.5103606], [-75.7850223, 40.5100343], [-75.7849193, 40.5099625], [-75.7848249, 40.5098907], [-75.784782, 40.5098385], [-75.7846961, 40.5097733], [-75.7846189, 40.509708], [-75.7843066, 40.5095561], [-75.78448, 40.509371], [-75.7847028, 40.5091319], [-75.7845279, 40.5090434], [-75.7844506, 40.5089977], [-75.7843905, 40.5089521], [-75.784339, 40.5088999], [-75.7840644, 40.5085475], [-75.783887, 40.5083373], [-75.7831116, 40.5074185], [-75.7829179, 40.5071861], [-75.7828885, 40.5071509], [-75.7827179, 40.506879], [-75.7828896, 40.506794], [-75.7852476, 40.5056259], [-75.785288, 40.5056059], [-75.7850557, 40.5052282], [-75.7832061, 40.5057935], [-75.7827941, 40.5050691], [-75.7816182, 40.5054933], [-75.7815513, 40.5053753], [-75.7808715, 40.5041751], [-75.77979, 40.5046384], [-75.7792664, 40.5036464], [-75.7786399, 40.5027523], [-75.778252, 40.50289], [-75.778154, 40.502942], [-75.7776232, 40.5031825], [-75.7774511, 40.5032605], [-75.7774108, 40.5032788], [-75.7783395, 40.5048277], [-75.7772837, 40.5052584], [-75.7777558, 40.505911], [-75.7782021, 40.5058588], [-75.7786399, 40.5065114], [-75.7792064, 40.5064592], [-75.7794038, 40.5069943], [-75.7788647, 40.5071992], [-75.7786313, 40.507288], [-75.7787171, 40.5076534], [-75.7764471, 40.5083112], [-75.7765133, 40.5084399], [-75.7767635, 40.5089263], [-75.777017, 40.509419], [-75.7772968, 40.5099099], [-75.7773896, 40.5100573], [-75.7775011, 40.5102369], [-75.777578, 40.5103817], [-75.778239, 40.511445], [-75.778945, 40.512585], [-75.779564, 40.512356], [-75.7800785, 40.5121601], [-75.7803149, 40.5120701], [-75.780449, 40.512019], [-75.780879, 40.511861], [-75.781005, 40.511825], [-75.78109, 40.511822], [-75.781179, 40.5118583], [-75.781256, 40.511905], [-75.7816597, 40.5123439], [-75.7817065, 40.5123948], [-75.781768, 40.5124628], [-75.78213, 40.512863], [-75.7822345, 40.5129555], [-75.782508, 40.513285], [-75.782932, 40.513754], [-75.783112, 40.513955], [-75.7833834, 40.5142582], [-75.7834954, 40.5143833], [-75.78365, 40.5145559], [-75.7838134, 40.5147384], [-75.7838621, 40.5147928], [-75.7841235, 40.5150848], [-75.7853587, 40.5164643], [-75.7857653, 40.5169184]]]}}