{"type": "Feature", "properties": {"market_key": 2364, "university": "Villanova University", "osm_type": "way", "osm_id": 68730290, "osm_name": "Villanova University"}, "geometry": {"type": "Polygon", "coordinates": [[[-75.3440645, 40.0437738], [-75.3457726, 40.0440761], [-75.3502473, 40.0426377], [-75.347886, 40.0414453], [-75.3457617, 40.0403811], [-75.3445773, 40.0398035], [-75.342753, 40.0389084], [-75.3437127, 40.038402], [-75.3444339, 40.0380558], [-75.3450519, 40.0377535], [-75.3461807, 40.0372696], [-75.3466367, 40.0370893], [-75.3480704, 40.0364776], [-75.3480988, 40.0364655], [-75.3481501, 40.0361807], [-75.3480353, 40.036167], [-75.3475203, 40.0360816], [-75.3476233, 40.035661], [-75.3479754, 40.035713], [-75.3491542, 40.0358455], [-75.3491812, 40.0357708], [-75.3491888, 40.035722], [-75.349192, 40.0356731], [-75.3492018, 40.0356209], [-75.3492212, 40.0355753], [-75.3492504, 40.0355206], [-75.3492905, 40.0354743], [-75.3493586, 40.035403], [-75.3496259, 40.0351346], [-75.3496778, 40.0350716], [-75.34972, 40.0350037], [-75.3497712, 40.0348296], [-75.3495643, 40.0348019], [-75.3441249, 40.0340437], [-75.3441235, 40.0339592], [-75.3441587, 40.0338147], [-75.3437512, 40.0337517], [-75.3438241, 40.0333735], [-75.34381, 40.0333555], [-75.3437899, 40.0333298], [-75.3428187, 40.0320902], [-75.344014, 40.0315553], [-75.3426665, 40.0296232], [-75.3392225, 40.0311173], [-75.3369911, 40.0320518], [-75.3368795, 40.0321044], [-75.3363253, 40.0317039], [-75.3341309, 40.0333824], [-75.3348701, 40.0339037], [-75.3356104, 40.0344787], [-75.3361951, 40.0351318], [-75.3359437, 40.0358203], [-75.3393889, 40.0403054], [-75.339438, 40.040373], [-75.3399615, 40.041094], [-75.3403043, 40.0415115], [-75.3405705, 40.0418356], [-75.340677, 40.0419653], [-75.3415106, 40.0429804], [-75.3423849, 40.0440449], [-75.3436366, 40.043765], [-75.3440645, 40.0437738]]]}}