{"type": "Feature", "properties": {"market_key": 2369, "university": "Indiana University of Pennsylvania", "osm_type": "relation", "osm_id": 19616460, "osm_name": "Indiana University of Pennsylvania"}, "geometry": {"type": "MultiPolygon", "coordinates": [[[[-79.1607339, 40.6183644], [-79.1609596, 40.6182424], [-79.1617197, 40.6178522], [-79.1622834, 40.6175548], [-79.1623084, 40.6175115], [-79.1622984, 40.6174748], [-79.1621809, 40.6173302], [-79.1621525, 40.617273], [-79.1621498, 40.6166072], [-79.1621532, 40.6159561], [-79.1634922, 40.6159565], [-79.1635046, 40.6153037], [-79.1644175, 40.6152987], [-79.1653504, 40.6153079], [-79.165355, 40.6158769], [-79.1658009, 40.6156266], [-79.1658471, 40.6155843], [-79.1658645, 40.6155404], [-79.1658459, 40.6154917], [-79.1657943, 40.6154471], [-79.1657281, 40.615422], [-79.1656502, 40.61542], [-79.1656472, 40.6152933], [-79.1658104, 40.6151086], [-79.1659643, 40.6148955], [-79.1660113, 40.6147617], [-79.1660429, 40.6143311], [-79.1657484, 40.6142603], [-79.1649164, 40.6142263], [-79.1649288, 40.6136725], [-79.1649358, 40.6132987], [-79.1649378, 40.6132114], [-79.1649131, 40.61313], [-79.1648524, 40.6130497], [-79.1647838, 40.6129789], [-79.1641297, 40.6122697], [-79.1641051, 40.6122188], [-79.1640967, 40.6121512], [-79.1641131, 40.6118284], [-79.1641597, 40.6107803], [-79.1641852, 40.6106319], [-79.1642382, 40.6105044], [-79.1643677, 40.6103593], [-79.1646831, 40.6103859], [-79.1649364, 40.6104053], [-79.1660342, 40.6103507], [-79.1661886, 40.6103964], [-79.1662627, 40.6104851], [-79.1662742, 40.6107736], [-79.1663256, 40.6108203], [-79.1667171, 40.6110293], [-79.1673642, 40.6113278], [-79.167464, 40.6112786], [-79.1675635, 40.6104364], [-79.1681057, 40.6103864], [-79.1683402, 40.6083418], [-79.1684335, 40.6081846], [-79.168154, 40.6081005], [-79.1679095, 40.6080804], [-79.1668783, 40.6080321], [-79.1646534, 40.6079026], [-79.1638246, 40.6077998], [-79.1634507, 40.6080459], [-79.1630214, 40.6083062], [-79.1627, 40.6087529], [-79.1625659, 40.6089029], [-79.1624619, 40.6089234], [-79.1623545, 40.608904], [-79.162284, 40.6088752], [-79.1618291, 40.6086511], [-79.1602068, 40.6104352], [-79.1597415, 40.6109558], [-79.1593671, 40.6113833], [-79.159018, 40.6117452], [-79.1583254, 40.612508], [-79.1569456, 40.6140132], [-79.1569332, 40.6140537], [-79.156938, 40.6141108], [-79.1569739, 40.6141552], [-79.1573354, 40.614335], [-79.1576956, 40.614555], [-79.1572763, 40.6150621], [-79.1562362, 40.6163336], [-79.1557516, 40.6169278], [-79.1553978, 40.6175061], [-79.1553364, 40.6176254], [-79.155319, 40.6176821], [-79.1553151, 40.6177572], [-79.1553315, 40.6182552], [-79.1549602, 40.6182616], [-79.1549147, 40.6183108], [-79.1548686, 40.6185931], [-79.1541764, 40.6185795], [-79.1540979, 40.6185785], [-79.1540983, 40.6185485], [-79.154101, 40.6183346], [-79.1541017, 40.6182839], [-79.1533921, 40.6182928], [-79.1533863, 40.6190733], [-79.154172, 40.6190795], [-79.1541549, 40.6196714], [-79.1541487, 40.6198814], [-79.1546423, 40.6198969], [-79.1546042, 40.6202755], [-79.1545953, 40.620352], [-79.1546221, 40.6205606], [-79.1551638, 40.620558], [-79.1560626, 40.6205049], [-79.1569051, 40.6204634], [-79.1575611, 40.6199237], [-79.1578068, 40.6197411], [-79.1579999, 40.6196185], [-79.1584274, 40.6194211], [-79.1584325, 40.6197667], [-79.1584183, 40.6204694], [-79.1606844, 40.6205054], [-79.1606981, 40.6199121], [-79.1596098, 40.6198942], [-79.1596069, 40.6191786], [-79.1607134, 40.6191824], [-79.1607339, 40.6183644]]], [[[-79.1712829, 40.608961], [-79.171021, 40.6090208], [-79.169654, 40.6093088], [-79.1692276, 40.6083423], [-79.1682786, 40.60794], [-79.168143, 40.6039865], [-79.1715075, 40.6039865], [-79.1712829, 40.608961]]]]}}