{"type": "Feature", "properties": {"market_key": 2375, "university": "Penn State", "osm_type": "relation", "osm_id": 14073946, "osm_name": "Pennsylvania State University"}, "geometry": {"type": "MultiPolygon", "coordinates": [[[[-77.8502407, 40.8017784], [-77.8502209, 40.8016443], [-77.8501619, 40.8014982], [-77.8500921, 40.8013479], [-77.8499902, 40.8011692], [-77.8498346, 40.8008667], [-77.8496952, 40.8007063], [-77.8495342, 40.8005459], [-77.8494618, 40.8005114], [-77.8493948, 40.8004952], [-77.8493197, 40.8004099], [-77.8493465, 40.8003875], [-77.8493438, 40.8003591], [-77.8492741, 40.8002901], [-77.8491413, 40.8001987], [-77.8488677, 40.8003591], [-77.8480483, 40.8001794], [-77.8479826, 40.8002342], [-77.8475856, 40.8001693], [-77.8475481, 40.8002007], [-77.8474636, 40.8001794], [-77.8440277, 40.8029905], [-77.8432203, 40.8024859], [-77.8406239, 40.8048116], [-77.8405918, 40.8055385], [-77.8408466, 40.8058938], [-77.8416217, 40.8056055], [-77.8414647, 40.8053463], [-77.8419892, 40.8047913], [-77.8425176, 40.8052725], [-77.842526, 40.8052885], [-77.8432438, 40.805028], [-77.8447827, 40.8044611], [-77.8463153, 40.8038989], [-77.8474733, 40.8034725], [-77.8485496, 40.8030771], [-77.8493265, 40.8027371], [-77.8497198, 40.8025352], [-77.8499689, 40.8023711], [-77.8501015, 40.8022291], [-77.8501889, 40.8020528], [-77.8502438, 40.8018716], [-77.8502407, 40.8017784]]], [[[-77.8641642, 40.7924083], [-77.8639682, 40.7922504], [-77.8637724, 40.7920998], [-77.8637306, 40.7920676], [-77.8639484, 40.7919183], [-77.8636024, 40.7916421], [-77.8633586, 40.7918227], [-77.8633021, 40.7917812], [-77.8629862, 40.7915396], [-77.8629539, 40.7915161], [-77.8622399, 40.7920503], [-77.86227, 40.7920757], [-77.8625731, 40.7923314], [-77.8625936, 40.7923486], [-77.862475, 40.792438], [-77.8627115, 40.7926156], [-77.8628508, 40.7925079], [-77.8630739, 40.7923418], [-77.863181, 40.7922584], [-77.8632837, 40.7921689], [-77.8638733, 40.7926188], [-77.8639106, 40.792647], [-77.8641932, 40.7924313], [-77.8641642, 40.7924083]]], [[[-77.8662677, 40.7944991], [-77.8659197, 40.7942212], [-77.8653835, 40.7938149], [-77.8648579, 40.7934278], [-77.8643162, 40.7930661], [-77.8639663, 40.7928192], [-77.8639314, 40.7928012], [-77.8638817, 40.7927952], [-77.8638111, 40.7928393], [-77.8629536, 40.793511], [-77.8619055, 40.7942989], [-77.8611444, 40.7948537], [-77.8602172, 40.7955725], [-77.8592597, 40.7962894], [-77.8581933, 40.7970846], [-77.8573734, 40.7976992], [-77.8569491, 40.7980245], [-77.8564047, 40.7984463], [-77.855808, 40.7988957], [-77.8552098, 40.7993419], [-77.8549684, 40.7995307], [-77.8540243, 40.8002799], [-77.8536327, 40.8005825], [-77.8529702, 40.801086], [-77.85249, 40.8014515], [-77.8517263, 40.8019588], [-77.8508848, 40.8024079], [-77.8512298, 40.8029557], [-77.851701, 40.8037536], [-77.8521916, 40.804578], [-77.8524288, 40.8048582], [-77.8525925, 40.8050592], [-77.8526622, 40.8051505], [-77.8527051, 40.8052419], [-77.8528017, 40.8053454], [-77.8530189, 40.8055647], [-77.8533596, 40.8058652], [-77.8536975, 40.8061169], [-77.8539067, 40.8062529], [-77.8544298, 40.8065534], [-77.8547302, 40.8067057], [-77.8554356, 40.8070244], [-77.8560606, 40.8073147], [-77.8575519, 40.8080537], [-77.8579771, 40.8082588], [-77.8587692, 40.8086367], [-77.86037, 40.8093945], [-77.861402, 40.80988], [-77.8617534, 40.8100193], [-77.8618733, 40.8100536], [-77.8619579, 40.8100565], [-77.8620719, 40.8100149], [-77.8621402, 40.809946], [-77.8623603, 40.8096205], [-77.8625677, 40.8093467], [-77.8626967, 40.8091189], [-77.8630432, 40.8084909], [-77.8635061, 40.8076696], [-77.8636882, 40.8073345], [-77.8638678, 40.8070014], [-77.8640929, 40.8065936], [-77.8644449, 40.8060191], [-77.8646444, 40.8057384], [-77.8647236, 40.8056296], [-77.864879, 40.8054321], [-77.8655154, 40.8046862], [-77.8659935, 40.8041268], [-77.8664632, 40.8036102], [-77.8665735, 40.8034756], [-77.8666623, 40.8033673], [-77.8672658, 40.8026811], [-77.8681245, 40.8017032], [-77.8682153, 40.8016476], [-77.8682555, 40.801607], [-77.8686361, 40.8011621], [-77.8692483, 40.8004464], [-77.869433, 40.8002365], [-77.8696219, 40.8000206], [-77.8698354, 40.7997898], [-77.8705058, 40.7990312], [-77.8713121, 40.79808], [-77.8715461, 40.7978091], [-77.8718957, 40.7973743], [-77.872244, 40.7969756], [-77.8722788, 40.7968964], [-77.8722685, 40.7968281], [-77.8722551, 40.7967977], [-77.872167, 40.7967382], [-77.8715087, 40.7963759], [-77.8711628, 40.796165], [-77.8709696, 40.7960256], [-77.8702831, 40.7956167], [-77.8699196, 40.7953907], [-77.8695451, 40.7951058], [-77.8692632, 40.7948531], [-77.8689503, 40.7945011], [-77.8683666, 40.7938275], [-77.8680951, 40.793535], [-77.8679023, 40.7933637], [-77.867639, 40.7931728], [-77.8670512, 40.7928233], [-77.8661894, 40.7923175], [-77.8654943, 40.7919263], [-77.8654385, 40.7919103], [-77.8653761, 40.7918983], [-77.8652698, 40.7918996], [-77.8651839, 40.7919118], [-77.865061, 40.791954], [-77.8649933, 40.7919954], [-77.8640615, 40.7926779], [-77.8640289, 40.7927188], [-77.8640296, 40.792739], [-77.8640531, 40.7927637], [-77.8647912, 40.7932795], [-77.8652578, 40.7935897], [-77.865417, 40.7937168], [-77.8658977, 40.7933545], [-77.8666514, 40.7939383], [-77.8665629, 40.7940277], [-77.8664636, 40.7940916], [-77.8663469, 40.7941404], [-77.8662088, 40.7941749], [-77.8661176, 40.7941861], [-77.8660694, 40.7942254], [-77.8670301, 40.7949583], [-77.8674869, 40.7946221], [-77.8684451, 40.7953486], [-77.8679027, 40.7957556], [-77.8670058, 40.7950681], [-77.8664341, 40.7954902], [-77.8659796, 40.7951285], [-77.8661067, 40.7950535], [-77.8664686, 40.7947782], [-77.8664893, 40.7947324], [-77.8664893, 40.7946891], [-77.8664547, 40.7946445], [-77.8662677, 40.7944991]]], [[[-77.8723919, 40.7966637], [-77.8724214, 40.7966759], [-77.8724643, 40.796688], [-77.8724961, 40.7966811], [-77.8725269, 40.7966669], [-77.8726988, 40.7965104], [-77.8768162, 40.791635], [-77.8769342, 40.7914736], [-77.8774693, 40.7908105], [-77.8776775, 40.7906065], [-77.8782595, 40.791002], [-77.8785464, 40.7913858], [-77.8794383, 40.7913768], [-77.8795285, 40.7913981], [-77.8903712, 40.7913797], [-77.8902515, 40.7920129], [-77.8918053, 40.7914297], [-77.8918368, 40.7911095], [-77.8918409, 40.7909179], [-77.8918387, 40.7907454], [-77.8918294, 40.7905668], [-77.8918133, 40.7904307], [-77.8918016, 40.7903358], [-77.8917567, 40.790067], [-77.8917104, 40.789865], [-77.891667, 40.789704], [-77.8916115, 40.7895418], [-77.8915762, 40.7894479], [-77.891529, 40.7893221], [-77.8914583, 40.7891605], [-77.8913064, 40.7888623], [-77.8911435, 40.7885847], [-77.8910343, 40.7884177], [-77.8908175, 40.7881273], [-77.8905242, 40.7877908], [-77.8899648, 40.7872145], [-77.8894332, 40.7866688], [-77.8890239, 40.7862412], [-77.8883365, 40.7855284], [-77.8879334, 40.7851105], [-77.8875412, 40.7847041], [-77.8872057, 40.7843582], [-77.8867669, 40.7839029], [-77.8864946, 40.7836254], [-77.8863133, 40.7834559], [-77.8861504, 40.7833307], [-77.8859081, 40.7831516], [-77.8856326, 40.7829827], [-77.8854283, 40.7828753], [-77.8852032, 40.7827671], [-77.8849351, 40.7826547], [-77.8844808, 40.7824797], [-77.8841499, 40.7823493], [-77.8834713, 40.7820856], [-77.8830477, 40.7819197], [-77.8827892, 40.7818132], [-77.882574, 40.7817141], [-77.8823943, 40.781627], [-77.8821844, 40.7815091], [-77.8820755, 40.78144], [-77.8820222, 40.7814094], [-77.8819927, 40.7813984], [-77.8819599, 40.7813903], [-77.8816817, 40.781227], [-77.8816572, 40.7811929], [-77.8816068, 40.7811504], [-77.8813336, 40.7809115], [-77.8811008, 40.7806796], [-77.8810031, 40.7805378], [-77.8805447, 40.7800915], [-77.8802967, 40.7798598], [-77.88025, 40.7798386], [-77.8801992, 40.7798257], [-77.8801514, 40.7798241], [-77.8800924, 40.7798362], [-77.8800235, 40.7798783], [-77.8791955, 40.7805736], [-77.8790576, 40.7806488], [-77.8774649, 40.7819816], [-77.8773505, 40.7820594], [-77.8758931, 40.78329], [-77.875915, 40.7833026], [-77.8764537, 40.7836692], [-77.8755546, 40.7843638], [-77.8755435, 40.7849842], [-77.8755166, 40.7850708], [-77.8752541, 40.7847555], [-77.8749652, 40.7849837], [-77.8747786, 40.7851312], [-77.8745279, 40.7853292], [-77.8744099, 40.7854211], [-77.8740617, 40.7857237], [-77.8740183, 40.7856961], [-77.8735021, 40.7853688], [-77.8734744, 40.7853513], [-77.8722857, 40.7863352], [-77.8722633, 40.7863606], [-77.8722609, 40.7863783], [-77.8722631, 40.7863967], [-77.8722916, 40.7864257], [-77.8725825, 40.7866335], [-77.8724865, 40.7867093], [-77.8723259, 40.7868361], [-77.872522, 40.7869922], [-77.8727713, 40.786772], [-77.8731925, 40.7870802], [-77.8732326, 40.7870987], [-77.873261, 40.7871015], [-77.8732873, 40.7870925], [-77.8736558, 40.7867944], [-77.8732084, 40.7864844], [-77.8731704, 40.7864487], [-77.8735708, 40.786114], [-77.8736374, 40.7861621], [-77.873559, 40.7862198], [-77.8739977, 40.7865489], [-77.8740392, 40.7865742], [-77.8739998, 40.78661], [-77.8746526, 40.787189], [-77.8737078, 40.7876056], [-77.8736274, 40.7875388], [-77.8733459, 40.7875996], [-77.8725445, 40.7870202], [-77.8722065, 40.7872799], [-77.8721752, 40.7872553], [-77.8716814, 40.7868666], [-77.8716508, 40.7868425], [-77.871138, 40.7872441], [-77.8711264, 40.7872559], [-77.8711196, 40.7872717], [-77.8711268, 40.7872835], [-77.8716952, 40.7877035], [-77.8711568, 40.7881213], [-77.8720345, 40.7887859], [-77.8702842, 40.7901112], [-77.8701758, 40.7900446], [-77.8696705, 40.7904204], [-77.8690302, 40.7908965], [-77.8684808, 40.791307], [-77.868445, 40.7913338], [-77.8679845, 40.7916731], [-77.8678622, 40.7917641], [-77.8672137, 40.7913669], [-77.8671836, 40.7913885], [-77.866685, 40.7917466], [-77.8666336, 40.7917805], [-77.8663436, 40.7916126], [-77.8658676, 40.7919884], [-77.8659214, 40.792021], [-77.8663308, 40.7922516], [-77.8667661, 40.7924874], [-77.8670803, 40.7926543], [-77.8672109, 40.7927315], [-77.867611, 40.7929642], [-77.8678716, 40.7931428], [-77.8680828, 40.7933095], [-77.8682693, 40.793466], [-77.8686017, 40.793818], [-77.8688354, 40.794102], [-77.8690735, 40.7943844], [-77.8693835, 40.7946939], [-77.8695992, 40.7948997], [-77.8697654, 40.7950426], [-77.870035, 40.7952364], [-77.8701833, 40.7953436], [-77.8703046, 40.7954439], [-77.8703787, 40.7955001], [-77.8706371, 40.7956463], [-77.8710797, 40.7959116], [-77.8716682, 40.796245], [-77.8720479, 40.7964678], [-77.8723355, 40.7966344], [-77.8723919, 40.7966637]]], [[[-77.8336281, 40.8118268], [-77.8330433, 40.811589], [-77.832231, 40.8112587], [-77.8311742, 40.8119611], [-77.8295703, 40.8115449], [-77.8294093, 40.8116383], [-77.8293611, 40.8117236], [-77.8305694, 40.8129761], [-77.8309409, 40.8133821], [-77.831134, 40.8136825], [-77.8315994, 40.8143159], [-77.8318649, 40.8146752], [-77.8319789, 40.8148132], [-77.8321519, 40.8150162], [-77.8324456, 40.8153238], [-77.8327916, 40.8156831], [-77.833312, 40.8162393], [-77.8339088, 40.8169589], [-77.834067, 40.8171446], [-77.8341743, 40.8173446], [-77.8341636, 40.817443], [-77.8343485, 40.8176079], [-77.8359689, 40.8163814], [-77.8360517, 40.8162944], [-77.8361041, 40.8162138], [-77.8361295, 40.8161382], [-77.836138, 40.8160474], [-77.8361413, 40.8159386], [-77.8361227, 40.8155751], [-77.8361244, 40.815419], [-77.8361329, 40.8152898], [-77.8361566, 40.8151861], [-77.8361955, 40.8150965], [-77.8362513, 40.8150133], [-77.8363341, 40.8149378], [-77.8364559, 40.8148559], [-77.8366419, 40.8147638], [-77.8368001, 40.8146957], [-77.837503, 40.8144234], [-77.8380786, 40.8141981], [-77.8382233, 40.8141318], [-77.8383821, 40.8140479], [-77.8385432, 40.8139418], [-77.8386635, 40.8138517], [-77.8387639, 40.8137527], [-77.8388188, 40.8136564], [-77.8388421, 40.8136087], [-77.8388386, 40.8134735], [-77.8387861, 40.813136], [-77.8387254, 40.8127631], [-77.8386565, 40.8124185], [-77.8385923, 40.812103], [-77.8384353, 40.8113656], [-77.836994, 40.8115932], [-77.8370967, 40.8127525], [-77.8361676, 40.8129204], [-77.8358481, 40.8128059], [-77.8336281, 40.8118268]]], [[[-77.8378588, 40.810372], [-77.8378819, 40.81039], [-77.8397722, 40.8100023], [-77.8399506, 40.809978], [-77.8419693, 40.8097024], [-77.8430082, 40.8145061], [-77.8398597, 40.8147966], [-77.8400871, 40.8155295], [-77.8401395, 40.8156985], [-77.8404719, 40.8158026], [-77.8409734, 40.8159291], [-77.8412812, 40.8159841], [-77.8421684, 40.816134], [-77.8428358, 40.8162404], [-77.84354, 40.8163533], [-77.8443252, 40.8164801], [-77.8449926, 40.8165757], [-77.8455832, 40.8166617], [-77.8462662, 40.8167562], [-77.8468782, 40.8168433], [-77.8473496, 40.8169196], [-77.8479019, 40.8170055], [-77.8481426, 40.8170582], [-77.8485119, 40.8171525], [-77.8489721, 40.8173042], [-77.8493182, 40.8174576], [-77.8497425, 40.8176732], [-77.8499726, 40.817809], [-77.8503483, 40.8180646], [-77.8504496, 40.8181189], [-77.8505382, 40.8181253], [-77.8506015, 40.8181173], [-77.8507029, 40.8180614], [-77.8518983, 40.8173018], [-77.852403, 40.8169924], [-77.8532629, 40.8164675], [-77.8538747, 40.8160941], [-77.8544583, 40.8157548], [-77.8547797, 40.8155628], [-77.8554338, 40.8151531], [-77.8558793, 40.8148864], [-77.8559751, 40.8148202], [-77.8560009, 40.8147736], [-77.8560135, 40.8147046], [-77.8560009, 40.8146273], [-77.855949, 40.8145666], [-77.8554985, 40.8140992], [-77.8553996, 40.8139812], [-77.8553161, 40.8138781], [-77.8551162, 40.8136519], [-77.8546262, 40.813148], [-77.8539999, 40.812501], [-77.8537055, 40.8122], [-77.8534044, 40.8119056], [-77.852897, 40.8113754], [-77.8524713, 40.8109412], [-77.8522503, 40.8107401], [-77.8520457, 40.8105657], [-77.8516882, 40.8102755], [-77.8509893, 40.8098194], [-77.8505053, 40.809544], [-77.8500537, 40.8093286], [-77.8497127, 40.8091631], [-77.8492518, 40.8089388], [-77.8488144, 40.8087287], [-77.8482217, 40.8084439], [-77.847401, 40.8080523], [-77.846806, 40.8077693], [-77.8464133, 40.8075842], [-77.8460229, 40.8074275], [-77.845609, 40.8072958], [-77.8451551, 40.8071659], [-77.8445977, 40.8070021], [-77.844332, 40.8069113], [-77.8441697, 40.8068455], [-77.8440263, 40.8067743], [-77.8438475, 40.8066763], [-77.8436641, 40.8065535], [-77.8434807, 40.8064022], [-77.8432878, 40.8062206], [-77.8431138, 40.8059981], [-77.8429962, 40.8058184], [-77.8428316, 40.805546], [-77.8427728, 40.8055015], [-77.842674, 40.8054855], [-77.8426356, 40.8054973], [-77.8425203, 40.8058694], [-77.842472, 40.8058917], [-77.8432203, 40.8068297], [-77.8425109, 40.8073626], [-77.8419348, 40.8076961], [-77.8414875, 40.8079551], [-77.8409941, 40.8082407], [-77.8394894, 40.8065962], [-77.8390074, 40.8067966], [-77.8387529, 40.8069097], [-77.83837, 40.8070776], [-77.8378539, 40.8073197], [-77.8372608, 40.8075954], [-77.8365347, 40.8079312], [-77.8363992, 40.8080037], [-77.8366695, 40.8085633], [-77.8367962, 40.8088255], [-77.836572, 40.8089704], [-77.8368172, 40.8092073], [-77.8369627, 40.8093735], [-77.8370432, 40.8094628], [-77.8371773, 40.8096293], [-77.8373619, 40.809906], [-77.8375326, 40.8101046], [-77.8376793, 40.8102327], [-77.8378588, 40.810372]]], [[[-77.8504364, 40.8184725], [-77.8499445, 40.818856], [-77.8495371, 40.8192057], [-77.8488514, 40.8198788], [-77.8484407, 40.8203433], [-77.8483475, 40.8207464], [-77.8479489, 40.8212941], [-77.8478413, 40.8214631], [-77.8477937, 40.8214604], [-77.8476962, 40.8214548], [-77.8476826, 40.8215012], [-77.8477823, 40.8215047], [-77.8478349, 40.8215098], [-77.8474504, 40.8221574], [-77.8473857, 40.8224309], [-77.8472228, 40.8230886], [-77.8471872, 40.8236615], [-77.8474497, 40.8238873], [-77.8478404, 40.8241091], [-77.8479952, 40.8241971], [-77.849877, 40.825009], [-77.8502916, 40.8251033], [-77.8506087, 40.8251619], [-77.8507857, 40.8251873], [-77.8509534, 40.8252096], [-77.8510497, 40.8252168], [-77.8526152, 40.8253481], [-77.854271, 40.8252615], [-77.8549604, 40.8251985], [-77.8564543, 40.8249854], [-77.8573287, 40.8248251], [-77.8574816, 40.8249793], [-77.8575487, 40.8250402], [-77.8576345, 40.8250179], [-77.8576345, 40.8249915], [-77.8576533, 40.8249469], [-77.8579483, 40.8246749], [-77.8589376, 40.8244545], [-77.8595335, 40.8243105], [-77.8611444, 40.8238164], [-77.8614962, 40.8237074], [-77.8619051, 40.8236894], [-77.8619824, 40.8236925], [-77.862087, 40.8238062], [-77.863015, 40.8236032], [-77.86353, 40.8233962], [-77.8657106, 40.8228806], [-77.8670838, 40.8225599], [-77.8671927, 40.8224669], [-77.8670531, 40.8223526], [-77.8666451, 40.8220717], [-77.8660733, 40.8217376], [-77.8648961, 40.8210442], [-77.8641136, 40.8205785], [-77.8635718, 40.8202698], [-77.8628628, 40.8198952], [-77.8624214, 40.8196624], [-77.8619803, 40.8194271], [-77.8617255, 40.8192942], [-77.8608263, 40.8188161], [-77.8605902, 40.8187015], [-77.8604434, 40.8186314], [-77.8601864, 40.8185275], [-77.859556, 40.8182666], [-77.8592761, 40.8181485], [-77.8589639, 40.8179589], [-77.8587824, 40.8178461], [-77.8585457, 40.8176557], [-77.8583215, 40.8174524], [-77.8581482, 40.8172509], [-77.857965, 40.8170241], [-77.857785, 40.8167271], [-77.8577049, 40.8165635], [-77.8576123, 40.8163235], [-77.8575392, 40.8161492], [-77.857436, 40.8159769], [-77.8573072, 40.8158246], [-77.8571057, 40.8156333], [-77.8563778, 40.814952], [-77.8562728, 40.8149105], [-77.8561631, 40.8148979], [-77.8561225, 40.8149015], [-77.8560152, 40.8149466], [-77.8555239, 40.8152543], [-77.854499, 40.8158761], [-77.8533851, 40.8165781], [-77.8517461, 40.8176069], [-77.8507297, 40.8182704], [-77.8504364, 40.8184725]]], [[[-77.8801408, 40.8192169], [-77.8811332, 40.8190565], [-77.8822892, 40.8192879], [-77.8829598, 40.8192494], [-77.8837671, 40.8191641], [-77.8850145, 40.8192448], [-77.8849121, 40.8188066], [-77.8823593, 40.8165441], [-77.8820953, 40.8167292], [-77.8806455, 40.8153977], [-77.8804591, 40.8152266], [-77.8805523, 40.8151415], [-77.8806513, 40.8150337], [-77.8807161, 40.8149592], [-77.880747, 40.8149194], [-77.8807669, 40.8148964], [-77.8808181, 40.8148323], [-77.881163, 40.814463], [-77.8815609, 40.8140615], [-77.8821064, 40.8135396], [-77.8830544, 40.8126324], [-77.8832918, 40.8124944], [-77.8833941, 40.8124034], [-77.8836866, 40.8121431], [-77.884335, 40.8115316], [-77.8846424, 40.8112292], [-77.8848679, 40.810982], [-77.8849434, 40.8109098], [-77.8849939, 40.8108494], [-77.8797506, 40.8060237], [-77.8792889, 40.8056019], [-77.8789773, 40.8059793], [-77.8789586, 40.8060235], [-77.8789508, 40.8060464], [-77.8788806, 40.8062012], [-77.8788256, 40.8063207], [-77.8782329, 40.8061138], [-77.8778344, 40.8073381], [-77.8738007, 40.8059584], [-77.8727144, 40.8055966], [-77.8708464, 40.804944], [-77.8667557, 40.8035563], [-77.8666994, 40.8035274], [-77.8666331, 40.8035916], [-77.8664712, 40.8037549], [-77.8661166, 40.8041656], [-77.8656627, 40.8046897], [-77.8650864, 40.8053576], [-77.8647697, 40.8057587], [-77.8645643, 40.8060592], [-77.8642601, 40.8065427], [-77.8639293, 40.8071334], [-77.8635438, 40.8078214], [-77.8632453, 40.808365], [-77.8629883, 40.808827], [-77.8626878, 40.8093734], [-77.8624005, 40.8098725], [-77.8622796, 40.8100642], [-77.8621171, 40.810376], [-77.8619343, 40.8106197], [-77.8618858, 40.8106678], [-77.8616705, 40.8108794], [-77.8616126, 40.8109366], [-77.861243, 40.8113379], [-77.8609731, 40.8116116], [-77.8607433, 40.8118268], [-77.8605087, 40.8120263], [-77.8602756, 40.8122258], [-77.8599494, 40.8124775], [-77.8595268, 40.8127755], [-77.859146, 40.8130187], [-77.8586334, 40.8133337], [-77.858185, 40.8136074], [-77.8577817, 40.8138956], [-77.857449, 40.8140963], [-77.8570168, 40.8143395], [-77.8566825, 40.8145256], [-77.8565411, 40.8146144], [-77.8564897, 40.8146752], [-77.8564768, 40.814708], [-77.856472, 40.8147421], [-77.8564784, 40.8147944], [-77.8565025, 40.814843], [-77.8565684, 40.8149111], [-77.8569927, 40.8152979], [-77.8570794, 40.8153867], [-77.8571453, 40.8154742], [-77.8572096, 40.8155399], [-77.8574249, 40.8157819], [-77.8575728, 40.8159753], [-77.8576113, 40.81603], [-77.8577126, 40.8162611], [-77.8577897, 40.8164897], [-77.8578315, 40.8165894], [-77.8579086, 40.8167451], [-77.8579633, 40.816846], [-77.8580565, 40.8169835], [-77.8581288, 40.8170844], [-77.8582316, 40.8172194], [-77.8583329, 40.8173337], [-77.8584437, 40.8174395], [-77.8585659, 40.8175538], [-77.8587346, 40.8176925], [-77.8588744, 40.8177934], [-77.8590254, 40.8178956], [-77.8591717, 40.8179843], [-77.8593099, 40.8180658], [-77.8594802, 40.8181424], [-77.8596522, 40.8182227], [-77.8597775, 40.8182762], [-77.8600105, 40.8183662], [-77.8603753, 40.8185109], [-77.8608108, 40.818714], [-77.8610229, 40.8188222], [-77.8612736, 40.8189524], [-77.8616689, 40.8191664], [-77.8621268, 40.8194048], [-77.8625864, 40.8196492], [-77.8630701, 40.8199009], [-77.8635313, 40.8201514], [-77.8640086, 40.8204177], [-77.8644762, 40.8206926], [-77.8648699, 40.8209163], [-77.8652925, 40.8211693], [-77.865728, 40.8214259], [-77.8660446, 40.8216144], [-77.8664993, 40.8218953], [-77.8669123, 40.8221543], [-77.8671871, 40.8223464], [-77.8672715, 40.822414], [-77.8672974, 40.822407], [-77.8677289, 40.8222899], [-77.8678858, 40.8222715], [-77.8680006, 40.822258], [-77.8680427, 40.822253], [-77.8681811, 40.8222317], [-77.8685862, 40.8221737], [-77.8696062, 40.8218807], [-77.8702478, 40.8216903], [-77.8708261, 40.8215559], [-77.8712932, 40.8214473], [-77.8713736, 40.8214311], [-77.8714239, 40.8214209], [-77.8716927, 40.8213666], [-77.8717257, 40.8213599], [-77.8720927, 40.8212858], [-77.8723978, 40.8212211], [-77.8727517, 40.8211461], [-77.8729502, 40.8210988], [-77.8734824, 40.8209714], [-77.8749261, 40.8206689], [-77.8758191, 40.8204507], [-77.8768044, 40.8202845], [-77.8776368, 40.8200893], [-77.8781582, 40.8199448], [-77.8786402, 40.81975], [-77.8786736, 40.8197365], [-77.8800281, 40.8194219], [-77.8803768, 40.8198055], [-77.880988, 40.8197154], [-77.8809857, 40.819698], [-77.8806987, 40.819702], [-77.8801408, 40.8192169]]], [[[-77.8507387, 40.8095461], [-77.8499627, 40.8091462], [-77.8491011, 40.808739], [-77.8480728, 40.8082526], [-77.8471398, 40.8078166], [-77.8465876, 40.8075392], [-77.8462591, 40.8073986], [-77.8457688, 40.8072329], [-77.8451737, 40.8070491], [-77.844612, 40.806887], [-77.8442788, 40.8067609], [-77.8439455, 40.8065951], [-77.8437075, 40.8064402], [-77.843479, 40.8062312], [-77.8432695, 40.8059826], [-77.8430077, 40.8055898], [-77.8429363, 40.8054637], [-77.8429268, 40.8053808], [-77.8429696, 40.805334], [-77.8430791, 40.8052871], [-77.8445073, 40.804761], [-77.8466685, 40.8039863], [-77.8486298, 40.8032836], [-77.8490775, 40.8031386], [-77.8492651, 40.803098], [-77.8494493, 40.8030778], [-77.8497072, 40.8031082], [-77.8499316, 40.803169], [-77.8502498, 40.8033389], [-77.8505814, 40.8035772], [-77.8507255, 40.8036254], [-77.8508494, 40.8036406], [-77.8509901, 40.8036229], [-77.8511441, 40.8035747], [-77.8512513, 40.8035671], [-77.8513686, 40.8035874], [-77.8514601, 40.8036533], [-77.8515425, 40.8037965], [-77.8518198, 40.8042813], [-77.8522231, 40.8049191], [-77.8523692, 40.8050942], [-77.8525796, 40.8053417], [-77.8527416, 40.8055074], [-77.8529293, 40.805686], [-77.8531254, 40.8058625], [-77.8532704, 40.8059809], [-77.8534098, 40.8060885], [-77.8538021, 40.8063532], [-77.8540296, 40.8064974], [-77.8542997, 40.8066501], [-77.8545157, 40.8067599], [-77.8549252, 40.8069536], [-77.856179, 40.8075239], [-77.8562757, 40.8075669], [-77.8564349, 40.807668], [-77.8565998, 40.8077584], [-77.8574243, 40.8081544], [-77.8578565, 40.808332], [-77.8579836, 40.8083782], [-77.8590876, 40.808894], [-77.8602893, 40.8094635], [-77.8608072, 40.8097056], [-77.8612371, 40.8099164], [-77.8613714, 40.8099756], [-77.8616596, 40.8100865], [-77.8618282, 40.8101512], [-77.8618672, 40.8101845], [-77.8619136, 40.8102492], [-77.8619307, 40.8103194], [-77.8619088, 40.8104008], [-77.8618599, 40.8104618], [-77.8615546, 40.8108371], [-77.8611467, 40.8112826], [-77.8609122, 40.8115192], [-77.8606411, 40.8117799], [-77.8602722, 40.812096], [-77.8598888, 40.8123863], [-77.8594589, 40.8126913], [-77.85888, 40.8130647], [-77.8585385, 40.8132679], [-77.8574321, 40.8139419], [-77.8571204, 40.8141338], [-77.8564235, 40.8145587], [-77.8563382, 40.8145794], [-77.8562774, 40.8145794], [-77.8562089, 40.814561], [-77.856151, 40.8145299], [-77.8554896, 40.8138737], [-77.8552454, 40.8136412], [-77.85505, 40.8134363], [-77.8541414, 40.8124953], [-77.85399, 40.8123123], [-77.8537225, 40.8120709], [-77.8536372, 40.8119805], [-77.8534695, 40.8117998], [-77.8531738, 40.8115028], [-77.8530032, 40.8113285], [-77.8525739, 40.8108917], [-77.8521854, 40.8105445], [-77.8518621, 40.8102667], [-77.8511957, 40.8098019], [-77.8507387, 40.8095461]]], [[[-77.840783, 40.8195869], [-77.8407736, 40.8190196], [-77.840549, 40.8187922], [-77.8402154, 40.8186897], [-77.8395681, 40.8186747], [-77.8396073, 40.8173991], [-77.8445625, 40.8174735], [-77.8446324, 40.8177214], [-77.8446916, 40.8179311], [-77.8447271, 40.8180571], [-77.8451059, 40.8193997], [-77.8451489, 40.8195681], [-77.8478641, 40.8204733], [-77.8482806, 40.8200461], [-77.8489598, 40.8193784], [-77.8497278, 40.8187059], [-77.8502402, 40.8183556], [-77.8502888, 40.8182672], [-77.8502693, 40.8181936], [-77.8502085, 40.8181034], [-77.849568, 40.8176873], [-77.8490884, 40.8174615], [-77.8486643, 40.8173154], [-77.8481144, 40.8171494], [-77.8470556, 40.8169701], [-77.8460366, 40.8168172], [-77.8449697, 40.8166598], [-77.8440935, 40.8165227], [-77.8432689, 40.8163927], [-77.8422147, 40.8162201], [-77.8412291, 40.816057], [-77.8407856, 40.8159541], [-77.8401231, 40.8157741], [-77.8398616, 40.8157165], [-77.8393395, 40.8156012], [-77.8390814, 40.8155226], [-77.838953, 40.8154713], [-77.8387756, 40.8153777], [-77.8386705, 40.8153123], [-77.8378264, 40.8156051], [-77.837305, 40.8157719], [-77.8368329, 40.8147657], [-77.8366194, 40.8148506], [-77.8364933, 40.8149115], [-77.8363673, 40.8149967], [-77.8363083, 40.8150719], [-77.8362412, 40.8151896], [-77.836209, 40.8153357], [-77.8362117, 40.8156971], [-77.8362198, 40.8160158], [-77.8362064, 40.8161701], [-77.8361581, 40.8162736], [-77.836091, 40.8163446], [-77.835973, 40.8164583], [-77.8354044, 40.8168785], [-77.835152, 40.817081], [-77.8348563, 40.8173087], [-77.8345834, 40.81753], [-77.834396, 40.8176699], [-77.8345057, 40.8178016], [-77.8350019, 40.8183969], [-77.8353238, 40.8186729], [-77.8357851, 40.8192087], [-77.8360962, 40.8192818], [-77.8366498, 40.8193765], [-77.8370802, 40.8200866], [-77.837265, 40.8202334], [-77.8376419, 40.8205751], [-77.8379664, 40.8207909], [-77.8384683, 40.8211227], [-77.8385946, 40.8211746], [-77.8385045, 40.8212378], [-77.8385506, 40.8212731], [-77.8386177, 40.8212284], [-77.8388, 40.8213319], [-77.8393225, 40.8215767], [-77.840141, 40.8219205], [-77.8408305, 40.8221743], [-77.8417263, 40.822495], [-77.8422735, 40.8226777], [-77.8428636, 40.8228197], [-77.8433196, 40.822907], [-77.843746, 40.8229091], [-77.8442825, 40.8230491], [-77.8446017, 40.8232419], [-77.8448188, 40.8233739], [-77.8449359, 40.8234243], [-77.8450861, 40.8234463], [-77.8452221, 40.8234507], [-77.8453874, 40.8234226], [-77.8455376, 40.8233901], [-77.8456664, 40.8233332], [-77.8457522, 40.8232683], [-77.8459449, 40.8229468], [-77.846388, 40.8223286], [-77.8466026, 40.8220464], [-77.8468386, 40.8216851], [-77.8469727, 40.821472], [-77.8471203, 40.821472], [-77.847139, 40.8214294], [-77.8469861, 40.8214233], [-77.8470049, 40.821334], [-77.8472866, 40.8209909], [-77.8474918, 40.820756], [-77.8433711, 40.8215631], [-77.8426203, 40.8204639], [-77.8408058, 40.8204357], [-77.8405227, 40.8203529], [-77.840783, 40.8195869]]]]}}