{"type": "Feature", "properties": {"market_key": 2377, "university": "Slippery Rock University of Pennsylvania", "osm_type": "way", "osm_id": 571210858, "osm_name": "Slippery Rock University"}, "geometry": {"type": "Polygon", "coordinates": [[[-80.0318871, 41.0587528], [-80.0321577, 41.0704154], [-80.0451698, 41.0706515], [-80.0454973, 41.0693933], [-80.0468228, 41.0685834], [-80.0473786, 41.0682603], [-80.0501332, 41.0641358], [-80.0503402, 41.0621682], [-80.0528938, 41.0609619], [-80.0513018, 41.0588551], [-80.0318871, 41.0587528]]]}}