{"type": "Feature", "properties": {"market_key": 2381, "university": "University of South Dakota", "osm_type": "way", "osm_id": 243099114, "osm_name": "University of South Dakota"}, "geometry": {"type": "Polygon", "coordinates": [[[-96.929219, 42.7814851], [-96.9291058, 42.7814852], [-96.9286888, 42.7814855], [-96.9284792, 42.7814857], [-96.9276844, 42.7814862], [-96.9275508, 42.7814863], [-96.9275562, 42.7822373], [-96.92679, 42.7822405], [-96.926791, 42.7825272], [-96.9261929, 42.7825278], [-96.9260633, 42.7825279], [-96.926031, 42.7825279], [-96.9260325, 42.782207], [-96.9253348, 42.7822006], [-96.925338, 42.7825285], [-96.924945, 42.7825289], [-96.9244469, 42.7825293], [-96.9243047, 42.7825294], [-96.924192, 42.7825295], [-96.924074, 42.7825297], [-96.9236323, 42.78253], [-96.923312, 42.7825303], [-96.9229718, 42.7825306], [-96.92285, 42.7825307], [-96.9228508, 42.7824432], [-96.9228527, 42.7822241], [-96.9221516, 42.7822162], [-96.9221509, 42.7825314], [-96.9215334, 42.7825319], [-96.921423, 42.782532], [-96.921424, 42.784811], [-96.9214148, 42.7866617], [-96.9207477, 42.7866684], [-96.9199795, 42.7866761], [-96.9199641, 42.7936638], [-96.9208417, 42.7937243], [-96.9212692, 42.7937445], [-96.9216152, 42.7937531], [-96.9224593, 42.7937578], [-96.9243166, 42.7937549], [-96.9244378, 42.7939587], [-96.92442, 42.8010374], [-96.9291956, 42.8010283], [-96.9291097, 42.7949307], [-96.9291948, 42.7917813], [-96.9308885, 42.7917657], [-96.930867, 42.7909705], [-96.929201, 42.790975], [-96.9292344, 42.7866788], [-96.9292341, 42.7865932], [-96.9292318, 42.7864928], [-96.9292355, 42.7861699], [-96.9292352, 42.7860991], [-96.929234, 42.7857414], [-96.9292328, 42.7854101], [-96.9292319, 42.7851483], [-96.9292302, 42.7846562], [-96.9292297, 42.7845263], [-96.9292278, 42.7840007], [-96.9292264, 42.7835904], [-96.9292263, 42.7835558], [-96.9292261, 42.7835085], [-96.9292244, 42.7830144], [-96.9292229, 42.7825991], [-96.9292227, 42.7825262], [-96.9292224, 42.7824495], [-96.929222, 42.7823471], [-96.9292217, 42.7822526], [-96.929219, 42.7814851]]]}}