{"type": "Feature", "properties": {"market_key": 2383, "university": "Tennessee Technological University", "osm_type": "way", "osm_id": 473843629, "osm_name": "Tennessee Technological University"}, "geometry": {"type": "Polygon", "coordinates": [[[-85.5116531, 36.1723319], [-85.5115593, 36.173128], [-85.5114705, 36.173801], [-85.5114578, 36.1738974], [-85.5116997, 36.1739238], [-85.5153235, 36.1742206], [-85.5153991, 36.1743427], [-85.5170565, 36.1769311], [-85.516799, 36.17891], [-85.5166434, 36.180183], [-85.5166166, 36.1802956], [-85.5165629, 36.1803475], [-85.5155276, 36.1801787], [-85.5144011, 36.1800314], [-85.5128701, 36.1798329], [-85.5126745, 36.1798145], [-85.5109356, 36.1796244], [-85.508645, 36.1793408], [-85.5070116, 36.1791286], [-85.5046892, 36.178794], [-85.5044374, 36.1787516], [-85.5018319, 36.1784369], [-85.5017138, 36.1784118], [-85.5010068, 36.1783345], [-85.5001612, 36.1783172], [-85.5001048, 36.1775155], [-85.500213, 36.1774509], [-85.5000873, 36.1773677], [-85.4997147, 36.1775566], [-85.49885, 36.1778683], [-85.4986347, 36.177941], [-85.498453, 36.1776659], [-85.4984546, 36.1773323], [-85.4984839, 36.1770003], [-85.498577, 36.1759474], [-85.498625, 36.1754044], [-85.4988003, 36.1754063], [-85.5010649, 36.1754735], [-85.5012364, 36.1755552], [-85.5017223, 36.1758062], [-85.5022782, 36.1743205], [-85.5027116, 36.1729432], [-85.5027335, 36.1729388], [-85.5027619, 36.1729331], [-85.5028936, 36.1729067], [-85.5030446, 36.172844], [-85.5032647, 36.1726777], [-85.5033069, 36.1726424], [-85.5033477, 36.1725045], [-85.5036366, 36.1716785], [-85.5040284, 36.1703897], [-85.5040539, 36.1703522], [-85.5041062, 36.1703354], [-85.5051981, 36.1704157], [-85.505194, 36.1704385], [-85.5050429, 36.1716823], [-85.5050281, 36.1717888], [-85.5050246, 36.1718331], [-85.5061375, 36.1719292], [-85.5092167, 36.172167], [-85.5116531, 36.1723319]]]}}