{"type": "Feature", "properties": {"market_key": 2386, "university": "Angelo State University", "osm_type": "relation", "osm_id": 15521853, "osm_name": "Angelo State University"}, "geometry": {"type": "MultiPolygon", "coordinates": [[[[-100.4567162, 31.4430822], [-100.4562319, 31.4430713], [-100.4561972, 31.4430862], [-100.4561851, 31.4431087], [-100.4561851, 31.4436011], [-100.4567131, 31.4435998], [-100.4567162, 31.4430822]]], [[[-100.4696911, 31.4435847], [-100.4696749, 31.4436048], [-100.4696557, 31.4436183], [-100.4683092, 31.4435278], [-100.4669345, 31.4434395], [-100.467008, 31.4439783], [-100.4666017, 31.4440855], [-100.4664911, 31.4439129], [-100.4664925, 31.4438361], [-100.4665044, 31.4437843], [-100.4665236, 31.4437346], [-100.466555, 31.443687], [-100.4665937, 31.4436415], [-100.4666675, 31.4435951], [-100.4667363, 31.4435673], [-100.4667556, 31.4434263], [-100.4643109, 31.4432653], [-100.464066, 31.4432471], [-100.4627032, 31.4431587], [-100.4626964, 31.4427134], [-100.4632861, 31.4427186], [-100.4632895, 31.4417492], [-100.4627009, 31.4417443], [-100.4627005, 31.441909], [-100.4599849, 31.4419044], [-100.4598539, 31.4419039], [-100.4596852, 31.4419033], [-100.4586409, 31.4418998], [-100.4584481, 31.4418991], [-100.4574293, 31.4418956], [-100.4562385, 31.4418915], [-100.4559037, 31.4418904], [-100.455902, 31.4420013], [-100.4553738, 31.4419974], [-100.4554152, 31.4407085], [-100.453683, 31.4407023], [-100.4536735, 31.4393008], [-100.4492622, 31.439296], [-100.4493273, 31.4360755], [-100.450003, 31.4355876], [-100.4507829, 31.4349946], [-100.4523064, 31.433827], [-100.4523747, 31.4337961], [-100.4524309, 31.4337819], [-100.4546069, 31.4337877], [-100.458988, 31.433819], [-100.4596752, 31.4339062], [-100.4605055, 31.4339039], [-100.4604951, 31.4344095], [-100.4629229, 31.4344215], [-100.4629394, 31.4353258], [-100.462944, 31.4363652], [-100.4629376, 31.4368775], [-100.4629236, 31.4368977], [-100.4628946, 31.4369118], [-100.4598016, 31.4369202], [-100.4598131, 31.4388252], [-100.4613372, 31.4388261], [-100.4613432, 31.4394831], [-100.463232, 31.4394854], [-100.4632472, 31.4394655], [-100.463275, 31.4394416], [-100.4633203, 31.4394305], [-100.464, 31.4394318], [-100.4644716, 31.43943], [-100.4646131, 31.4394148], [-100.4648205, 31.4393416], [-100.4649209, 31.4392814], [-100.4650024, 31.4392202], [-100.4650984, 31.4391054], [-100.4651714, 31.4390023], [-100.4653203, 31.4388824], [-100.4654601, 31.4388199], [-100.465611, 31.4387639], [-100.4656993, 31.4387491], [-100.4657899, 31.4387432], [-100.4658907, 31.4387446], [-100.4660158, 31.4387621], [-100.4661129, 31.4387873], [-100.4662822, 31.438864], [-100.4663431, 31.4389047], [-100.4663977, 31.4389509], [-100.4664433, 31.4389898], [-100.4664801, 31.4390281], [-100.4665422, 31.4391051], [-100.4666509, 31.4392286], [-100.4667267, 31.4392839], [-100.4668525, 31.4393556], [-100.46697, 31.4393988], [-100.4671253, 31.4394274], [-100.4672598, 31.4394329], [-100.46819, 31.4394297], [-100.4682446, 31.4394463], [-100.4682777, 31.4394655], [-100.4683052, 31.4394958], [-100.4683208, 31.4395261], [-100.4683307, 31.4411325], [-100.4683412, 31.4411637], [-100.4683615, 31.4411914], [-100.4683914, 31.4412174], [-100.4684265, 31.441238], [-100.4684715, 31.4412528], [-100.4685432, 31.4412569], [-100.4696432, 31.4412556], [-100.4696646, 31.4412623], [-100.4696814, 31.4412721], [-100.469698, 31.4412948], [-100.4697009, 31.44132], [-100.4696845, 31.4422643], [-100.4696848, 31.4426324], [-100.4696891, 31.4433198], [-100.4696911, 31.4435847]]], [[[-100.4796993, 31.3902318], [-100.4792954, 31.390221], [-100.4792947, 31.3901029], [-100.4792881, 31.3900085], [-100.4792608, 31.3899211], [-100.4792372, 31.3898815], [-100.4793788, 31.3898998], [-100.4795674, 31.389623], [-100.4799152, 31.3897061], [-100.4802291, 31.3892595], [-100.4802543, 31.3891221], [-100.4802568, 31.3890099], [-100.480286, 31.3889777], [-100.480314, 31.3888705], [-100.4803286, 31.3887633], [-100.4807043, 31.3888662], [-100.4807618, 31.3889033], [-100.4808164, 31.3889583], [-100.4808664, 31.3890272], [-100.4809172, 31.3891476], [-100.4812467, 31.3901184], [-100.481273, 31.3902391], [-100.481256, 31.390278], [-100.4811521, 31.3903746], [-100.4810842, 31.3904072], [-100.4810168, 31.3904278], [-100.4810197, 31.3904397], [-100.4797178, 31.3904753], [-100.4796993, 31.3902318]]], [[[-100.4687027, 31.4457768], [-100.4684528, 31.4453818], [-100.4683063, 31.4454476], [-100.4681101, 31.4455146], [-100.4679296, 31.445567], [-100.4677857, 31.4456005], [-100.4677622, 31.4456117], [-100.4677478, 31.4456418], [-100.4677635, 31.4456753], [-100.4680918, 31.4461127], [-100.4687027, 31.4457768]]]]}}