{"type": "Feature", "properties": {"market_key": 2387, "university": "Lamar University", "osm_type": "relation", "osm_id": 10706204, "osm_name": "Lamar University"}, "geometry": {"type": "MultiPolygon", "coordinates": [[[[-94.0743086, 30.046692], [-94.0730318, 30.0467013], [-94.0722486, 30.0461348], [-94.0707681, 30.0448253], [-94.0706799, 30.0447477], [-94.0700921, 30.0442309], [-94.0697274, 30.0441287], [-94.0684828, 30.0429028], [-94.0682478, 30.0429379], [-94.0675095, 30.0422625], [-94.0691958, 30.041063], [-94.0718588, 30.0440063], [-94.0719211, 30.0440752], [-94.0735685, 30.0459145], [-94.0737302, 30.0459811], [-94.0743086, 30.046692]]], [[[-94.0789293, 30.0447697], [-94.0780431, 30.0447883], [-94.0780673, 30.0457565], [-94.0777132, 30.0457588], [-94.0777239, 30.0460583], [-94.0766189, 30.0460606], [-94.0766249, 30.0466573], [-94.0762273, 30.0466527], [-94.0755621, 30.0466805], [-94.0754882, 30.0466531], [-94.0747074, 30.0460552], [-94.0726529, 30.0438773], [-94.072036, 30.043197], [-94.0712959, 30.0423856], [-94.0712369, 30.0422254], [-94.0712367, 30.0421523], [-94.071304, 30.0421024], [-94.0716202, 30.0420919], [-94.0716095, 30.0415532], [-94.0729019, 30.0415288], [-94.0729073, 30.0420954], [-94.0729891, 30.0420986], [-94.0732215, 30.0420942], [-94.0731343, 30.0356485], [-94.0717356, 30.0356833], [-94.0717624, 30.0353025], [-94.0727682, 30.0353165], [-94.072618, 30.0350332], [-94.0725214, 30.0349008], [-94.0723742, 30.0347464], [-94.0719367, 30.0344643], [-94.071363, 30.0341612], [-94.0708692, 30.0339395], [-94.0707029, 30.0338048], [-94.0706334, 30.0335993], [-94.0706707, 30.0334333], [-94.0708692, 30.0331964], [-94.0724302, 30.0329503], [-94.0747514, 30.0327459], [-94.0756704, 30.0342181], [-94.0770622, 30.033558], [-94.07571, 30.0325887], [-94.076474, 30.0324308], [-94.0775076, 30.0320261], [-94.0779224, 30.0318433], [-94.078136, 30.0317533], [-94.0782708, 30.0316965], [-94.0791616, 30.0313209], [-94.0793661, 30.0316575], [-94.0794497, 30.0317952], [-94.0794947, 30.0318692], [-94.0802192, 30.0330617], [-94.0795881, 30.0333527], [-94.0794781, 30.0334595], [-94.0793333, 30.0336871], [-94.0791938, 30.0338241], [-94.078969, 30.033911], [-94.0787432, 30.0339982], [-94.0788191, 30.0342785], [-94.0787995, 30.0345997], [-94.0787495, 30.0347824], [-94.0786154, 30.0353165], [-94.0785618, 30.0355417], [-94.0785457, 30.0359132], [-94.0785571, 30.0361623], [-94.0785578, 30.0368063], [-94.0785825, 30.0368074], [-94.0785942, 30.0382689], [-94.078605, 30.0386056], [-94.0786103, 30.0391837], [-94.0786369, 30.039366], [-94.0787069, 30.0395645], [-94.0787978, 30.039712], [-94.0789105, 30.0398466], [-94.0790499, 30.0400208], [-94.0790529, 30.0402286], [-94.0790797, 30.0416891], [-94.0791197, 30.0419925], [-94.0791238, 30.042311], [-94.0791223, 30.0426236], [-94.0789614, 30.0436521], [-94.0789295, 30.0439436], [-94.0789293, 30.0447697]]]]}}