{"type": "Feature", "properties": {"market_key": 2388, "university": "Tarleton State University", "osm_type": "relation", "osm_id": 12080142, "osm_name": "Tarleton State University"}, "geometry": {"type": "MultiPolygon", "coordinates": [[[[-98.2268069, 32.2171772], [-98.2240841, 32.2131682], [-98.2227896, 32.211322], [-98.2227335, 32.2113046], [-98.2226083, 32.2113105], [-98.2223427, 32.2114373], [-98.2226002, 32.2118174], [-98.2208537, 32.2126551], [-98.2205033, 32.2121794], [-98.22257, 32.2111294], [-98.2225965, 32.2110345], [-98.222369, 32.2107393], [-98.2221385, 32.210506], [-98.221908, 32.2103399], [-98.2217039, 32.2101791], [-98.2214765, 32.2099314], [-98.221242, 32.2095975], [-98.2175585, 32.2114311], [-98.2181194, 32.2122473], [-98.2187063, 32.2130661], [-98.2191974, 32.2138013], [-98.2190646, 32.2138688], [-98.218795, 32.2139976], [-98.2184062, 32.2134138], [-98.2172527, 32.2139823], [-98.2171821, 32.2140032], [-98.2170402, 32.214022], [-98.2166724, 32.2134788], [-98.215914, 32.2138674], [-98.212942, 32.2153239], [-98.21308, 32.2155211], [-98.2127661, 32.2156785], [-98.2129012, 32.2158668], [-98.2128406, 32.2158957], [-98.2129355, 32.2160381], [-98.2127978, 32.2160991], [-98.212919, 32.2162725], [-98.2129667, 32.2162443], [-98.2136777, 32.2173371], [-98.2141518, 32.2170975], [-98.214544, 32.2176835], [-98.2142295, 32.2178249], [-98.2141978, 32.2177816], [-98.2139526, 32.2179025], [-98.2141096, 32.2181159], [-98.2146599, 32.2178518], [-98.2152437, 32.2187158], [-98.2160753, 32.2183174], [-98.2168064, 32.2193474], [-98.2177921, 32.2188741], [-98.2181946, 32.2194094], [-98.2185481, 32.2192344], [-98.2182105, 32.2187459], [-98.2184344, 32.2186311], [-98.2187591, 32.2190866], [-98.2189194, 32.2190107], [-98.2192304, 32.2194385], [-98.2187788, 32.2196685], [-98.219023, 32.22003], [-98.2196423, 32.2197217], [-98.2201553, 32.2204755], [-98.2203589, 32.2203836], [-98.2201553, 32.2201081], [-98.2209468, 32.2197312], [-98.2211164, 32.2199799], [-98.2268069, 32.2171772]]], [[[-98.2153934, 32.213317], [-98.2154473, 32.2132905], [-98.2162208, 32.2129167], [-98.2162924, 32.2128812], [-98.215866, 32.2122614], [-98.2152148, 32.2125841], [-98.2152548, 32.2126393], [-98.2153741, 32.2128161], [-98.2151982, 32.212901], [-98.215131, 32.2129316], [-98.2151706, 32.2129858], [-98.2153727, 32.2132853], [-98.2153934, 32.213317]]]]}}