{"type": "Feature", "properties": {"market_key": 2389, "university": "Texas A&M International University", "osm_type": "way", "osm_id": 930353812, "osm_name": "Texas A&M International University"}, "geometry": {"type": "Polygon", "coordinates": [[[-99.4382139, 27.5701331], [-99.4368802, 27.5688167], [-99.4362026, 27.5681258], [-99.4344015, 27.5677894], [-99.4335492, 27.5679064], [-99.4321519, 27.5673534], [-99.4295589, 27.5663272], [-99.4269036, 27.5714293], [-99.4237663, 27.5726415], [-99.4237095, 27.5727003], [-99.4236811, 27.572759], [-99.4236906, 27.5728345], [-99.4263405, 27.5783418], [-99.4334595, 27.5757953], [-99.4335716, 27.576056], [-99.435029, 27.5755057], [-99.4371487, 27.5747192], [-99.4373631, 27.5746475], [-99.4377043, 27.574577], [-99.4380828, 27.5745482], [-99.4383765, 27.5745543], [-99.4385161, 27.5745803], [-99.4396042, 27.5748378], [-99.4401678, 27.5730732], [-99.4404889, 27.5718555], [-99.4397536, 27.5716707], [-99.4382139, 27.5701331]]]}}