{"type": "Feature", "properties": {"market_key": 2391, "university": "Texas A&M University Kingsville", "osm_type": "way", "osm_id": 259253561, "osm_name": "Texas A&M University-Kingsville"}, "geometry": {"type": "Polygon", "coordinates": [[[-97.883039, 27.5215928], [-97.8830524, 27.5219734], [-97.8835835, 27.5219734], [-97.8835998, 27.5226372], [-97.8855313, 27.5226032], [-97.8855574, 27.5227162], [-97.8855754, 27.5243687], [-97.8855781, 27.5252073], [-97.8855825, 27.5265403], [-97.8891488, 27.5264927], [-97.8894959, 27.5294231], [-97.8895281, 27.5303459], [-97.8930648, 27.5302983], [-97.8930863, 27.5340563], [-97.8859731, 27.5341229], [-97.885855, 27.5300986], [-97.8780589, 27.5302983], [-97.8779701, 27.5251265], [-97.8779106, 27.5216641], [-97.883039, 27.5215928]]]}}