{"type": "Feature", "properties": {"market_key": 2392, "university": "Brigham Young University", "osm_type": "way", "osm_id": 28355561, "osm_name": "Brigham Young University"}, "geometry": {"type": "Polygon", "coordinates": [[[-111.649889, 40.2555848], [-111.648352, 40.2560833], [-111.6481672, 40.2561522], [-111.6476549, 40.2563907], [-111.6474522, 40.2564639], [-111.6472844, 40.2565054], [-111.6473316, 40.2567711], [-111.6471817, 40.2574353], [-111.6471723, 40.2574586], [-111.6471453, 40.2574999], [-111.6466231, 40.2582097], [-111.6466187, 40.258248], [-111.6466319, 40.258436], [-111.6452247, 40.258412], [-111.6449803, 40.2581692], [-111.6450384, 40.2581672], [-111.6450314, 40.2573587], [-111.645022, 40.2568169], [-111.6450011, 40.2565886], [-111.6448229, 40.2565876], [-111.643098, 40.2566249], [-111.6431119, 40.2583252], [-111.6431235, 40.2589397], [-111.6432036, 40.2593745], [-111.643336, 40.2597831], [-111.6434586, 40.2599761], [-111.6418004, 40.2607089], [-111.6405851, 40.2616896], [-111.6396383, 40.2624556], [-111.638892, 40.2621207], [-111.6388744, 40.2610469], [-111.6379529, 40.2595699], [-111.6378465, 40.2585127], [-111.6378489, 40.2565304], [-111.6402804, 40.2553118], [-111.6413253, 40.2547001], [-111.6421114, 40.2555425], [-111.6423276, 40.2555273], [-111.6431126, 40.255544], [-111.6431452, 40.2555446], [-111.6434172, 40.255571], [-111.6433161, 40.2497199], [-111.6431518, 40.2497097], [-111.6420616, 40.2496267], [-111.6410717, 40.24939], [-111.640626, 40.2492749], [-111.6406315, 40.2485037], [-111.6406798, 40.2472439], [-111.6406831, 40.2461329], [-111.6406862, 40.2449033], [-111.6408701, 40.2449013], [-111.6408861, 40.2448921], [-111.6419893, 40.2448926], [-111.6419915, 40.2454536], [-111.6419854, 40.2457533], [-111.6419876, 40.246137], [-111.6419889, 40.2470754], [-111.6432918, 40.2470792], [-111.6432648, 40.2460088], [-111.6433029, 40.2459524], [-111.6437936, 40.2459521], [-111.6437943, 40.2457805], [-111.6437914, 40.2453428], [-111.6452589, 40.2453546], [-111.6452494, 40.2457774], [-111.6452454, 40.2459208], [-111.6454783, 40.2459205], [-111.6457152, 40.2459269], [-111.6457472, 40.2448857], [-111.646019, 40.2448849], [-111.6460105, 40.2454314], [-111.6464463, 40.2454336], [-111.6466393, 40.2454367], [-111.6466419, 40.2450579], [-111.6469073, 40.2450578], [-111.6469744, 40.2451153], [-111.6469795, 40.2451176], [-111.647307, 40.2452647], [-111.6477081, 40.2454293], [-111.6479903, 40.2454306], [-111.6481998, 40.2453775], [-111.648458, 40.2453454], [-111.6485281, 40.2453113], [-111.6485616, 40.2453006], [-111.6486783, 40.2452555], [-111.6487109, 40.245224], [-111.6487084, 40.2449013], [-111.6487286, 40.2447969], [-111.6487283, 40.2444166], [-111.6487283, 40.2443939], [-111.6483411, 40.244222], [-111.6483444, 40.2436301], [-111.6484339, 40.243636], [-111.6497295, 40.2436364], [-111.6498121, 40.2436365], [-111.6500738, 40.243632], [-111.6500748, 40.2431031], [-111.6508907, 40.2431143], [-111.6515428, 40.2431151], [-111.6515401, 40.2436312], [-111.6515369, 40.2442273], [-111.6515377, 40.2443153], [-111.651537, 40.2443727], [-111.6515339, 40.2444153], [-111.6532982, 40.2443544], [-111.6534769, 40.2443572], [-111.6535284, 40.2442469], [-111.6535312, 40.2436896], [-111.6535795, 40.2436917], [-111.6549428, 40.2436968], [-111.6549939, 40.2437021], [-111.655018, 40.2442481], [-111.6550289, 40.2442947], [-111.655032, 40.2443078], [-111.6550358, 40.2443241], [-111.65525, 40.2443551], [-111.6554552, 40.2444094], [-111.6560343, 40.2443982], [-111.6560418, 40.2451338], [-111.6560408, 40.245819], [-111.65604, 40.2463865], [-111.6561476, 40.2463869], [-111.6572588, 40.246391], [-111.6572567, 40.2466021], [-111.6573275, 40.2466116], [-111.6574057, 40.246634], [-111.6574214, 40.2466316], [-111.6584821, 40.2466323], [-111.6584871, 40.2471466], [-111.6589168, 40.247146], [-111.6593647, 40.2471439], [-111.6593653, 40.2466697], [-111.6612953, 40.2466702], [-111.6612942, 40.2471199], [-111.6619555, 40.2471205], [-111.6618781, 40.2504085], [-111.6617912, 40.2504655], [-111.6588346, 40.2504443], [-111.658841, 40.2490334], [-111.6588402, 40.2488337], [-111.6588405, 40.2488117], [-111.6584295, 40.2488116], [-111.6580154, 40.2488702], [-111.6564085, 40.2499058], [-111.6562771, 40.2501134], [-111.6560356, 40.2507448], [-111.6560169, 40.2518481], [-111.6563127, 40.2518513], [-111.6569101, 40.2518265], [-111.656922, 40.2507451], [-111.6578301, 40.2507378], [-111.6578279, 40.2518062], [-111.6584271, 40.2518102], [-111.6584518, 40.255605], [-111.6584239, 40.2556591], [-111.6583847, 40.2556793], [-111.6583369, 40.2556925], [-111.6582287, 40.255714], [-111.6575815, 40.2557091], [-111.6575808, 40.2557003], [-111.6575886, 40.2546653], [-111.6572424, 40.2546653], [-111.6572413, 40.2545193], [-111.6567713, 40.2545203], [-111.6567752, 40.2541052], [-111.6567231, 40.2541052], [-111.6567162, 40.2537134], [-111.6566987, 40.2536988], [-111.6562713, 40.253707], [-111.6559932, 40.2536999], [-111.6559414, 40.2556132], [-111.6559325, 40.2559335], [-111.6583575, 40.2559379], [-111.6584298, 40.2559547], [-111.6588832, 40.2560623], [-111.6592018, 40.2561284], [-111.6593402, 40.2561703], [-111.6595419, 40.2562494], [-111.6598261, 40.2564005], [-111.6598798, 40.2564293], [-111.659927, 40.2564546], [-111.6599504, 40.2564662], [-111.6599594, 40.2566197], [-111.6599455, 40.2568966], [-111.6599323, 40.2572132], [-111.6611783, 40.258376], [-111.6614686, 40.258648], [-111.6614956, 40.2586729], [-111.6615097, 40.2586735], [-111.6615543, 40.2587142], [-111.6615548, 40.2587268], [-111.6615675, 40.2587396], [-111.6616279, 40.25874], [-111.6616245, 40.2588401], [-111.6615144, 40.2599978], [-111.6614925, 40.260267], [-111.6614416, 40.2604338], [-111.661424, 40.2606405], [-111.6614452, 40.2608929], [-111.6613833, 40.2615259], [-111.6612427, 40.2630402], [-111.6612204, 40.2632989], [-111.6611887, 40.2636748], [-111.6611236, 40.2647733], [-111.6609049, 40.2660761], [-111.659639, 40.2659781], [-111.6596961, 40.2676093], [-111.6595634, 40.2676707], [-111.6595607, 40.2678324], [-111.6576684, 40.2678365], [-111.6581297, 40.2660109], [-111.6561923, 40.2660283], [-111.656188, 40.2659054], [-111.6561592, 40.2650782], [-111.6560764, 40.262705], [-111.6586465, 40.2627545], [-111.6587022, 40.2589341], [-111.6585828, 40.2589304], [-111.6584186, 40.25893], [-111.6584043, 40.2589299], [-111.6583828, 40.2589346], [-111.6582708, 40.2589357], [-111.6574996, 40.2589369], [-111.6574875, 40.258937], [-111.6574728, 40.2589368], [-111.6572397, 40.258935], [-111.65724, 40.2589214], [-111.6562426, 40.2589278], [-111.6562016, 40.2589272], [-111.656203, 40.2588597], [-111.6562059, 40.2587162], [-111.6558911, 40.2587083], [-111.6552973, 40.2587034], [-111.6552982, 40.2588404], [-111.6553383, 40.2588694], [-111.6553347, 40.2591467], [-111.6553679, 40.2591475], [-111.6553667, 40.2593215], [-111.6547864, 40.2593197], [-111.6547724, 40.2593064], [-111.6547309, 40.2593067], [-111.6546437, 40.259307], [-111.6546451, 40.2591059], [-111.65396, 40.2591015], [-111.6537161, 40.2588044], [-111.6536824, 40.2587634], [-111.6536784, 40.2586707], [-111.6536763, 40.2586225], [-111.6533629, 40.2586082], [-111.6532853, 40.2586107], [-111.6531541, 40.258617], [-111.6530639, 40.258625], [-111.6529006, 40.2586553], [-111.6526873, 40.2586982], [-111.6526511, 40.2584848], [-111.6524643, 40.2581412], [-111.6524004, 40.2580238], [-111.6527207, 40.2578638], [-111.6527168, 40.2573931], [-111.6517559, 40.2573508], [-111.6517809, 40.2570469], [-111.651535, 40.2568837], [-111.6513367, 40.2567673], [-111.6514406, 40.2567109], [-111.6511553, 40.2564292], [-111.6509389, 40.2563361], [-111.6507488, 40.2563152], [-111.6507495, 40.256233], [-111.6506686, 40.2562306], [-111.6504276, 40.2562234], [-111.6504227, 40.2560236], [-111.6498943, 40.2560216], [-111.6498923, 40.2558594], [-111.649889, 40.2555848]]]}}