{"type": "Feature", "properties": {"market_key": 2393, "university": "Utah State University", "osm_type": "relation", "osm_id": 6790710, "osm_name": "Utah State University"}, "geometry": {"type": "MultiPolygon", "coordinates": [[[[-111.8232676, 41.7702453], [-111.8207831, 41.7701896], [-111.8208765, 41.7689775], [-111.8218292, 41.7690053], [-111.8218853, 41.7684898], [-111.8233423, 41.7685456], [-111.8232676, 41.7702453]]], [[[-111.80186, 41.7512016], [-111.8018891, 41.7529792], [-111.8043635, 41.7529668], [-111.8045104, 41.7530617], [-111.804375, 41.7560126], [-111.8043612, 41.7563865], [-111.8043638, 41.7570123], [-111.8043686, 41.7578341], [-111.8043595, 41.7584121], [-111.8043456, 41.7592983], [-111.8052261, 41.7592768], [-111.8052269, 41.7599892], [-111.8075991, 41.7599929], [-111.8075347, 41.7609187], [-111.8093747, 41.7609633], [-111.8112835, 41.7610007], [-111.8112705, 41.7613642], [-111.8112639, 41.7617451], [-111.8112574, 41.7621073], [-111.8127684, 41.7621295], [-111.8137211, 41.7621435], [-111.8138627, 41.7621452], [-111.8138413, 41.7629552], [-111.8137219, 41.7629522], [-111.8112629, 41.7628902], [-111.8112204, 41.7638634], [-111.8137005, 41.76392], [-111.8138287, 41.7639208], [-111.813781, 41.7648752], [-111.8090239, 41.7648035], [-111.808759, 41.7649777], [-111.8087241, 41.7655508], [-111.8104181, 41.7674766], [-111.8135643, 41.7675265], [-111.8135827, 41.765787], [-111.8138338, 41.7657936], [-111.8142693, 41.7657995], [-111.8148616, 41.765806], [-111.8162343, 41.7658327], [-111.8162446, 41.7649393], [-111.8162557, 41.7647816], [-111.8187769, 41.7648263], [-111.8221215, 41.7648845], [-111.8222719, 41.7637632], [-111.8236967, 41.7622571], [-111.8237636, 41.761228], [-111.8234649, 41.7612233], [-111.8230597, 41.7612167], [-111.8222659, 41.7612055], [-111.8209002, 41.7611857], [-111.8209013, 41.7610961], [-111.8209774, 41.7593489], [-111.8191304, 41.7593092], [-111.8189445, 41.7593047], [-111.8189515, 41.7582855], [-111.8189618, 41.7575333], [-111.8175652, 41.7575013], [-111.8137173, 41.7574132], [-111.8137393, 41.7568679], [-111.8137971, 41.7535603], [-111.8140593, 41.753564], [-111.8143191, 41.7535683], [-111.8149626, 41.7535784], [-111.8150147, 41.7535792], [-111.8157555, 41.752425], [-111.8163792, 41.7513771], [-111.8141, 41.7513402], [-111.8138464, 41.7513384], [-111.8139961, 41.747377], [-111.8141412, 41.7473427], [-111.8147854, 41.7473503], [-111.8148227, 41.7464414], [-111.8139654, 41.746433], [-111.8139926, 41.7456615], [-111.8140294, 41.744709], [-111.8140349, 41.7446381], [-111.8140707, 41.7444223], [-111.8143041, 41.744425], [-111.8143289, 41.7437835], [-111.8143408, 41.7434518], [-111.8143608, 41.742854], [-111.8143657, 41.7427001], [-111.814423, 41.7427005], [-111.8154, 41.7427178], [-111.8154139, 41.742718], [-111.8155517, 41.7427886], [-111.8155981, 41.7428064], [-111.815648, 41.7428496], [-111.8156403, 41.7427958], [-111.8157014, 41.7427781], [-111.8157748, 41.7428079], [-111.8158965, 41.7428602], [-111.8158807, 41.7428899], [-111.8162363, 41.7430584], [-111.8166262, 41.7431075], [-111.8166382, 41.7427615], [-111.8166467, 41.7425168], [-111.8166521, 41.7422972], [-111.8166526, 41.7421911], [-111.8166524, 41.7421557], [-111.8166489, 41.742142], [-111.8166399, 41.7421395], [-111.8166242, 41.7421334], [-111.8166079, 41.7421331], [-111.816608, 41.742116], [-111.8166167, 41.7417885], [-111.8168086, 41.741791], [-111.817998, 41.7418071], [-111.8180205, 41.7412242], [-111.8177622, 41.7412252], [-111.8177637, 41.7407851], [-111.8177705, 41.7405964], [-111.8179841, 41.7405945], [-111.8180163, 41.7397146], [-111.8180838, 41.7397168], [-111.8180845, 41.739531], [-111.816917, 41.7395069], [-111.8169543, 41.7388896], [-111.8169717, 41.7386133], [-111.8170162, 41.7378897], [-111.8158258, 41.737666], [-111.8155425, 41.7377572], [-111.8083367, 41.7400673], [-111.807178, 41.7400032], [-111.8035731, 41.7419566], [-111.8030367, 41.7427731], [-111.8014488, 41.7431413], [-111.7994532, 41.7423248], [-111.7990173, 41.7418385], [-111.7977584, 41.7404951], [-111.7976551, 41.7403902], [-111.7970285, 41.7391226], [-111.7962826, 41.7388727], [-111.7897973, 41.7388344], [-111.789846, 41.7412408], [-111.7906728, 41.7412136], [-111.7912997, 41.7406713], [-111.7912849, 41.7404026], [-111.794554, 41.7403631], [-111.7926297, 41.741124], [-111.7926297, 41.7428211], [-111.7895183, 41.7429972], [-111.789496, 41.744006], [-111.7849226, 41.744097], [-111.7851624, 41.75113], [-111.7871415, 41.7511906], [-111.7879217, 41.7512252], [-111.7882897, 41.751314], [-111.7887179, 41.7513513], [-111.7888839, 41.7513011], [-111.7888737, 41.7510807], [-111.7887908, 41.7509869], [-111.788583, 41.7508332], [-111.7884805, 41.7506661], [-111.7884805, 41.7504921], [-111.7885146, 41.7503509], [-111.7885984, 41.7500829], [-111.7885764, 41.7498543], [-111.7884983, 41.7496858], [-111.7881874, 41.749311], [-111.788169, 41.749194], [-111.7881896, 41.7490769], [-111.78837, 41.7487046], [-111.7885614, 41.7476362], [-111.7887542, 41.7476327], [-111.7944418, 41.7475697], [-111.794604, 41.7427863], [-111.7952637, 41.7428378], [-111.7959321, 41.7429678], [-111.7959349, 41.743099], [-111.7981658, 41.7433815], [-111.7977717, 41.7438311], [-111.7970015, 41.7438673], [-111.7969439, 41.7439215], [-111.7969291, 41.7440637], [-111.7969886, 41.7441024], [-111.799992, 41.7441593], [-111.800748, 41.7442087], [-111.8013037, 41.7442165], [-111.8013104, 41.7446481], [-111.8018504, 41.7446533], [-111.8018639, 41.7457036], [-111.8018799, 41.7467926], [-111.8042649, 41.7467871], [-111.804519, 41.7467713], [-111.8045518, 41.7467239], [-111.8046338, 41.7466673], [-111.8047115, 41.7466405], [-111.8048078, 41.7466259], [-111.8089981, 41.7467209], [-111.8106417, 41.7467524], [-111.8106794, 41.7467531], [-111.8107333, 41.7467542], [-111.8112563, 41.7467581], [-111.811247, 41.7473711], [-111.8112511, 41.7474245], [-111.8112169, 41.7492553], [-111.8111941, 41.7493768], [-111.8111273, 41.7494898], [-111.8109922, 41.7496477], [-111.8108472, 41.7497656], [-111.810647, 41.749881], [-111.8104434, 41.7499502], [-111.8101747, 41.7500037], [-111.8100229, 41.750144], [-111.8048343, 41.7500733], [-111.8045746, 41.7501478], [-111.8044513, 41.7501545], [-111.8043633, 41.7501161], [-111.8043243, 41.7500679], [-111.804298, 41.7500044], [-111.8043197, 41.7496665], [-111.8042693, 41.7495387], [-111.8041715, 41.7494373], [-111.8040447, 41.7493755], [-111.803886, 41.7493491], [-111.8019192, 41.7493751], [-111.80192, 41.7493125], [-111.7996143, 41.7492902], [-111.7995381, 41.749432], [-111.7995454, 41.751117], [-111.8018588, 41.751085], [-111.80186, 41.7512016]], [[-111.7869916, 41.7442526], [-111.7875048, 41.7447374], [-111.7875863, 41.7448943], [-111.7877641, 41.7449023], [-111.7879645, 41.7451508], [-111.7881325, 41.7455049], [-111.7885186, 41.7456368], [-111.7888134, 41.7458325], [-111.7891965, 41.7458919], [-111.7896652, 41.7458831], [-111.7897401, 41.7474443], [-111.787022, 41.7474827], [-111.7870226, 41.7472633], [-111.7869296, 41.7452224], [-111.7864956, 41.7443855], [-111.7869916, 41.7442526]]]]}}