{"type": "Feature", "properties": {"market_key": 2397, "university": "James Madison University", "osm_type": "relation", "osm_id": 7029893, "osm_name": "James Madison University"}, "geometry": {"type": "MultiPolygon", "coordinates": [[[[-78.8739427, 38.4299556], [-78.8730839, 38.4306344], [-78.8721962, 38.4313262], [-78.8718027, 38.4316328], [-78.8712953, 38.4312441], [-78.8702542, 38.4304677], [-78.8698728, 38.4301807], [-78.870374, 38.4298617], [-78.870994, 38.4294309], [-78.8698245, 38.4288777], [-78.8673358, 38.4276713], [-78.8663241, 38.4271592], [-78.8654083, 38.4267747], [-78.8662202, 38.4264734], [-78.8674826, 38.4260025], [-78.8672843, 38.4256693], [-78.867084, 38.4256121], [-78.8669996, 38.425525], [-78.8665417, 38.4250523], [-78.865767, 38.4241736], [-78.8657821, 38.4240733], [-78.8676529, 38.4233991], [-78.8683401, 38.423407], [-78.8691628, 38.4231261], [-78.8707837, 38.4225623], [-78.8703002, 38.4220561], [-78.8708623, 38.4218478], [-78.8704324, 38.4213085], [-78.8700511, 38.4207786], [-78.8690682, 38.4190393], [-78.8689725, 38.4190237], [-78.868174, 38.4194247], [-78.8660938, 38.420556], [-78.8649002, 38.4212203], [-78.8639601, 38.4217256], [-78.8635307, 38.4220041], [-78.8630985, 38.4223492], [-78.862299, 38.4232169], [-78.8617992, 38.4237435], [-78.8619826, 38.4238261], [-78.8635122, 38.4233079], [-78.8635771, 38.4232052], [-78.863678, 38.4231479], [-78.8638435, 38.4231501], [-78.8639343, 38.423214], [-78.8640434, 38.4233885], [-78.8617559, 38.4242119], [-78.8620298, 38.4246285], [-78.8633801, 38.4267783], [-78.863764, 38.4273734], [-78.8632508, 38.4275471], [-78.862777, 38.4277002], [-78.8607787, 38.4265924], [-78.8597001, 38.4259864], [-78.8593259, 38.42579], [-78.8591234, 38.4256707], [-78.8588055, 38.4257586], [-78.8580627, 38.4259428], [-78.8577383, 38.4264628], [-78.8580168, 38.4267172], [-78.8599843, 38.4285448], [-78.8594128, 38.4291123], [-78.8595149, 38.4291844], [-78.8596616, 38.4292881], [-78.8598499, 38.4294708], [-78.8600651, 38.429744], [-78.8602365, 38.4299148], [-78.8604219, 38.4300164], [-78.8606408, 38.4301129], [-78.861025, 38.4302108], [-78.8612036, 38.4302151], [-78.8613957, 38.4302035], [-78.8615897, 38.430166], [-78.861652, 38.430154], [-78.8618886, 38.4303184], [-78.861425, 38.4304226], [-78.8610624, 38.4304188], [-78.8608662, 38.4303964], [-78.8605229, 38.4303261], [-78.8601372, 38.4301326], [-78.859879, 38.4299241], [-78.8596548, 38.4296476], [-78.8594238, 38.4293976], [-78.8591419, 38.4292214], [-78.85886, 38.4291103], [-78.8587631, 38.4290846], [-78.8586439, 38.4290529], [-78.8583802, 38.4290142], [-78.85729, 38.429029], [-78.8573089, 38.4298863], [-78.8573269, 38.4303372], [-78.8556164, 38.4305107], [-78.8556419, 38.4308401], [-78.8557346, 38.4319447], [-78.8557241, 38.4323768], [-78.8556713, 38.432679], [-78.8555905, 38.4329757], [-78.8556319, 38.4329825], [-78.8555245, 38.4333847], [-78.8554869, 38.4336591], [-78.8553678, 38.4339471], [-78.8552802, 38.4342491], [-78.8551437, 38.4347192], [-78.8550767, 38.4355437], [-78.855374, 38.4356571], [-78.8568694, 38.4353542], [-78.8579216, 38.4351882], [-78.8591038, 38.4350117], [-78.860384, 38.4351719], [-78.8620501, 38.4351424], [-78.8635653, 38.4349038], [-78.8650516, 38.4348531], [-78.8653952, 38.4348023], [-78.8667505, 38.4344941], [-78.8672999, 38.4343309], [-78.8680242, 38.4341037], [-78.8690326, 38.4337248], [-78.8699211, 38.4333103], [-78.8706317, 38.432944], [-78.8714367, 38.4322851], [-78.8724481, 38.4317669], [-78.8730438, 38.4312953], [-78.873994, 38.4300992], [-78.8739427, 38.4299556]]], [[[-78.8748173, 38.4409938], [-78.8743539, 38.4414258], [-78.8743539, 38.4414725], [-78.874862, 38.441751], [-78.8760398, 38.4423966], [-78.8764236, 38.442606], [-78.876887, 38.4421228], [-78.8768273, 38.4420894], [-78.8772339, 38.4416574], [-78.8776177, 38.4412165], [-78.8778423, 38.4409626], [-78.8779121, 38.4408715], [-78.8783625, 38.4402834], [-78.8773106, 38.4398002], [-78.8772992, 38.4398203], [-78.8770718, 38.43972], [-78.8764776, 38.4394306], [-78.8758436, 38.4400184], [-78.8756645, 38.4401743], [-78.8752939, 38.4405323], [-78.8751158, 38.4407043], [-78.8748173, 38.4409938]]], [[[-78.8777304, 38.4392541], [-78.8770995, 38.4388458], [-78.8770696, 38.4388718], [-78.8771991, 38.4391631], [-78.8773518, 38.4393893], [-78.8774614, 38.4395038], [-78.8777304, 38.4392541]]], [[[-78.878449, 38.4401703], [-78.8790179, 38.4392953], [-78.8783666, 38.438853], [-78.8775668, 38.4396085], [-78.8777812, 38.4397861], [-78.8782346, 38.4400864], [-78.878449, 38.4401703]]], [[[-78.8790439, 38.440481], [-78.8787244, 38.4406388], [-78.8784196, 38.4408159], [-78.8784835, 38.4408699], [-78.8781935, 38.4412472], [-78.8778445, 38.4416361], [-78.8778297, 38.4417439], [-78.877697, 38.4418902], [-78.8774758, 38.4417323], [-78.8768745, 38.4423522], [-78.8765281, 38.4426853], [-78.8774119, 38.4431646], [-78.8778445, 38.4427526], [-78.8778841, 38.4427852], [-78.8787795, 38.4419001], [-78.8788658, 38.4416445], [-78.8789036, 38.4413952], [-78.8790427, 38.4413229], [-78.8793831, 38.4407897], [-78.8793055, 38.4406917], [-78.8794268, 38.4404826], [-78.8794754, 38.4404509], [-78.8793729, 38.4404382], [-78.8790439, 38.440481]]], [[[-78.8799951, 38.4269594], [-78.8786149, 38.4259555], [-78.8774524, 38.4274338], [-78.8767206, 38.4288097], [-78.8766205, 38.4296002], [-78.8765052, 38.4296863], [-78.8766323, 38.4298725], [-78.8768833, 38.4302381], [-78.8773305, 38.4306975], [-78.877607, 38.4305044], [-78.8786856, 38.4297481], [-78.8780246, 38.4291155], [-78.8778587, 38.4292162], [-78.8774979, 38.4288845], [-78.8776536, 38.4287755], [-78.8775854, 38.4287068], [-78.8789739, 38.4276912], [-78.8799951, 38.4269594]]], [[[-78.8663216, 38.4353113], [-78.8661802, 38.4353437], [-78.865733, 38.435445], [-78.8645551, 38.4356339], [-78.8634229, 38.4357649], [-78.8625017, 38.435813], [-78.8625211, 38.4362973], [-78.8626089, 38.4364458], [-78.8622016, 38.4364513], [-78.8621617, 38.4365134], [-78.8621779, 38.4367044], [-78.862234, 38.4369329], [-78.8623061, 38.4371488], [-78.862382, 38.4373005], [-78.8625755, 38.4377418], [-78.8627968, 38.4382081], [-78.8668328, 38.437439], [-78.8669794, 38.4375712], [-78.864456, 38.4380723], [-78.8645226, 38.4383333], [-78.8647403, 38.438382], [-78.8657239, 38.438659], [-78.8658412, 38.438692], [-78.8659887, 38.4387335], [-78.8678324, 38.4392415], [-78.8679474, 38.4392783], [-78.8684188, 38.4394294], [-78.8688773, 38.4396536], [-78.8692394, 38.4398742], [-78.8701414, 38.4404703], [-78.870936, 38.4410061], [-78.8711942, 38.4411453], [-78.8711707, 38.441182], [-78.8711774, 38.4412135], [-78.8715865, 38.4414735], [-78.8722973, 38.4418937], [-78.8724357, 38.4419773], [-78.8726473, 38.4417408], [-78.8729252, 38.4414776], [-78.8730406, 38.4413682], [-78.8733804, 38.4410463], [-78.873947, 38.4414345], [-78.8740872, 38.4413026], [-78.8748187, 38.4406095], [-78.8750396, 38.4404047], [-78.8751289, 38.4403206], [-78.875952, 38.4395538], [-78.8765923, 38.4389386], [-78.8768772, 38.4386649], [-78.876988, 38.4385584], [-78.8770283, 38.4385558], [-78.8776654, 38.4379568], [-78.8769307, 38.4374648], [-78.8764735, 38.4371605], [-78.8757904, 38.4367158], [-78.8755922, 38.436591], [-78.8753143, 38.436435], [-78.8749331, 38.4362941], [-78.8750596, 38.4361884], [-78.8751299, 38.4361237], [-78.8752655, 38.4360117], [-78.8752326, 38.4359581], [-78.8750562, 38.4356834], [-78.8755306, 38.4352682], [-78.8753301, 38.4351429], [-78.8760547, 38.4344562], [-78.8765037, 38.4340374], [-78.876897, 38.4336628], [-78.8766508, 38.4335008], [-78.8768606, 38.433324], [-78.8766116, 38.4331719], [-78.8766044, 38.4329125], [-78.8766735, 38.4327576], [-78.8770778, 38.432382], [-78.8765857, 38.4318086], [-78.87618, 38.4313148], [-78.8760258, 38.4310994], [-78.8759478, 38.4309613], [-78.8758749, 38.4308105], [-78.8757865, 38.4305932], [-78.8754979, 38.430566], [-78.8750661, 38.4310283], [-78.8740754, 38.431502], [-78.8730205, 38.4322981], [-78.871914, 38.4330641], [-78.8706532, 38.4337393], [-78.8697012, 38.4342029], [-78.8687363, 38.4345959], [-78.8676299, 38.4349688], [-78.8668065, 38.4352005], [-78.8663216, 38.4353113]]], [[[-78.877219, 38.4387235], [-78.8774769, 38.4384763], [-78.8776352, 38.4383246], [-78.8782584, 38.4387651], [-78.8778632, 38.4391345], [-78.877219, 38.4387235]]]]}}