{"type": "Feature", "properties": {"market_key": 2399, "university": "Radford University", "osm_type": "relation", "osm_id": 11106846, "osm_name": "Radford University"}, "geometry": {"type": "MultiPolygon", "coordinates": [[[[-80.5459375, 37.1376249], [-80.5464793, 37.1369706], [-80.5461866, 37.1367754], [-80.5460915, 37.1367212], [-80.5463644, 37.1364171], [-80.5467549, 37.1366398], [-80.546758, 37.1366444], [-80.5467905, 37.1366626], [-80.549864, 37.1331903], [-80.5503039, 37.1328139], [-80.5523692, 37.1346999], [-80.5525248, 37.1348881], [-80.5526052, 37.1350891], [-80.5526484, 37.1355465], [-80.5529272, 37.135524], [-80.5529575, 37.1357505], [-80.552675, 37.1357648], [-80.552749, 37.1365518], [-80.5527808, 37.1368898], [-80.553121, 37.1368616], [-80.5534584, 37.1368337], [-80.5534957, 37.1370777], [-80.5531145, 37.1370946], [-80.5528198, 37.1371076], [-80.5531404, 37.1398141], [-80.553147, 37.1398702], [-80.5535818, 37.1404729], [-80.5536298, 37.140935], [-80.5535494, 37.1410248], [-80.5531578, 37.1410333], [-80.552793, 37.1411445], [-80.5526055, 37.1411697], [-80.5524282, 37.1411744], [-80.5520261, 37.1411227], [-80.551961, 37.1411046], [-80.5515967, 37.1410034], [-80.5510871, 37.1408452], [-80.5510303, 37.1408244], [-80.5510021, 37.1408141], [-80.5503629, 37.14058], [-80.5501376, 37.1404689], [-80.5499555, 37.1403575], [-80.5498536, 37.1402548], [-80.5494727, 37.13987], [-80.5490379, 37.1404432], [-80.5465917, 37.1390662], [-80.5470319, 37.1385614], [-80.5457495, 37.1378603], [-80.5459375, 37.1376249]]], [[[-80.5570685, 37.1440348], [-80.557103, 37.144955], [-80.556586, 37.145246], [-80.556398, 37.145334], [-80.556241, 37.145396], [-80.555998, 37.145476], [-80.555789, 37.14553], [-80.555487, 37.145591], [-80.555161, 37.145645], [-80.555005, 37.145671], [-80.5549096, 37.1456844], [-80.554542, 37.145736], [-80.554407, 37.145739], [-80.554299, 37.145731], [-80.554193, 37.145714], [-80.553815, 37.145622], [-80.553422, 37.145512], [-80.553248, 37.145479], [-80.553137, 37.145465], [-80.5516, 37.145289], [-80.551078, 37.145265], [-80.549553, 37.145235], [-80.549438, 37.14522], [-80.549327, 37.14519], [-80.549298, 37.145179], [-80.5479495, 37.1448643], [-80.5462356, 37.1439805], [-80.5447416, 37.1427006], [-80.5455123, 37.1416824], [-80.5445455, 37.1410916], [-80.5425261, 37.1398563], [-80.541598, 37.140725], [-80.5385832, 37.138784], [-80.5369095, 37.1378859], [-80.5361692, 37.1375096], [-80.5352251, 37.1364148], [-80.5347316, 37.135397], [-80.536298, 37.1349266], [-80.5366735, 37.1349095], [-80.5371134, 37.134824], [-80.5374674, 37.1348496], [-80.5376927, 37.1349266], [-80.5396695, 37.1357785], [-80.541995, 37.1370307], [-80.5435829, 37.1379202], [-80.5434327, 37.1381596], [-80.5470054, 37.1401524], [-80.5523397, 37.1431815], [-80.55188, 37.143145], [-80.551696, 37.1431298], [-80.5515544, 37.1440433], [-80.553035, 37.1441374], [-80.5538718, 37.1442742], [-80.5570685, 37.1440348]]]]}}