{"type": "Feature", "properties": {"market_key": 2400, "university": "Virginia Polytechnic Institute and State University", "osm_type": "relation", "osm_id": 1214378, "osm_name": "Virginia Tech"}, "geometry": {"type": "MultiPolygon", "coordinates": [[[[-80.4144376, 37.2266703], [-80.414129, 37.2268784], [-80.4145084, 37.2272351], [-80.414817, 37.227027], [-80.4144376, 37.2266703]]], [[[-80.4152888, 37.2279123], [-80.4155403, 37.2277355], [-80.4158171, 37.2279949], [-80.4155567, 37.2281694], [-80.4152888, 37.2279123]]], [[[-80.4149646, 37.2285663], [-80.4147962, 37.2286792], [-80.4147593, 37.2286797], [-80.4147305, 37.2286722], [-80.4145333, 37.2284869], [-80.4145293, 37.2284688], [-80.4145367, 37.228449], [-80.4145541, 37.2284287], [-80.4147099, 37.2283193], [-80.4149646, 37.2285663]]], [[[-80.4144877, 37.2276382], [-80.4140043, 37.2279797], [-80.4140773, 37.2280353], [-80.414084, 37.2280785], [-80.414416, 37.2283759], [-80.4144602, 37.2283882], [-80.4149315, 37.2280594], [-80.4144877, 37.2276382]]], [[[-80.4387065, 37.234509], [-80.4374982, 37.2344083], [-80.4369696, 37.2343615], [-80.4367701, 37.234375], [-80.4361491, 37.2347283], [-80.4358453, 37.2346777], [-80.4351117, 37.2334013], [-80.4345017, 37.2322344], [-80.4342373, 37.231745], [-80.4342405, 37.2316989], [-80.4342639, 37.2316653], [-80.4343046, 37.2316379], [-80.4345736, 37.2315619], [-80.4348098, 37.2314785], [-80.4350304, 37.2313863], [-80.4352556, 37.2312705], [-80.4356466, 37.2310376], [-80.4364615, 37.230527], [-80.4371753, 37.2300825], [-80.4378689, 37.2296491], [-80.4381784, 37.2294462], [-80.4384624, 37.2292723], [-80.4387592, 37.2290186], [-80.4388629, 37.2289215], [-80.4389216, 37.2288994], [-80.4390813, 37.228983], [-80.439384, 37.2292421], [-80.4395114, 37.2293798], [-80.4398596, 37.2298944], [-80.4399484, 37.2301481], [-80.4400394, 37.2307659], [-80.4400052, 37.2310323], [-80.4399401, 37.2312923], [-80.4398769, 37.231545], [-80.439708, 37.2321042], [-80.4395979, 37.2323711], [-80.4393361, 37.2331582], [-80.4388198, 37.2342999], [-80.4387065, 37.234509]]], [[[-80.4161425, 37.224247], [-80.4162243, 37.224319], [-80.4164379, 37.2246447], [-80.4160242, 37.2249262], [-80.4163357, 37.2252421], [-80.4164277, 37.2253354], [-80.4158471, 37.225736], [-80.4158369, 37.2257504], [-80.4158279, 37.2257684], [-80.415832, 37.2257863], [-80.4158414, 37.2258001], [-80.4168553, 37.2267708], [-80.4159597, 37.2273796], [-80.4163431, 37.2277879], [-80.414855, 37.2287802], [-80.41554, 37.2294029], [-80.4159778, 37.2296597], [-80.4163353, 37.2294293], [-80.4166474, 37.2297421], [-80.4167205, 37.2298153], [-80.4154737, 37.2306127], [-80.4159827, 37.2312983], [-80.4160991, 37.2314405], [-80.4161668, 37.2315473], [-80.4163214, 37.2316929], [-80.4165244, 37.2318843], [-80.4176456, 37.2327976], [-80.4176835, 37.232808], [-80.4177242, 37.2328051], [-80.4177593, 37.2327947], [-80.4184172, 37.2324038], [-80.4184957, 37.2323529], [-80.4185823, 37.2322854], [-80.4188501, 37.2320962], [-80.4189188, 37.2320779], [-80.4189723, 37.232068], [-80.4190084, 37.2320634], [-80.4190447, 37.2320617], [-80.4190922, 37.232061], [-80.4191364, 37.2320698], [-80.4191773, 37.2320836], [-80.4191917, 37.2320916], [-80.4192442, 37.2321206], [-80.4193558, 37.2321788], [-80.4194708, 37.2322422], [-80.4195695, 37.2322931], [-80.4196616, 37.2323408], [-80.419688, 37.2323521], [-80.4197682, 37.2323865], [-80.4198394, 37.2324115], [-80.4201338, 37.2325111], [-80.4202859, 37.2325562], [-80.4202393, 37.2326508], [-80.41997, 37.2332288], [-80.4198649, 37.2334761], [-80.4198483, 37.2335379], [-80.4200842, 37.2337999], [-80.4202144, 37.2339444], [-80.4202408, 37.2340651], [-80.4203175, 37.2340576], [-80.4204542, 37.2340653], [-80.4205837, 37.2341004], [-80.4206276, 37.2341045], [-80.4207295, 37.2341], [-80.4208787, 37.2340315], [-80.4209501, 37.2339567], [-80.4210714, 37.233694], [-80.4213673, 37.2329662], [-80.4214058, 37.2328714], [-80.4219136, 37.2329934], [-80.4221533, 37.2330565], [-80.4223024, 37.2330957], [-80.4238531, 37.2335064], [-80.4246282, 37.233367], [-80.4247712, 37.2333288], [-80.4251966, 37.2331549], [-80.4258243, 37.232841], [-80.4265223, 37.232491], [-80.4267918, 37.2323553], [-80.4269828, 37.2322587], [-80.4272114, 37.2321438], [-80.4277675, 37.2318685], [-80.427962, 37.2317711], [-80.4281023, 37.2317008], [-80.4281613, 37.2316707], [-80.4283714, 37.2315783], [-80.4285418, 37.2315127], [-80.4286302, 37.2314819], [-80.4289863, 37.2313793], [-80.4291308, 37.2313465], [-80.429405, 37.231299], [-80.4294049, 37.2313139], [-80.4295426, 37.2312933], [-80.4296475, 37.2312819], [-80.4298213, 37.231269], [-80.429942, 37.2312598], [-80.4300892, 37.2312604], [-80.4302239, 37.231261], [-80.4303656, 37.2312678], [-80.4305566, 37.2312812], [-80.4307038, 37.2312953], [-80.4309373, 37.2313197], [-80.4312581, 37.2313558], [-80.4315545, 37.2313903], [-80.4319317, 37.2314281], [-80.4321109, 37.2314473], [-80.4322237, 37.2314615], [-80.4323052, 37.2314713], [-80.4323951, 37.2314798], [-80.432504, 37.2314913], [-80.4325629, 37.2314978], [-80.4326443, 37.2315061], [-80.4327117, 37.2315119], [-80.432782, 37.2315181], [-80.4328874, 37.2314796], [-80.4329458, 37.2314845], [-80.4330774, 37.2314902], [-80.4331649, 37.2314921], [-80.4332899, 37.231491], [-80.433365, 37.231488], [-80.4334446, 37.2314834], [-80.4335525, 37.2314761], [-80.4339407, 37.2314493], [-80.4341207, 37.23142], [-80.43434, 37.2313624], [-80.4345225, 37.231302], [-80.4348928, 37.2311799], [-80.4350685, 37.231095], [-80.4352675, 37.2309818], [-80.4364203, 37.2302621], [-80.437841, 37.2293768], [-80.4383215, 37.2290101], [-80.438547, 37.2287873], [-80.4386523, 37.2286794], [-80.4387323, 37.2285655], [-80.438976, 37.2282537], [-80.439031, 37.2281728], [-80.4391008, 37.2280895], [-80.4391629, 37.2280125], [-80.4392303, 37.2279264], [-80.4392882, 37.2278365], [-80.4393857, 37.2276884], [-80.4395296, 37.2274324], [-80.4396728, 37.2271347], [-80.4397866, 37.2267102], [-80.4398959, 37.2263143], [-80.4400315, 37.225771], [-80.4399986, 37.2252412], [-80.4399881, 37.2251759], [-80.4399062, 37.2246664], [-80.4395663, 37.2236242], [-80.4393757, 37.223096], [-80.4391184, 37.2223436], [-80.4387445, 37.2215099], [-80.4382241, 37.2205845], [-80.437735, 37.2198287], [-80.4372755, 37.2191746], [-80.4357784, 37.2174153], [-80.434868, 37.2164429], [-80.4336974, 37.2151465], [-80.4321078, 37.2134391], [-80.4316604, 37.2130721], [-80.4309698, 37.2124445], [-80.4300918, 37.2117045], [-80.4283424, 37.2103095], [-80.4267347, 37.2092497], [-80.4247944, 37.2123044], [-80.4244436, 37.2129324], [-80.4230051, 37.2152002], [-80.4228379, 37.215132], [-80.4192895, 37.2136849], [-80.4188161, 37.2136962], [-80.4180424, 37.2133742], [-80.4180078, 37.2132258], [-80.4141251, 37.2120323], [-80.4139868, 37.2119899], [-80.4132956, 37.2146167], [-80.4135451, 37.2149029], [-80.4144212, 37.2161778], [-80.4146974, 37.2165452], [-80.4150219, 37.2171645], [-80.4150367, 37.2172745], [-80.4151636, 37.2183531], [-80.4128596, 37.2190521], [-80.4126665, 37.2190414], [-80.4120662, 37.2192167], [-80.4120115, 37.2193451], [-80.4118999, 37.2198235], [-80.4118735, 37.2200192], [-80.4120365, 37.2205292], [-80.4121124, 37.2205064], [-80.4153133, 37.2195459], [-80.4157848, 37.2230657], [-80.4154076, 37.2233578], [-80.4155658, 37.2236008], [-80.4160224, 37.2238122], [-80.4161425, 37.224247]]], [[[-80.4253319, 37.2340507], [-80.4250776, 37.2335926], [-80.4250525, 37.2335621], [-80.4250228, 37.2335462], [-80.4249887, 37.2335385], [-80.4249447, 37.2335378], [-80.4248939, 37.2335539], [-80.4248005, 37.2335795], [-80.4247085, 37.2336023], [-80.4246413, 37.2336159], [-80.4244168, 37.2336525], [-80.4244498, 37.233871], [-80.4245326, 37.2338654], [-80.4245616, 37.2340541], [-80.4249029, 37.2340185], [-80.4249941, 37.2341674], [-80.4253319, 37.2340507]]]]}}