{"type": "Feature", "properties": {"market_key": 2402, "university": "Central Washington University", "osm_type": "way", "osm_id": 541752353, "osm_name": "Central Washington University"}, "geometry": {"type": "Polygon", "coordinates": [[[-120.5446227, 46.9987702], [-120.543431, 46.9987835], [-120.543466, 46.9992286], [-120.5434632, 46.9993269], [-120.5434489, 46.9993885], [-120.5421406, 46.9994195], [-120.5421626, 46.9998434], [-120.5414155, 46.9998565], [-120.5413931, 46.9992171], [-120.5419566, 46.999214], [-120.5419472, 46.9988117], [-120.5394158, 46.9989108], [-120.539377, 46.9998913], [-120.5382148, 46.9999385], [-120.5380041, 46.9999572], [-120.5377346, 46.9999951], [-120.5374674, 47.000051], [-120.5375112, 47.0009794], [-120.53644, 47.0010031], [-120.5362819, 47.0010066], [-120.5356649, 47.0010255], [-120.5355536, 47.0010511], [-120.5354423, 47.001095], [-120.5352519, 47.0011901], [-120.5350024, 47.0013492], [-120.5350075, 47.0017146], [-120.5350109, 47.0019362], [-120.5350132, 47.0020773], [-120.5340878, 47.0020955], [-120.5340073, 47.0020892], [-120.5339295, 47.0020627], [-120.5338799, 47.0020389], [-120.5338303, 47.0020078], [-120.5337889, 47.0020068], [-120.533745, 47.0020199], [-120.5337145, 47.0020431], [-120.5337074, 47.0020698], [-120.5337847, 47.0031491], [-120.5332287, 47.0031672], [-120.5332504, 47.0036532], [-120.5330537, 47.0036516], [-120.5330656, 47.0038028], [-120.5328614, 47.0037194], [-120.5328272, 47.0031762], [-120.5318604, 47.0031922], [-120.5320017, 47.0063208], [-120.5307392, 47.0063367], [-120.5301549, 47.0064184], [-120.529885, 47.0064403], [-120.5288307, 47.0064976], [-120.5269843, 47.0087731], [-120.5275919, 47.0087759], [-120.5268785, 47.0098001], [-120.5262513, 47.0097946], [-120.5261336, 47.0097487], [-120.5255533, 47.0104506], [-120.5225212, 47.0104325], [-120.5195135, 47.014141], [-120.5291809, 47.0140049], [-120.5291647, 47.0126294], [-120.5291467, 47.0113495], [-120.5316786, 47.0113344], [-120.5316732, 47.0103558], [-120.5397025, 47.0102847], [-120.543175, 47.0103431], [-120.544999, 47.0103834], [-120.5449744, 47.0094392], [-120.5447502, 47.0093719], [-120.544526, 47.0092847], [-120.5440631, 47.0090462], [-120.5432751, 47.0086235], [-120.5432885, 47.00669], [-120.5434835, 47.0066906], [-120.5441055, 47.0066925], [-120.5440996, 47.0061585], [-120.5440874, 47.0050481], [-120.5448458, 47.0050454], [-120.5448399, 47.0056942], [-120.5459675, 47.0056941], [-120.5472028, 47.0056939], [-120.5472958, 47.0056939], [-120.5472801, 47.005315], [-120.5471838, 47.0052718], [-120.5471748, 47.0048647], [-120.5459593, 47.0043178], [-120.5466434, 47.0034904], [-120.546636, 47.003317], [-120.5451012, 47.0033445], [-120.5450864, 47.002893], [-120.5431697, 47.0029241], [-120.5431938, 47.002342], [-120.544238, 47.0023199], [-120.5442151, 47.0018873], [-120.5431643, 47.0018988], [-120.5431402, 47.0007328], [-120.543967, 47.0007218], [-120.543966, 47.0006941], [-120.5439589, 47.0005257], [-120.5439586, 47.0004398], [-120.544112, 47.0004365], [-120.5441056, 47.0002828], [-120.5441027, 47.0002488], [-120.5444952, 47.0002379], [-120.5444921, 47.000173], [-120.5445877, 47.0001696], [-120.5445709, 46.9997832], [-120.5445661, 46.9996725], [-120.5447072, 46.9996658], [-120.5446227, 46.9987702]]]}}