{"type": "Feature", "properties": {"market_key": 2403, "university": "Washington State University", "osm_type": "relation", "osm_id": 6954348, "osm_name": "Washington State University"}, "geometry": {"type": "MultiPolygon", "coordinates": [[[[-117.1175763, 46.7299476], [-117.1227736, 46.7299599], [-117.1226706, 46.7310924], [-117.1220603, 46.7317222], [-117.1219056, 46.7319187], [-117.1217809, 46.7324354], [-117.1218734, 46.7332171], [-117.1172283, 46.734666], [-117.1173086, 46.7334111], [-117.1175763, 46.7299476]]], [[[-117.1713431, 46.729232], [-117.1712992, 46.7288054], [-117.1713646, 46.7289027], [-117.1717066, 46.7292456], [-117.1713946, 46.7292343], [-117.1713431, 46.729232]]], [[[-117.1610461, 46.745419], [-117.1614264, 46.7451839], [-117.1620117, 46.7455464], [-117.1621512, 46.7454264], [-117.1632952, 46.7451346], [-117.1636268, 46.7449864], [-117.1639489, 46.7448645], [-117.1640978, 46.7446433], [-117.1641719, 46.7443148], [-117.1641872, 46.7440442], [-117.16419, 46.7436526], [-117.1641938, 46.7435521], [-117.1639812, 46.7435545], [-117.1637542, 46.7435657], [-117.1635368, 46.7435838], [-117.1633992, 46.7435984], [-117.1629657, 46.74367], [-117.1622459, 46.743846], [-117.1619336, 46.7439237], [-117.1616371, 46.7439872], [-117.1614137, 46.7440235], [-117.161215, 46.7440567], [-117.1609935, 46.7440759], [-117.1608102, 46.7440879], [-117.1605338, 46.7441023], [-117.1602877, 46.744103], [-117.1595172, 46.7440965], [-117.1594295, 46.7440969], [-117.1594339, 46.7441842], [-117.1594339, 46.7441908], [-117.1594328, 46.7446328], [-117.159444, 46.7454288], [-117.1610461, 46.745419]]], [[[-117.1678302, 46.7321417], [-117.167886, 46.7322504], [-117.1679096, 46.7323266], [-117.1679212, 46.7323844], [-117.1679148, 46.7324626], [-117.1678998, 46.7326067], [-117.1678641, 46.7330202], [-117.1677301, 46.7330428], [-117.1675348, 46.7330498], [-117.1674055, 46.7330401], [-117.1672952, 46.7330314], [-117.1672061, 46.7330244], [-117.1671661, 46.733409], [-117.1664984, 46.7333793], [-117.1664765, 46.7337436], [-117.16628, 46.7337365], [-117.1662839, 46.7336943], [-117.1657322, 46.7336729], [-117.1656601, 46.7344769], [-117.1648907, 46.7344411], [-117.1648134, 46.7344526], [-117.164743, 46.7344766], [-117.164695, 46.7345142], [-117.1646719, 46.7345445], [-117.1646525, 46.7345886], [-117.1646589, 46.7346444], [-117.1647489, 46.7350187], [-117.1628482, 46.7350139], [-117.161439, 46.7350091], [-117.1614508, 46.7362045], [-117.1613724, 46.7361908], [-117.1611488, 46.7361457], [-117.1610256, 46.7361163], [-117.1607509, 46.7360392], [-117.1606305, 46.7359989], [-117.1604783, 46.735942], [-117.1603631, 46.7358885], [-117.1602249, 46.7358246], [-117.1601297, 46.7357746], [-117.160035, 46.7357153], [-117.1599707, 46.7356722], [-117.1598961, 46.7356157], [-117.1597871, 46.735538], [-117.1597311, 46.7354952], [-117.1596277, 46.7353703], [-117.1595359, 46.7352575], [-117.1593724, 46.7354591], [-117.1591267, 46.7357067], [-117.1590589, 46.7357566], [-117.1588985, 46.7358295], [-117.1587535, 46.7358787], [-117.1582123, 46.7359669], [-117.1579069, 46.736008], [-117.1575635, 46.7360604], [-117.1573686, 46.7361594], [-117.1573257, 46.736194], [-117.1571982, 46.7362912], [-117.1561745, 46.7371542], [-117.1558448, 46.7374297], [-117.1557723, 46.7375154], [-117.1557145, 46.7376067], [-117.1556923, 46.7377202], [-117.1556378, 46.738687], [-117.155625, 46.7388122], [-117.1555086, 46.7391542], [-117.1553658, 46.7395423], [-117.1553504, 46.7396037], [-117.1553595, 46.739656], [-117.1553905, 46.7397322], [-117.1554461, 46.7398046], [-117.1555569, 46.7398773], [-117.1556615, 46.7399113], [-117.1557462, 46.7399269], [-117.1560852, 46.7399259], [-117.156443, 46.7399213], [-117.1572717, 46.7399144], [-117.1574719, 46.7399163], [-117.1576557, 46.7399415], [-117.1578605, 46.7399915], [-117.1582078, 46.7400821], [-117.1586668, 46.740193], [-117.1591701, 46.7403199], [-117.1595694, 46.7404281], [-117.1602836, 46.7403754], [-117.1616185, 46.7402651], [-117.1623175, 46.7402094], [-117.1627925, 46.7401681], [-117.1630098, 46.7401664], [-117.1632023, 46.7401307], [-117.1632387, 46.7401437], [-117.1633395, 46.7402082], [-117.1634142, 46.740243], [-117.1635206, 46.7402716], [-117.1636208, 46.7402791], [-117.1640679, 46.7402896], [-117.1642548, 46.7403264], [-117.1644583, 46.7404092], [-117.164575, 46.7405115], [-117.164656, 46.7406225], [-117.1646928, 46.7406949], [-117.1646956, 46.7409362], [-117.1646703, 46.7413021], [-117.1646214, 46.7421228], [-117.1646001, 46.7422209], [-117.1645294, 46.7423675], [-117.1644223, 46.7424747], [-117.164315, 46.7425533], [-117.1641645, 46.7426278], [-117.1637408, 46.7427781], [-117.1636926, 46.7427564], [-117.1636162, 46.7427178], [-117.1635328, 46.7426757], [-117.1634547, 46.7426589], [-117.1633283, 46.7426316], [-117.1632342, 46.7426289], [-117.1628613, 46.7426184], [-117.1616214, 46.7425888], [-117.1608115, 46.7425695], [-117.160727, 46.7425675], [-117.1600682, 46.7425517], [-117.1597427, 46.7425497], [-117.1596342, 46.742549], [-117.1595615, 46.7425486], [-117.1594064, 46.7425495], [-117.1594116, 46.7422637], [-117.1588299, 46.7422855], [-117.1581173, 46.742292], [-117.1574378, 46.7422447], [-117.1573837, 46.7422448], [-117.1545688, 46.742248], [-117.1534519, 46.7422082], [-117.1516245, 46.742218], [-117.1450126, 46.7422499], [-117.1425226, 46.7422418], [-117.1381491, 46.7422251], [-117.138301, 46.745933], [-117.127709, 46.7460466], [-117.1277418, 46.7421896], [-117.122925, 46.7422051], [-117.1229196, 46.7421074], [-117.1230877, 46.7420315], [-117.1232298, 46.7419605], [-117.1233252, 46.741904], [-117.123417, 46.74185], [-117.1235662, 46.7417508], [-117.1236489, 46.7416889], [-117.123728, 46.7416257], [-117.1238504, 46.7415185], [-117.1239629, 46.7414045], [-117.1240693, 46.7412817], [-117.1241639, 46.7411644], [-117.1244895, 46.7407498], [-117.1246368, 46.740571], [-117.1247964, 46.7403963], [-117.1249615, 46.7402456], [-117.125101, 46.7401366], [-117.1251275, 46.7401159], [-117.1252869, 46.7400131], [-117.1254338, 46.7399264], [-117.125574, 46.7398516], [-117.1256989, 46.7397934], [-117.126036, 46.7396504], [-117.1263, 46.7395468], [-117.1265082, 46.7394605], [-117.1270491, 46.7392393], [-117.1277109, 46.7389681], [-117.1278773, 46.7388924], [-117.128022, 46.7388203], [-117.1281471, 46.738752], [-117.1282479, 46.7386922], [-117.1284564, 46.7385559], [-117.1288216, 46.7382915], [-117.1290402, 46.7381297], [-117.1291585, 46.7380395], [-117.1292399, 46.7379815], [-117.1294133, 46.7378569], [-117.1294997, 46.737808], [-117.1295645, 46.7377776], [-117.1296259, 46.7377542], [-117.1296909, 46.7377376], [-117.1297851, 46.7377309], [-117.1299001, 46.7377341], [-117.1300976, 46.7377542], [-117.1302106, 46.7377655], [-117.1302439, 46.737652], [-117.1303267, 46.7374576], [-117.130435, 46.7372657], [-117.1305408, 46.7371247], [-117.1307101, 46.7369466], [-117.1309379, 46.7367516], [-117.1312011, 46.7365663], [-117.132221, 46.7358261], [-117.1324233, 46.7356655], [-117.132618, 46.7354967], [-117.132887, 46.7352131], [-117.1331036, 46.7349507], [-117.1333334, 46.7346414], [-117.1336003, 46.7342445], [-117.1338969, 46.7337996], [-117.1338432, 46.7336864], [-117.1333827, 46.7330354], [-117.1316175, 46.7326403], [-117.1290599, 46.7338012], [-117.1287251, 46.7337424], [-117.1272909, 46.7334898], [-117.1270328, 46.7334444], [-117.1252906, 46.7331376], [-117.1252259, 46.7331262], [-117.1244999, 46.7329983], [-117.124162, 46.7329388], [-117.1241571, 46.7328439], [-117.1227591, 46.7322175], [-117.1244498, 46.7299712], [-117.1285188, 46.7299816], [-117.1290281, 46.7299745], [-117.1292348, 46.7299259], [-117.1297928, 46.728137], [-117.129845, 46.7275199], [-117.1301237, 46.7272689], [-117.1323326, 46.7267425], [-117.1326247, 46.7266527], [-117.1328024, 46.7265425], [-117.1329037, 46.7226038], [-117.1313275, 46.7226219], [-117.1312401, 46.7226229], [-117.1319396, 46.7222946], [-117.1326078, 46.7220783], [-117.133561, 46.7217918], [-117.1345395, 46.721599], [-117.135418, 46.7215104], [-117.1362286, 46.721477], [-117.1371112, 46.721491], [-117.1385102, 46.7215559], [-117.139274, 46.7215948], [-117.1392693, 46.7216516], [-117.1392501, 46.7218812], [-117.1426879, 46.7220641], [-117.1459024, 46.7221851], [-117.1474016, 46.7222558], [-117.1492338, 46.7223094], [-117.1503075, 46.7223139], [-117.1517947, 46.7222634], [-117.153398, 46.7222296], [-117.1549046, 46.7221796], [-117.1551394, 46.722173], [-117.155158, 46.7218711], [-117.1563251, 46.7218832], [-117.157479, 46.7218601], [-117.1575124, 46.7218574], [-117.1577161, 46.7218546], [-117.1578942, 46.7218505], [-117.1581571, 46.7218236], [-117.1585438, 46.7217841], [-117.1588665, 46.7217502], [-117.1589027, 46.7217473], [-117.1589378, 46.7217449], [-117.1590681, 46.7217304], [-117.1592357, 46.7217209], [-117.1594457, 46.7217099], [-117.1595171, 46.721705], [-117.1595634, 46.7216993], [-117.1596643, 46.7216843], [-117.1598385, 46.7216597], [-117.1599683, 46.7216414], [-117.1601011, 46.7216274], [-117.1603631, 46.7216013], [-117.1604332, 46.7215927], [-117.1604258, 46.7216867], [-117.1607346, 46.7216524], [-117.1611486, 46.7216061], [-117.1613483, 46.7215837], [-117.1614197, 46.7215708], [-117.1614347, 46.7215682], [-117.1614616, 46.7215634], [-117.1614902, 46.7215582], [-117.1618514, 46.7214933], [-117.1620464, 46.7215035], [-117.162207, 46.7215197], [-117.1622711, 46.721528], [-117.1622981, 46.7215319], [-117.162536, 46.7215815], [-117.1625366, 46.7215742], [-117.1625665, 46.7215805], [-117.1626538, 46.7216016], [-117.1626625, 46.7216079], [-117.1627401, 46.7216241], [-117.1627842, 46.7216407], [-117.1627895, 46.7216394], [-117.1629167, 46.7216814], [-117.1630672, 46.721737], [-117.1631754, 46.7217884], [-117.1632409, 46.7218131], [-117.1635188, 46.7219669], [-117.1635465, 46.7219855], [-117.1635618, 46.7219943], [-117.1635881, 46.7220111], [-117.1636142, 46.7220278], [-117.1636401, 46.7220468], [-117.1636444, 46.72205], [-117.1636539, 46.7220569], [-117.1636624, 46.7220631], [-117.1636672, 46.7220666], [-117.1636782, 46.7220747], [-117.163688, 46.7220819], [-117.1636952, 46.7220874], [-117.1637005, 46.7220916], [-117.1637042, 46.722094], [-117.1637068, 46.7220961], [-117.1637128, 46.7221008], [-117.1637185, 46.7221054], [-117.163724, 46.7221102], [-117.1637811, 46.7221553], [-117.163847, 46.7222141], [-117.163902, 46.7222648], [-117.163979, 46.7223503], [-117.1640141, 46.7223901], [-117.1640375, 46.7224179], [-117.1640407, 46.7224208], [-117.1640427, 46.7224231], [-117.1640446, 46.7224252], [-117.1640723, 46.7224555], [-117.1641122, 46.7225083], [-117.1641542, 46.7225772], [-117.1642018, 46.7226547], [-117.16424, 46.7227225], [-117.1642637, 46.7227818], [-117.1642828, 46.7228214], [-117.1643037, 46.7228808], [-117.1645561, 46.7235998], [-117.164557, 46.7236037], [-117.164565, 46.723625], [-117.1645778, 46.7236615], [-117.1645862, 46.7236853], [-117.1646003, 46.7237308], [-117.1646395, 46.7238547], [-117.1647298, 46.7240368], [-117.1647774, 46.7241166], [-117.1648574, 46.7242509], [-117.1648592, 46.7242529], [-117.1647991, 46.7242841], [-117.1652582, 46.7247085], [-117.1655908, 46.7250452], [-117.165632, 46.7250949], [-117.1657451, 46.7251775], [-117.1659077, 46.7250644], [-117.1661273, 46.725232], [-117.1662815, 46.7253461], [-117.1665122, 46.7255235], [-117.1668068, 46.7257501], [-117.1669002, 46.7258369], [-117.1670877, 46.7259761], [-117.1673577, 46.7261732], [-117.1680179, 46.7266555], [-117.1683076, 46.7268353], [-117.1685836, 46.7270272], [-117.1687304, 46.7271266], [-117.1689037, 46.7272313], [-117.1691363, 46.727368], [-117.1692829, 46.7274515], [-117.1694674, 46.7275538], [-117.169572, 46.7276059], [-117.1696761, 46.7276588], [-117.1698149, 46.7277203], [-117.1700876, 46.7278528], [-117.1704065, 46.7279934], [-117.1705183, 46.7282215], [-117.1705855, 46.7282737], [-117.1706473, 46.7283271], [-117.1707374, 46.728382], [-117.1708748, 46.7284458], [-117.1709748, 46.7284899], [-117.171146, 46.728496], [-117.1711726, 46.72878], [-117.1711964, 46.7293208], [-117.1713332, 46.7293293], [-117.1714783, 46.7293343], [-117.171631, 46.7293388], [-117.1717406, 46.729344], [-117.1718291, 46.7293497], [-117.1719834, 46.7295051], [-117.1722087, 46.7296986], [-117.172389, 46.729829], [-117.1727265, 46.7300543], [-117.1729589, 46.7301946], [-117.1731359, 46.7302998], [-117.1731913, 46.7303531], [-117.1731868, 46.7303903], [-117.1731747, 46.7304179], [-117.17315, 46.73046], [-117.1730949, 46.7305879], [-117.1729899, 46.7305673], [-117.1728267, 46.7305228], [-117.1727011, 46.7304861], [-117.1725437, 46.7304252], [-117.1723275, 46.730327], [-117.1717189, 46.7304195], [-117.1719305, 46.7310637], [-117.1714501, 46.7311466], [-117.1714066, 46.7312546], [-117.1716416, 46.731505], [-117.1715963, 46.7315489], [-117.1714379, 46.7314612], [-117.1713244, 46.7313983], [-117.1711262, 46.7314032], [-117.1707209, 46.7314132], [-117.1706586, 46.7314687], [-117.1705782, 46.7315404], [-117.1702783, 46.7314018], [-117.1702727, 46.7313985], [-117.1702602, 46.7315793], [-117.170255, 46.7315766], [-117.17022, 46.7319604], [-117.1704283, 46.7320697], [-117.1705666, 46.7321424], [-117.1705204, 46.7321894], [-117.1706924, 46.7322767], [-117.1709274, 46.7323875], [-117.1706282, 46.7326976], [-117.1701743, 46.7324626], [-117.1696454, 46.7321931], [-117.1694882, 46.7321433], [-117.1693054, 46.7321027], [-117.1690155, 46.7320702], [-117.168798, 46.7320546], [-117.168596, 46.7320429], [-117.168296, 46.7320368], [-117.1681198, 46.732049], [-117.1679609, 46.7320688], [-117.1678063, 46.7320949], [-117.1678302, 46.7321417]], [[-117.1715257, 46.7309673], [-117.1714797, 46.7308335], [-117.1712717, 46.7308654], [-117.1713137, 46.7309998], [-117.1713567, 46.7311341], [-117.1715707, 46.7311011], [-117.1715257, 46.7309673]]]]}}