{"type": "Feature", "properties": {"market_key": 2407, "university": "West Virginia University", "osm_type": "relation", "osm_id": 15630375, "osm_name": "West Virginia University"}, "geometry": {"type": "MultiPolygon", "coordinates": [[[[-79.9835788, 39.6536945], [-79.9832343, 39.6539471], [-79.9833403, 39.6541706], [-79.9832725, 39.6543684], [-79.98381, 39.654856], [-79.984322, 39.6552784], [-79.984984, 39.6547879], [-79.9846782, 39.6543653], [-79.984075, 39.6539519], [-79.9836422, 39.6536439], [-79.9835788, 39.6536945]]], [[[-79.9790844, 39.6486606], [-79.9780108, 39.6475689], [-79.9783674, 39.6474221], [-79.9784686, 39.6473805], [-79.978849, 39.6473097], [-79.9792497, 39.6472937], [-79.9794386, 39.6473461], [-79.9798651, 39.6474849], [-79.9811852, 39.6479147], [-79.9813862, 39.6479801], [-79.9831805, 39.6485693], [-79.9853672, 39.6493678], [-79.9865615, 39.6499856], [-79.9859428, 39.6510318], [-79.9854524, 39.65162], [-79.9844191, 39.6531427], [-79.9834532, 39.6523617], [-79.982929, 39.6523206], [-79.9825261, 39.6521823], [-79.9812015, 39.6508269], [-79.9792642, 39.6488445], [-79.9790844, 39.6486606]]], [[[-79.966328, 39.6451784], [-79.9670721, 39.6448882], [-79.9677784, 39.6446446], [-79.9677747, 39.644597], [-79.9682974, 39.6444529], [-79.9684148, 39.6442759], [-79.9699467, 39.6430409], [-79.9706735, 39.642981], [-79.9718273, 39.6431], [-79.9723741, 39.6432123], [-79.9730446, 39.6434622], [-79.9743187, 39.6442574], [-79.9754412, 39.6453664], [-79.9773463, 39.6473827], [-79.9783263, 39.6483417], [-79.978537, 39.648585], [-79.9784804, 39.6487346], [-79.9783735, 39.6487946], [-79.9780635, 39.6488697], [-79.979189, 39.6496579], [-79.979153, 39.6500785], [-79.9787611, 39.6499717], [-79.9785397, 39.6498252], [-79.9784611, 39.649676], [-79.9777161, 39.6495715], [-79.9772384, 39.6493863], [-79.9762341, 39.6493208], [-79.9754774, 39.6494632], [-79.975414, 39.6492154], [-79.9752296, 39.6491734], [-79.9747117, 39.6492886], [-79.9747505, 39.6493817], [-79.9736385, 39.6496431], [-79.9734722, 39.6492203], [-79.9732922, 39.6493045], [-79.973176, 39.6494255], [-79.9733141, 39.6499537], [-79.9722141, 39.6501939], [-79.9714451, 39.6498179], [-79.9692687, 39.6502762], [-79.9690413, 39.6502945], [-79.9688407, 39.6501808], [-79.9687302, 39.6500164], [-79.9678132, 39.6501917], [-79.9671755, 39.6500566], [-79.9669138, 39.6503466], [-79.9672286, 39.6505715], [-79.9673933, 39.6507863], [-79.9663673, 39.6511319], [-79.9659637, 39.6506354], [-79.9645414, 39.651232], [-79.9639847, 39.6513992], [-79.96404, 39.6519923], [-79.9639541, 39.6520735], [-79.9635122, 39.6524184], [-79.9634483, 39.6525344], [-79.963402, 39.6526679], [-79.963376, 39.6531789], [-79.9622638, 39.6532398], [-79.9621362, 39.6529491], [-79.9625081, 39.6528445], [-79.9626511, 39.6521141], [-79.9614496, 39.6518236], [-79.9601319, 39.6521857], [-79.9604348, 39.6526136], [-79.9606443, 39.6530596], [-79.9605802, 39.6537199], [-79.9613447, 39.653753], [-79.9622889, 39.6535609], [-79.962254, 39.6534164], [-79.9631659, 39.6532821], [-79.9633026, 39.6534296], [-79.9632679, 39.653563], [-79.9630735, 39.6536816], [-79.9631202, 39.6537565], [-79.9631194, 39.6542332], [-79.9632043, 39.6542427], [-79.963194, 39.6551315], [-79.9626166, 39.655237], [-79.961959, 39.6552904], [-79.9617611, 39.6557166], [-79.9620882, 39.6557357], [-79.9631005, 39.6557701], [-79.9631386, 39.6572287], [-79.9620925, 39.6576458], [-79.9611256, 39.6576727], [-79.9581644, 39.6577883], [-79.95602, 39.6579393], [-79.9559354, 39.6577798], [-79.9558102, 39.657184], [-79.9543411, 39.6577019], [-79.9535618, 39.6568695], [-79.9542929, 39.6564804], [-79.9537622, 39.6564902], [-79.9535113, 39.6562364], [-79.9537554, 39.6559948], [-79.9536236, 39.6554904], [-79.9536638, 39.6547711], [-79.953458, 39.6541144], [-79.9534391, 39.6531266], [-79.9531177, 39.6506254], [-79.9528769, 39.6498292], [-79.9532483, 39.6488534], [-79.9530121, 39.6482141], [-79.9529547, 39.6478404], [-79.953407, 39.6473008], [-79.9540493, 39.6455662], [-79.9542046, 39.6452918], [-79.9548483, 39.6453992], [-79.9548912, 39.6467871], [-79.9554706, 39.646436], [-79.9567688, 39.6464979], [-79.9572623, 39.6467416], [-79.9580938, 39.6475099], [-79.9588555, 39.647956], [-79.9592696, 39.6480592], [-79.9597981, 39.6478748], [-79.9602558, 39.6478562], [-79.9605842, 39.647954], [-79.9606808, 39.6486641], [-79.9605854, 39.6488757], [-79.9593777, 39.6491759], [-79.9587536, 39.6496082], [-79.9584245, 39.649841], [-79.9583066, 39.6502516], [-79.9582824, 39.6506701], [-79.9582305, 39.6511192], [-79.9607903, 39.6512946], [-79.9609584, 39.6511716], [-79.9606934, 39.6509795], [-79.9613325, 39.6505284], [-79.9618528, 39.6501643], [-79.9626717, 39.6498038], [-79.9630141, 39.6496683], [-79.9635788, 39.6495741], [-79.9636893, 39.6495596], [-79.9639702, 39.6495339], [-79.9643393, 39.6492508], [-79.9656927, 39.6478082], [-79.965886, 39.6475759], [-79.9659575, 39.6474575], [-79.9660822, 39.6470011], [-79.9660886, 39.6467322], [-79.966054, 39.6465167], [-79.9659426, 39.6455569], [-79.9659069, 39.6452484], [-79.966328, 39.6451784]]], [[[-79.9637174, 39.6544121], [-79.9637107, 39.6551284], [-79.9650772, 39.6551704], [-79.965065, 39.6537977], [-79.9644119, 39.6537701], [-79.9644084, 39.65432], [-79.9638359, 39.6543787], [-79.9637174, 39.6544121]]], [[[-79.9440321, 39.6612354], [-79.9416273, 39.6603803], [-79.9400321, 39.6601955], [-79.9396261, 39.6599886], [-79.9399737, 39.6595677], [-79.9399984, 39.6595379], [-79.9400215, 39.659528], [-79.9415025, 39.6588957], [-79.9418988, 39.6587265], [-79.9433409, 39.6594549], [-79.9451769, 39.6601906], [-79.9448099, 39.6610753], [-79.9440321, 39.6612354]]], [[[-79.9654068, 39.6429489], [-79.9646557, 39.6427771], [-79.9640075, 39.6425462], [-79.9634011, 39.6422787], [-79.9637659, 39.6418911], [-79.9640846, 39.6421336], [-79.9640238, 39.6421756], [-79.9639885, 39.6422275], [-79.9639945, 39.6422774], [-79.9640254, 39.6423147], [-79.9649493, 39.6426327], [-79.9650535, 39.6427436], [-79.9654384, 39.6428219], [-79.9654995, 39.6428831], [-79.9654068, 39.6429489]]], [[[-79.9586563, 39.6367339], [-79.9584394, 39.6368416], [-79.9580455, 39.637037], [-79.9579174, 39.6371006], [-79.9573566, 39.6373065], [-79.9565178, 39.6371592], [-79.9563874, 39.6371461], [-79.9564022, 39.6371786], [-79.9564569, 39.6372983], [-79.9571773, 39.6388747], [-79.9569158, 39.6389465], [-79.9567271, 39.6389863], [-79.9564452, 39.6390418], [-79.9560181, 39.6380763], [-79.9557039, 39.6373166], [-79.9555046, 39.6373167], [-79.9554557, 39.6373325], [-79.954864, 39.6375237], [-79.9543121, 39.637478], [-79.95395, 39.6375184], [-79.9535962, 39.637394], [-79.9536971, 39.6369441], [-79.9539307, 39.6366907], [-79.9538709, 39.6366665], [-79.9531629, 39.63638], [-79.9526892, 39.6367128], [-79.9526391, 39.6366702], [-79.9518634, 39.6360119], [-79.951057, 39.6364555], [-79.949839, 39.6360879], [-79.9494124, 39.6356863], [-79.9498603, 39.6351864], [-79.9503914, 39.6354652], [-79.9505305, 39.6352976], [-79.9505649, 39.6352562], [-79.9511981, 39.6344931], [-79.9515413, 39.6340796], [-79.9517476, 39.6338252], [-79.952108, 39.6333967], [-79.9521761, 39.6333166], [-79.9522622, 39.6332144], [-79.9511327, 39.6326198], [-79.9506949, 39.6327733], [-79.9502671, 39.6329476], [-79.9499591, 39.6328075], [-79.9498704, 39.6327675], [-79.950711, 39.6318316], [-79.9510442, 39.6314096], [-79.9510729, 39.6313725], [-79.9512118, 39.6313122], [-79.9513637, 39.631294], [-79.9521379, 39.6314698], [-79.9529902, 39.6317266], [-79.9522292, 39.6325994], [-79.9532325, 39.6330929], [-79.9532722, 39.6330454], [-79.9533092, 39.6330011], [-79.9534156, 39.6328739], [-79.9537359, 39.6330519], [-79.9542994, 39.6324893], [-79.9550964, 39.6329285], [-79.9552341, 39.6330755], [-79.9552346, 39.6332582], [-79.9551701, 39.6336566], [-79.9554125, 39.6334406], [-79.9559344, 39.6327613], [-79.9564705, 39.6321353], [-79.9567622, 39.6318076], [-79.9567904, 39.631777], [-79.9569545, 39.6315987], [-79.957079, 39.6314541], [-79.9573797, 39.6316479], [-79.9582181, 39.6321316], [-79.9580101, 39.6324743], [-79.9576788, 39.6336155], [-79.9574347, 39.6342437], [-79.9575581, 39.6352387], [-79.9575747, 39.6352699], [-79.9582576, 39.6365569], [-79.9586563, 39.6367339]]], [[[-79.9602645, 39.6347701], [-79.9593356, 39.6348467], [-79.9594328, 39.6343083], [-79.9595877, 39.6341005], [-79.9595287, 39.6334916], [-79.9601692, 39.6323173], [-79.9603834, 39.6323659], [-79.960296, 39.6330056], [-79.9601361, 39.6335958], [-79.9601087, 39.633911], [-79.9602645, 39.6347701]]], [[[-79.9636815, 39.6250058], [-79.9630716, 39.6246528], [-79.9633191, 39.6243626], [-79.9639899, 39.6247393], [-79.9638129, 39.6250038], [-79.9637298, 39.6249645], [-79.9636815, 39.6250058]]], [[[-79.9571815, 39.6301549], [-79.9569872, 39.6300663], [-79.9571896, 39.6298031], [-79.9573839, 39.6298917], [-79.9571815, 39.6301549]]], [[[-79.9555454, 39.6286239], [-79.9551841, 39.6284495], [-79.955308, 39.6282798], [-79.9553938, 39.6283253], [-79.9553603, 39.6283967], [-79.9556364, 39.6285074], [-79.9555454, 39.6286239]]], [[[-79.9631865, 39.6258705], [-79.962806, 39.6256133], [-79.9630318, 39.6254161], [-79.9634114, 39.6256471], [-79.9631865, 39.6258705]]]]}}