{"type": "Feature", "properties": {"market_key": 2415, "university": "Georgia Southern University", "osm_type": "relation", "osm_id": 6431103, "osm_name": "Georgia Southern University"}, "geometry": {"type": "MultiPolygon", "coordinates": [[[[-81.7851815, 32.413525], [-81.7874243, 32.4135848], [-81.7876716, 32.4161109], [-81.7875536, 32.4189638], [-81.7865445, 32.4190281], [-81.7863836, 32.4185572], [-81.7852576, 32.4178317], [-81.7856111, 32.4171624], [-81.783916, 32.4165194], [-81.7838301, 32.4178688], [-81.7837967, 32.4180831], [-81.7817965, 32.416821], [-81.7806708, 32.4164445], [-81.779768, 32.4160331], [-81.7760292, 32.4206557], [-81.7781442, 32.4218473], [-81.7783097, 32.4219822], [-81.7784279, 32.4221242], [-81.7789958, 32.4229015], [-81.775004, 32.4240999], [-81.7822745, 32.4345048], [-81.7850001, 32.4321581], [-81.7851181, 32.4315151], [-81.7852893, 32.4308283], [-81.7855682, 32.4301038], [-81.7859443, 32.4294142], [-81.7863825, 32.4287379], [-81.7868154, 32.4282303], [-81.7876608, 32.4273967], [-81.79205, 32.4232214], [-81.7915266, 32.4229247], [-81.7909669, 32.4226074], [-81.7918118, 32.4210288], [-81.7923413, 32.4202328], [-81.7929497, 32.419481], [-81.7939265, 32.4200687], [-81.7942553, 32.419635], [-81.7942698, 32.4196159], [-81.7952993, 32.4202145], [-81.7961576, 32.4193904], [-81.7956426, 32.4190915], [-81.7986789, 32.4159941], [-81.7927029, 32.4122896], [-81.7903645, 32.4108939], [-81.7895626, 32.4105099], [-81.7892199, 32.4103458], [-81.7867335, 32.409222], [-81.783283, 32.4079692], [-81.7832555, 32.4080902], [-81.7832803, 32.4084779], [-81.783303, 32.4088318], [-81.7815664, 32.4089293], [-81.7815127, 32.4127244], [-81.7825969, 32.4134753], [-81.7851815, 32.413525]]]]}}