{"type": "Feature", "properties": {"market_key": 2416, "university": "Troy University", "osm_type": "way", "osm_id": 346976702, "osm_name": "Troy University"}, "geometry": {"type": "Polygon", "coordinates": [[[-85.9659996, 31.8034766], [-85.9658259, 31.8028786], [-85.9651341, 31.8028742], [-85.9650604, 31.8026285], [-85.96475, 31.8021152], [-85.9638545, 31.8020589], [-85.9628415, 31.8019354], [-85.9628422, 31.802187], [-85.9628446, 31.8030942], [-85.9624562, 31.8030635], [-85.9621961, 31.8020204], [-85.9621788, 31.8010093], [-85.96275, 31.8009638], [-85.9627521, 31.8002046], [-85.9628273, 31.8000501], [-85.9628415, 31.7999822], [-85.9628296, 31.7995183], [-85.9628342, 31.7987232], [-85.9628147, 31.7986798], [-85.9626396, 31.798656], [-85.9622415, 31.7986019], [-85.9621863, 31.7984055], [-85.9623067, 31.7975404], [-85.9623374, 31.7967769], [-85.9623535, 31.7962526], [-85.9608943, 31.7962115], [-85.960256, 31.796134], [-85.9590704, 31.7959806], [-85.9584043, 31.7958937], [-85.957842, 31.7958057], [-85.9564043, 31.7955231], [-85.9561629, 31.7954729], [-85.9548647, 31.7954775], [-85.9534807, 31.7954729], [-85.9534914, 31.7962526], [-85.9534807, 31.7969456], [-85.9534914, 31.7970322], [-85.9531159, 31.7969228], [-85.9519465, 31.7966173], [-85.951984, 31.7971599], [-85.9518781, 31.7974441], [-85.9513574, 31.7985011], [-85.9511636, 31.7989119], [-85.9510922, 31.7990715], [-85.9510774, 31.7991235], [-85.9510295, 31.7993767], [-85.9510141, 31.7995494], [-85.9510477, 31.8000411], [-85.9510505, 31.8001878], [-85.9510355, 31.8003587], [-85.9509343, 31.8006552], [-85.9508595, 31.800805], [-85.9507811, 31.8009321], [-85.9506803, 31.8010561], [-85.9505766, 31.8011728], [-85.9504798, 31.8012592], [-85.9503475, 31.8013597], [-85.9501534, 31.801476], [-85.9495149, 31.8018399], [-85.949344, 31.8019511], [-85.9492367, 31.8020509], [-85.949157, 31.8021659], [-85.9491074, 31.8022599], [-85.9490985, 31.8023536], [-85.949074, 31.802551], [-85.9490821, 31.8027578], [-85.9490893, 31.802936], [-85.9491271, 31.8030132], [-85.9492003, 31.8030532], [-85.9492806, 31.8030695], [-85.9494455, 31.8030856], [-85.9496104, 31.8031017], [-85.9497896, 31.8031571], [-85.9499062, 31.8032203], [-85.9511924, 31.8042175], [-85.9513741, 31.8043446], [-85.9515671, 31.8044535], [-85.9517653, 31.8045437], [-85.951945, 31.8046082], [-85.9521506, 31.8046642], [-85.9523982, 31.8047114], [-85.9526583, 31.8047174], [-85.9530189, 31.8046871], [-85.9532989, 31.8046418], [-85.9568792, 31.8040171], [-85.9572338, 31.8043075], [-85.9574343, 31.8047143], [-85.9577454, 31.8053116], [-85.9564526, 31.8059225], [-85.9536255, 31.8065334], [-85.9517587, 31.807281], [-85.9537918, 31.8073038], [-85.9552349, 31.8073311], [-85.9552939, 31.808252], [-85.9566618, 31.8085483], [-85.9581048, 31.8087125], [-85.9600736, 31.8089313], [-85.9611196, 31.8089677], [-85.9610854, 31.807441], [-85.9596391, 31.8074406], [-85.9591831, 31.8047782], [-85.9592475, 31.803953], [-85.9601469, 31.8038809], [-85.9616936, 31.803757], [-85.9659996, 31.8034766]]]}}