{"type": "Feature", "properties": {"market_key": 2417, "university": "Rutgers University", "osm_type": "relation", "osm_id": 10996237, "osm_name": "Rutgers University"}, "geometry": {"type": "MultiPolygon", "coordinates": [[[[-74.4477636, 40.5032437], [-74.4471733, 40.5029324], [-74.4470035, 40.5028428], [-74.4467095, 40.5026155], [-74.4465234, 40.5023534], [-74.4452779, 40.499871], [-74.4452789, 40.4997621], [-74.4449601, 40.4986412], [-74.4449018, 40.4984164], [-74.4478132, 40.497519], [-74.4497986, 40.4982831], [-74.4518567, 40.4990793], [-74.4527616, 40.4994294], [-74.4527561, 40.4994382], [-74.4519236, 40.5007516], [-74.4520481, 40.5008766], [-74.4543579, 40.5030346], [-74.456072, 40.5046847], [-74.4543452, 40.505715], [-74.4547643, 40.5061572], [-74.4547104, 40.5062232], [-74.4544717, 40.506266], [-74.4523005, 40.5060473], [-74.4517513, 40.5059202], [-74.4517393, 40.506032], [-74.4517245, 40.5061449], [-74.451708, 40.5062516], [-74.4513812, 40.5061643], [-74.450949, 40.5060124], [-74.4506294, 40.5058823], [-74.449853, 40.5054804], [-74.4490106, 40.5049498], [-74.447075, 40.5036994], [-74.4476943, 40.5036293], [-74.448137, 40.503614], [-74.4483211, 40.5035105], [-74.4477636, 40.5032437]]], [[[-74.459774, 40.5124717], [-74.4595875, 40.5127719], [-74.4593438, 40.5130867], [-74.4584826, 40.5142169], [-74.457924, 40.5149066], [-74.4563401, 40.5161819], [-74.4544749, 40.5173557], [-74.4528613, 40.5186337], [-74.4524691, 40.5188646], [-74.4519882, 40.5193763], [-74.4514566, 40.520111], [-74.4511453, 40.5206941], [-74.4507198, 40.5217272], [-74.4507146, 40.5227547], [-74.4508104, 40.5234094], [-74.4535446, 40.5242314], [-74.454458, 40.5245088], [-74.4548069, 40.5248973], [-74.4549654, 40.5253236], [-74.4554499, 40.5263477], [-74.4557101, 40.5268439], [-74.4558044, 40.526981], [-74.4559755, 40.5271263], [-74.456236, 40.527258], [-74.4586763, 40.5280197], [-74.459126, 40.5281344], [-74.4596218, 40.5282162], [-74.4599808, 40.5282427], [-74.4606975, 40.5282407], [-74.4636732, 40.5281096], [-74.4646999, 40.5282575], [-74.4652272, 40.5283842], [-74.4657546, 40.5285568], [-74.4664085, 40.5288658], [-74.4670323, 40.5292206], [-74.4672661, 40.5291284], [-74.4677047, 40.529495], [-74.473763, 40.5279663], [-74.4732374, 40.5265503], [-74.4767473, 40.5255764], [-74.4875585, 40.5224662], [-74.4871586, 40.5216926], [-74.4876178, 40.5215174], [-74.4871918, 40.5211255], [-74.4812453, 40.5232104], [-74.4774222, 40.5201396], [-74.4782978, 40.5189891], [-74.4758667, 40.5180729], [-74.4752642, 40.5186988], [-74.475021, 40.5189515], [-74.4740745, 40.5185347], [-74.4738986, 40.5187873], [-74.4735723, 40.5185728], [-74.4732108, 40.5182038], [-74.4735394, 40.5177322], [-74.4719586, 40.5172017], [-74.4715338, 40.5178578], [-74.4704367, 40.5174611], [-74.4695865, 40.5187653], [-74.467302, 40.5178942], [-74.4673978, 40.5177922], [-74.467618, 40.5177081], [-74.4684878, 40.5163611], [-74.4684906, 40.5162025], [-74.4684262, 40.5160333], [-74.4683216, 40.5159028], [-74.4681917, 40.5157812], [-74.4693504, 40.5139119], [-74.469636, 40.5135997], [-74.4699601, 40.5133724], [-74.4701234, 40.5132985], [-74.4703136, 40.5130003], [-74.4695699, 40.51279], [-74.4689152, 40.5126155], [-74.46607, 40.5120834], [-74.4651732, 40.51192], [-74.4634137, 40.5118547], [-74.4620212, 40.5118618], [-74.4617996, 40.5120398], [-74.45982, 40.5120709], [-74.459774, 40.5124717]]], [[[-74.4296234, 40.5180686], [-74.4294525, 40.5178614], [-74.4293101, 40.5177818], [-74.4291476, 40.5177175], [-74.4290479, 40.5176306], [-74.428995, 40.5175311], [-74.4289765, 40.5174434], [-74.4290346, 40.5171656], [-74.4290436, 40.5168784], [-74.4290401, 40.5167273], [-74.4290491, 40.5162966], [-74.4291188, 40.5159724], [-74.4293107, 40.5155935], [-74.4296304, 40.5152617], [-74.4301406, 40.5149752], [-74.4314241, 40.5145596], [-74.4318992, 40.5142693], [-74.4322493, 40.5139334], [-74.4324816, 40.5135273], [-74.4325659, 40.5132304], [-74.4325912, 40.5129841], [-74.4325009, 40.5122937], [-74.4324455, 40.5118014], [-74.4324806, 40.5115184], [-74.432544, 40.5113151], [-74.4327298, 40.5110006], [-74.4330418, 40.5107103], [-74.4335296, 40.5108623], [-74.43444, 40.5114204], [-74.4360737, 40.5108282], [-74.4372423, 40.5099487], [-74.4394469, 40.5080321], [-74.4395282, 40.5074725], [-74.4390361, 40.5070169], [-74.4387173, 40.5066842], [-74.4406655, 40.5057453], [-74.4413781, 40.5066856], [-74.4416984, 40.5070255], [-74.4415712, 40.5071735], [-74.4414734, 40.5073335], [-74.4413631, 40.5076573], [-74.4412977, 40.5077907], [-74.4411739, 40.507977], [-74.439959, 40.5092928], [-74.441536, 40.5100596], [-74.443011, 40.5106922], [-74.4436765, 40.5109494], [-74.4442681, 40.5109197], [-74.4447126, 40.5108886], [-74.445507, 40.5098529], [-74.445747, 40.509598], [-74.446852, 40.5098826], [-74.4474013, 40.509987], [-74.4479465, 40.51014], [-74.4465294, 40.5121491], [-74.4456385, 40.5134488], [-74.4452332, 40.5140201], [-74.444065, 40.5157711], [-74.4465853, 40.5167437], [-74.4490908, 40.5134333], [-74.4496802, 40.512521], [-74.449985, 40.512039], [-74.4506106, 40.5110738], [-74.4508136, 40.5111535], [-74.4510831, 40.5112445], [-74.4520618, 40.5117015], [-74.452528, 40.5118362], [-74.4542015, 40.5121235], [-74.4540633, 40.5123551], [-74.4529942, 40.5120952], [-74.4505105, 40.5118962], [-74.450333, 40.512368], [-74.4513137, 40.5132005], [-74.4523941, 40.5134997], [-74.4519332, 40.514603], [-74.4542522, 40.514559], [-74.4543343, 40.5139561], [-74.4555888, 40.5144397], [-74.4557265, 40.5144223], [-74.4559414, 40.5143487], [-74.4562476, 40.5139609], [-74.4566737, 40.5141343], [-74.4571578, 40.5136145], [-74.4573304, 40.5132686], [-74.4575547, 40.5127005], [-74.4582714, 40.512762], [-74.4585527, 40.5128001], [-74.4582753, 40.5135559], [-74.4578784, 40.5142414], [-74.4574776, 40.5147248], [-74.4570615, 40.5151642], [-74.455597, 40.5161716], [-74.4542561, 40.5170211], [-74.4530539, 40.5177944], [-74.4514663, 40.5192414], [-74.4509269, 40.5199913], [-74.4505107, 40.5208407], [-74.4502795, 40.5215086], [-74.4496784, 40.523143], [-74.4482159, 40.5251173], [-74.4459035, 40.5280626], [-74.4427089, 40.5317035], [-74.4426164, 40.5317188], [-74.4425118, 40.531726], [-74.4419405, 40.5314375], [-74.4417474, 40.5313468], [-74.4409065, 40.5309676], [-74.440535, 40.5308127], [-74.4385622, 40.5298066], [-74.438282, 40.5296619], [-74.4358546, 40.528459], [-74.4341621, 40.5277699], [-74.4329122, 40.5271807], [-74.4323248, 40.5268525], [-74.4312613, 40.5261135], [-74.4308496, 40.5258005], [-74.429141, 40.5246313], [-74.428339, 40.5239809], [-74.4282961, 40.5238993], [-74.4283122, 40.5238341], [-74.4284704, 40.5236822], [-74.4288009, 40.5233963], [-74.4289984, 40.5231927], [-74.429164, 40.5229694], [-74.4293144, 40.5227424], [-74.4294309, 40.522485], [-74.4296435, 40.5218203], [-74.4299396, 40.5202844], [-74.4300753, 40.5196311], [-74.430063, 40.5192105], [-74.4300191, 40.5189344], [-74.4298773, 40.5184556], [-74.4296234, 40.5180686]]]]}}