{"type": "Feature", "properties": {"market_key": 2418, "university": "University of Connecticut", "osm_type": "relation", "osm_id": 13084337, "osm_name": "University of Connecticut"}, "geometry": {"type": "MultiPolygon", "coordinates": [[[[-72.2700979, 41.8144863], [-72.2707357, 41.8127729], [-72.2717996, 41.8122765], [-72.2727277, 41.811752], [-72.2727325, 41.8117493], [-72.2727237, 41.8117426], [-72.272543, 41.8116053], [-72.2721897, 41.8112631], [-72.2720403, 41.8111184], [-72.271701, 41.8113111], [-72.2714746, 41.8114398], [-72.2711041, 41.8112946], [-72.2711126, 41.8112828], [-72.2704731, 41.811021], [-72.2699843, 41.8108209], [-72.2698619, 41.8107708], [-72.2697783, 41.8107365], [-72.2689761, 41.811049], [-72.2688345, 41.8111044], [-72.2682951, 41.8113135], [-72.2682415, 41.8113343], [-72.2673814, 41.8116678], [-72.2670803, 41.8113631], [-72.2668513, 41.8110602], [-72.266602, 41.8109421], [-72.2665617, 41.810923], [-72.2660077, 41.8104527], [-72.2659457, 41.8104001], [-72.2656741, 41.8102288], [-72.2656166, 41.810192], [-72.2654859, 41.8101101], [-72.265459, 41.8100174], [-72.2648692, 41.8102214], [-72.2645914, 41.8103175], [-72.2644338, 41.8099132], [-72.2643602, 41.8097244], [-72.2641511, 41.8091878], [-72.2640291, 41.8090715], [-72.2639404, 41.8090733], [-72.2637455, 41.8085941], [-72.2638111, 41.8085798], [-72.2637485, 41.8084416], [-72.2637372, 41.808126], [-72.2648764, 41.8075527], [-72.2643983, 41.8070299], [-72.2641825, 41.8064725], [-72.2642859, 41.8061826], [-72.2638672, 41.8060386], [-72.2632062, 41.8055511], [-72.2626581, 41.8054499], [-72.2617665, 41.8052853], [-72.2613035, 41.8051991], [-72.2606922, 41.8051812], [-72.2595429, 41.8051476], [-72.2595398, 41.8051414], [-72.2593237, 41.8047079], [-72.2593504, 41.8046899], [-72.2593197, 41.804669], [-72.2592916, 41.804633], [-72.2591883, 41.804458], [-72.2591695, 41.804441], [-72.2590756, 41.804392], [-72.2590502, 41.8043561], [-72.2587498, 41.8037482], [-72.2587538, 41.8036873], [-72.2588262, 41.8036283], [-72.2588517, 41.8035683], [-72.2588919, 41.8035163], [-72.2589214, 41.8034593], [-72.2589523, 41.8034263], [-72.259077, 41.8033454], [-72.2591293, 41.8033474], [-72.2592607, 41.8034143], [-72.2594699, 41.8034513], [-72.2595195, 41.8034663], [-72.2597864, 41.8036193], [-72.2599635, 41.8036833], [-72.2600023, 41.8037113], [-72.2600037, 41.8037312], [-72.2599774, 41.8037719], [-72.2600184, 41.8037797], [-72.2600399, 41.8038047], [-72.2599769, 41.8038697], [-72.2599058, 41.8039232], [-72.2598588, 41.8039712], [-72.2599098, 41.8039702], [-72.2599259, 41.8039862], [-72.2599567, 41.8040512], [-72.2600251, 41.8041111], [-72.2600479, 41.8041221], [-72.2601002, 41.8041251], [-72.2609881, 41.8035403], [-72.2610833, 41.8035003], [-72.2611597, 41.8034423], [-72.261212, 41.8033724], [-72.2613019, 41.8033304], [-72.2614414, 41.8032324], [-72.2615406, 41.8031314], [-72.2616144, 41.8029755], [-72.2616304, 41.8029155], [-72.2617538, 41.8026856], [-72.2617404, 41.8025446], [-72.2617069, 41.8024016], [-72.2616331, 41.8022687], [-72.2615299, 41.8022147], [-72.2614199, 41.8021957], [-72.2613274, 41.8021477], [-72.2611959, 41.8021077], [-72.2610739, 41.8019128], [-72.2610551, 41.8018968], [-72.2609787, 41.8018718], [-72.2609572, 41.8018568], [-72.2607279, 41.8015099], [-72.2605307, 41.801051], [-72.2604811, 41.8008081], [-72.2604905, 41.8007681], [-72.2605374, 41.8007511], [-72.2605455, 41.8007321], [-72.2604918, 41.8006351], [-72.260461, 41.8006001], [-72.2604154, 41.8005011], [-72.2603396, 41.8003762], [-72.2603524, 41.8003357], [-72.2602639, 41.8002667], [-72.2602089, 41.8002737], [-72.2601814, 41.8002692], [-72.2598642, 41.8000862], [-72.2597234, 41.8000142], [-72.259706, 41.7999962], [-72.2597033, 41.7999763], [-72.2597247, 41.7999153], [-72.2597569, 41.7998803], [-72.2597502, 41.7998403], [-72.2597569, 41.7998193], [-72.2597797, 41.7998073], [-72.2598307, 41.7998053], [-72.259879, 41.7998193], [-72.2598937, 41.7998353], [-72.2599179, 41.7998453], [-72.25995, 41.7998903], [-72.2600064, 41.7999223], [-72.2602679, 41.8000462], [-72.2603899, 41.8001282], [-72.2604744, 41.8002062], [-72.2606018, 41.8004082], [-72.260634, 41.8004861], [-72.2606742, 41.8005121], [-72.260752, 41.8005221], [-72.2607729, 41.8005409], [-72.2608691, 41.8005379], [-72.2608595, 41.8003678], [-72.2608448, 41.7992486], [-72.2608051, 41.7992556], [-72.260807, 41.7993054], [-72.2607936, 41.7993434], [-72.260748, 41.7993644], [-72.2606099, 41.7994004], [-72.2600117, 41.7994864], [-72.2596483, 41.7995484], [-72.2584829, 41.7998093], [-72.2583729, 41.7998253], [-72.2579303, 41.7998673], [-72.2577929, 41.7998658], [-72.2577587, 41.7998508], [-72.2577707, 41.7998223], [-72.2578988, 41.7997818], [-72.2581556, 41.7997383], [-72.2582643, 41.7997383], [-72.2583179, 41.7997313], [-72.258452, 41.7997043], [-72.258503, 41.7996873], [-72.2586599, 41.7995953], [-72.258684, 41.7995574], [-72.2586894, 41.7995174], [-72.2586492, 41.7994374], [-72.2586331, 41.7993534], [-72.2585151, 41.7992114], [-72.2584936, 41.7991694], [-72.2584856, 41.7990895], [-72.2584587, 41.7990515], [-72.2583595, 41.7990115], [-72.2583059, 41.7990055], [-72.2581396, 41.7990415], [-72.2580886, 41.7990595], [-72.2580162, 41.7991255], [-72.2579223, 41.7991714], [-72.2577158, 41.7992454], [-72.2576058, 41.7992594], [-72.2575521, 41.7992574], [-72.2574449, 41.7992354], [-72.2572812, 41.7992174], [-72.2569433, 41.7992014], [-72.256895, 41.7991834], [-72.2568655, 41.7991474], [-72.2569218, 41.7990355], [-72.2569969, 41.7988315], [-72.2570238, 41.7985456], [-72.2570184, 41.7984656], [-72.2569245, 41.7984196], [-72.2568682, 41.7984076], [-72.2565946, 41.7983996], [-72.2564873, 41.7983636], [-72.2563157, 41.7983556], [-72.256144, 41.7983356], [-72.2558597, 41.7982976], [-72.2556961, 41.7982596], [-72.2556397, 41.7982616], [-72.2555888, 41.7982736], [-72.2555405, 41.7982976], [-72.2555217, 41.7983356], [-72.2555217, 41.7983736], [-72.2555083, 41.7984136], [-72.2554413, 41.7985256], [-72.2553876, 41.7985956], [-72.2553822, 41.7987155], [-72.2553501, 41.7987495], [-72.2553045, 41.7987735], [-72.2551972, 41.7988015], [-72.2541833, 41.7991554], [-72.2540881, 41.7991984], [-72.254072, 41.7992154], [-72.2540706, 41.7992354], [-72.2542182, 41.7994734], [-72.254359, 41.7996433], [-72.2543979, 41.7997193], [-72.2543979, 41.7997393], [-72.2543482, 41.7997883], [-72.2543402, 41.7998073], [-72.2543496, 41.7999073], [-72.2543389, 41.7999473], [-72.2543201, 41.7999633], [-72.2540197, 41.7999693], [-72.2537407, 41.7999993], [-72.2531641, 41.8000052], [-72.2526732, 41.8000412], [-72.2524479, 41.8000452], [-72.2520027, 41.8001332], [-72.251949, 41.8001492], [-72.2519276, 41.8001872], [-72.2519919, 41.8003412], [-72.2519919, 41.8004211], [-72.2519624, 41.8005811], [-72.2519758, 41.8006591], [-72.2520107, 41.8007351], [-72.2521448, 41.80092], [-72.2523728, 41.8012079], [-72.2524077, 41.8013049], [-72.2525847, 41.8015089], [-72.2526437, 41.8015988], [-72.2527, 41.8016408], [-72.2529562, 41.8016988], [-72.2531144, 41.8017128], [-72.2531654, 41.8017258], [-72.2532083, 41.8017758], [-72.2533129, 41.8019378], [-72.2534028, 41.8020157], [-72.2538346, 41.8023287], [-72.2538829, 41.8023776], [-72.2539258, 41.8024026], [-72.2539312, 41.8024416], [-72.2538976, 41.8024976], [-72.2538494, 41.8025216], [-72.2538346, 41.8025396], [-72.2537971, 41.8026166], [-72.2537904, 41.8026556], [-72.2537997, 41.8027125], [-72.2539204, 41.8028945], [-72.2539312, 41.8029745], [-72.2539794, 41.8031134], [-72.2539996, 41.8031514], [-72.2540586, 41.8032164], [-72.2540452, 41.8032564], [-72.2540197, 41.8032664], [-72.2539741, 41.8032414], [-72.2538842, 41.8031554], [-72.2537716, 41.8030844], [-72.2536603, 41.8029805], [-72.2534457, 41.8027525], [-72.2532016, 41.8025466], [-72.2527564, 41.8019528], [-72.2526947, 41.8018828], [-72.2526571, 41.8018488], [-72.2526088, 41.8018308], [-72.2524962, 41.8018108], [-72.2523755, 41.8017168], [-72.2523272, 41.8016968], [-72.2522816, 41.8016668], [-72.2521582, 41.8015209], [-72.2520804, 41.8014569], [-72.2520268, 41.8014409], [-72.2519705, 41.8014489], [-72.2518659, 41.8014869], [-72.2517559, 41.8015049], [-72.2517103, 41.8015309], [-72.251713, 41.8016108], [-72.2516674, 41.8017288], [-72.2516674, 41.8017668], [-72.2516835, 41.8018068], [-72.2517706, 41.8019178], [-72.2518364, 41.8019797], [-72.2518538, 41.8020187], [-72.2518592, 41.8020587], [-72.2517747, 41.8021417], [-72.2517532, 41.8021557], [-72.2516513, 41.8021877], [-72.2515842, 41.8022507], [-72.2515185, 41.8022947], [-72.251493, 41.8023037], [-72.2514662, 41.8023007], [-72.251451, 41.8022893], [-72.2510406, 41.8024682], [-72.2504863, 41.8022941], [-72.2499273, 41.8025415], [-72.2499561, 41.8025506], [-72.2499535, 41.8025906], [-72.2499159, 41.8026226], [-72.2498059, 41.8026406], [-72.249755, 41.8026586], [-72.249645, 41.8026586], [-72.249586, 41.8026446], [-72.2494894, 41.8026046], [-72.2493821, 41.8025886], [-72.2492775, 41.8025586], [-72.2492266, 41.8025426], [-72.2491783, 41.8025166], [-72.2490576, 41.8024266], [-72.2482315, 41.8014949], [-72.2481054, 41.8014109], [-72.2480062, 41.8013709], [-72.2479016, 41.8013429], [-72.2477889, 41.8013329], [-72.2475609, 41.8013409], [-72.2475046, 41.8013489], [-72.2473267, 41.8013978], [-72.2463851, 41.8018767], [-72.2461458, 41.8025392], [-72.2452506, 41.8029509], [-72.2455555, 41.8033138], [-72.2437896, 41.8041143], [-72.2436895, 41.8041583], [-72.2444672, 41.8050955], [-72.2442743, 41.8051982], [-72.2440181, 41.8053244], [-72.2438388, 41.8051174], [-72.2438084, 41.8051294], [-72.2437687, 41.8051278], [-72.2437181, 41.8051346], [-72.2436679, 41.80515], [-72.2436016, 41.8051745], [-72.2435619, 41.8051935], [-72.2435616, 41.8052168], [-72.2430037, 41.8056204], [-72.2431102, 41.8056943], [-72.2430674, 41.8057216], [-72.2429729, 41.8058031], [-72.2427904, 41.8059605], [-72.2423528, 41.8062705], [-72.24281, 41.8066629], [-72.2428443, 41.8066923], [-72.2428847, 41.8067127], [-72.2429395, 41.8067403], [-72.2430441, 41.8068133], [-72.2430481, 41.8068333], [-72.2430173, 41.8068662], [-72.2430092, 41.8069072], [-72.2429422, 41.8069692], [-72.2429422, 41.8069902], [-72.2431272, 41.8072611], [-72.243197, 41.8073261], [-72.2432506, 41.8073331], [-72.2432774, 41.8073261], [-72.2434196, 41.8072521], [-72.2436757, 41.8071611], [-72.2438179, 41.8070892], [-72.2438742, 41.8070972], [-72.2439507, 41.8071232], [-72.2440539, 41.8071022], [-72.2440968, 41.8071301], [-72.244121, 41.8072111], [-72.2441357, 41.8072291], [-72.2442055, 41.8072981], [-72.2442645, 41.8073351], [-72.2443168, 41.8073851], [-72.2443369, 41.8073991], [-72.244416, 41.807423], [-72.2444603, 41.80745], [-72.2445099, 41.807501], [-72.2446936, 41.807595], [-72.2447017, 41.807615], [-72.2446936, 41.807634], [-72.244648, 41.807654], [-72.2445944, 41.807665], [-72.2445898, 41.8076686], [-72.2445568, 41.8076949], [-72.2445381, 41.8077339], [-72.2445421, 41.8077539], [-72.2445796, 41.8077879], [-72.2446065, 41.8077949], [-72.2446494, 41.8078219], [-72.2446625, 41.8078232], [-72.2448412, 41.8078409], [-72.244986, 41.8079129], [-72.2451912, 41.8079519], [-72.2452898, 41.8079634], [-72.2453287, 41.8079753], [-72.2453387, 41.8080043], [-72.2453186, 41.8080848], [-72.2452448, 41.8081093], [-72.2451925, 41.8081028], [-72.2451516, 41.8081078], [-72.2451194, 41.8081243], [-72.2450987, 41.8081503], [-72.2450987, 41.8081823], [-72.2451436, 41.8082487], [-72.2451734, 41.8082714], [-72.2452448, 41.8082942], [-72.2452634, 41.8082953], [-72.2453575, 41.8083007], [-72.2454795, 41.8083267], [-72.2455117, 41.8083242], [-72.2455493, 41.8082947], [-72.2455647, 41.8082557], [-72.2456076, 41.8082283], [-72.2456344, 41.8082218], [-72.2456988, 41.8082482], [-72.2457089, 41.8082672], [-72.2457035, 41.8083082], [-72.2457276, 41.8083457], [-72.2457524, 41.8083562], [-72.2459677, 41.8083657], [-72.246079, 41.8083657], [-72.2461072, 41.8083587], [-72.246134, 41.8083237], [-72.2461152, 41.8082437], [-72.2461259, 41.8082048], [-72.2461045, 41.8081098], [-72.2461259, 41.8080298], [-72.2461662, 41.8080008], [-72.2462399, 41.8079738], [-72.2463325, 41.8078989], [-72.2463848, 41.8078899], [-72.2464129, 41.8078919], [-72.2464572, 41.8079189], [-72.2464961, 41.8079748], [-72.246602, 41.8080758], [-72.2466262, 41.8081558], [-72.246661, 41.8082128], [-72.2466805, 41.8083232], [-72.2466657, 41.8083632], [-72.2466087, 41.8084222], [-72.2465853, 41.8084332], [-72.2464277, 41.8084502], [-72.2463003, 41.8084867], [-72.2462091, 41.8085346], [-72.2460079, 41.8085806], [-72.2458524, 41.8085626], [-72.2457237, 41.8085676], [-72.2458555, 41.8090187], [-72.2458957, 41.8091565], [-72.2460696, 41.8091934], [-72.2462118, 41.8091964], [-72.2462909, 41.8091794], [-72.2463352, 41.8091544], [-72.2464612, 41.8091054], [-72.2465055, 41.8090794], [-72.2465591, 41.8090335], [-72.2465806, 41.8089965], [-72.2466101, 41.8088985], [-72.246657, 41.8088465], [-72.2466892, 41.8087905], [-72.2467093, 41.8087766], [-72.2467884, 41.8087556], [-72.2468743, 41.8087016], [-72.2469239, 41.8086846], [-72.2469775, 41.8086696], [-72.2470339, 41.8086776], [-72.247058, 41.8086886], [-72.2470728, 41.8087066], [-72.2470942, 41.8087666], [-72.2470728, 41.8088895], [-72.247109, 41.8090504], [-72.2471063, 41.8090914], [-72.2469507, 41.8092044], [-72.2468019, 41.8092674], [-72.2467415, 41.8093083], [-72.2467133, 41.8094283], [-72.2467174, 41.8094493], [-72.2467764, 41.8094953], [-72.2467817, 41.8095153], [-72.2467589, 41.8095962], [-72.2467308, 41.8096312], [-72.2467133, 41.8096712], [-72.2467174, 41.8097332], [-72.2467509, 41.8097682], [-72.246885, 41.8098531], [-72.2469118, 41.8099351], [-72.246944, 41.8099951], [-72.2470781, 41.810181], [-72.247687, 41.8106903], [-72.2476716, 41.8107073], [-72.2476528, 41.8107098], [-72.2476132, 41.8107123], [-72.2475891, 41.8107033], [-72.2475006, 41.8106183], [-72.2470754, 41.810264], [-72.2468622, 41.8100251], [-72.2467496, 41.8099371], [-72.2467227, 41.8099331], [-72.246543, 41.8099831], [-72.2464746, 41.8100141], [-72.2463579, 41.810097], [-72.2463284, 41.810177], [-72.2462466, 41.810229], [-72.2462305, 41.810247], [-72.2462292, 41.810287], [-72.2462426, 41.810306], [-72.2464652, 41.8104729], [-72.246488, 41.8105109], [-72.246488, 41.8105309], [-72.2464398, 41.8106418], [-72.2463472, 41.8107448], [-72.246311, 41.8108158], [-72.246315, 41.8108367], [-72.2463352, 41.8108517], [-72.2470848, 41.8110836], [-72.2471666, 41.8110976], [-72.2472163, 41.8110776], [-72.2472686, 41.8110696], [-72.2473839, 41.8110946], [-72.2474402, 41.8110966], [-72.2474617, 41.8111346], [-72.2474523, 41.8111956], [-72.2474791, 41.8112316], [-72.2475207, 41.8112576], [-72.247518, 41.8112776], [-72.2474201, 41.8113245], [-72.2472538, 41.8113825], [-72.2470513, 41.8115215], [-72.2469521, 41.8115594], [-72.2465189, 41.8117933], [-72.2464706, 41.8118093], [-72.2464451, 41.8118063], [-72.246417, 41.8117724], [-72.2464156, 41.8117524], [-72.2464317, 41.8117134], [-72.2463526, 41.8116614], [-72.2463204, 41.8116294], [-72.2461702, 41.8115904], [-72.246075, 41.8115534], [-72.2459865, 41.8114775], [-72.2459556, 41.8113785], [-72.2459503, 41.8113275], [-72.2459637, 41.8111296], [-72.2459838, 41.8110527], [-72.2459261, 41.8109587], [-72.2459315, 41.8108987], [-72.2459006, 41.8108008], [-72.245898, 41.8107618], [-72.2459127, 41.8106498], [-72.2459395, 41.8105938], [-72.2459368, 41.8105539], [-72.24591, 41.8105209], [-72.2458282, 41.8104679], [-72.2457799, 41.8104529], [-72.2456498, 41.8104339], [-72.245611, 41.8104039], [-72.2456029, 41.8103849], [-72.2456887, 41.810325], [-72.2457169, 41.810289], [-72.245741, 41.810277], [-72.2458537, 41.810249], [-72.2459047, 41.810226], [-72.2459959, 41.810124], [-72.2460133, 41.810086], [-72.2459878, 41.8100501], [-72.2459744, 41.8100111], [-72.2460602, 41.8098991], [-72.2460911, 41.8098421], [-72.2461005, 41.8097832], [-72.2460857, 41.8097662], [-72.2459918, 41.8097202], [-72.245914, 41.8097032], [-72.2458631, 41.8097002], [-72.2457853, 41.8097182], [-72.2457062, 41.8097192], [-72.2455868, 41.8096762], [-72.2454219, 41.8096382], [-72.244467, 41.8094793], [-72.2443154, 41.8094593], [-72.2441813, 41.8094523], [-72.2441036, 41.8094603], [-72.2439694, 41.8094613], [-72.2434821, 41.8094959], [-72.243209, 41.8095153], [-72.2423279, 41.8095842], [-72.242196, 41.8095842], [-72.2421724, 41.8095842], [-72.2421321, 41.8096102], [-72.2421134, 41.8096482], [-72.2422381, 41.8103629], [-72.2421429, 41.8103979], [-72.2420624, 41.8104049], [-72.2420369, 41.8103989], [-72.2412983, 41.8105265], [-72.2405826, 41.8123332], [-72.2403112, 41.8124427], [-72.2396922, 41.8126926], [-72.2398304, 41.8128865], [-72.2399932, 41.8130004], [-72.2398881, 41.8130705], [-72.2398727, 41.8130808], [-72.2397703, 41.813111], [-72.2394352, 41.8132876], [-72.2384894, 41.8140118], [-72.2385372, 41.8143478], [-72.2386185, 41.8147417], [-72.238895, 41.8148266], [-72.23896, 41.8151417], [-72.2388625, 41.8152386], [-72.2387486, 41.8152629], [-72.2384722, 41.8151538], [-72.2385128, 41.8157174], [-72.2387002, 41.8157504], [-72.2388137, 41.8158446], [-72.23896, 41.8158022], [-72.2389926, 41.8156689], [-72.2391149, 41.8156356], [-72.2394663, 41.8163277], [-72.2393446, 41.8166427], [-72.2390856, 41.8168652], [-72.2392147, 41.8172722], [-72.239614, 41.8180774], [-72.2403421, 41.8186987], [-72.2414636, 41.817968], [-72.2420603, 41.8186182], [-72.2421985, 41.8185031], [-72.2424434, 41.8184214], [-72.2429399, 41.8190309], [-72.2427758, 41.8193272], [-72.2425644, 41.819309], [-72.2423855, 41.819515], [-72.2423449, 41.820127], [-72.2426213, 41.8201573], [-72.2428571, 41.8204179], [-72.2429547, 41.8203936], [-72.2430523, 41.8200786], [-72.2434309, 41.8203987], [-72.2440326, 41.8204896], [-72.2444833, 41.8205754], [-72.2446871, 41.8206329], [-72.2452413, 41.82097], [-72.245663, 41.8212265], [-72.2457733, 41.8212936], [-72.2462417, 41.8211064], [-72.246503, 41.8217928], [-72.247012, 41.8216237], [-72.2476788, 41.8217328], [-72.2476218, 41.8219449], [-72.2477926, 41.8221266], [-72.2486798, 41.821718], [-72.2517095, 41.8199896], [-72.2522028, 41.8204928], [-72.2522608, 41.8206463], [-72.2519475, 41.8207815], [-72.2519882, 41.8209148], [-72.2522529, 41.820869], [-72.2523084, 41.8215386], [-72.2515892, 41.8222622], [-72.2514992, 41.8224441], [-72.2515451, 41.822615], [-72.2519033, 41.8229957], [-72.252191, 41.8228601], [-72.252602, 41.8227375], [-72.2528839, 41.8228732], [-72.2533152, 41.8226545], [-72.2534534, 41.8225844], [-72.2525785, 41.8215167], [-72.2542108, 41.8206329], [-72.2541286, 41.8196746], [-72.2542572, 41.8193501], [-72.2537913, 41.8187695], [-72.2539678, 41.8186843], [-72.254482, 41.8183737], [-72.2548601, 41.8181506], [-72.2551073, 41.8180274], [-72.2551853, 41.8182613], [-72.2554826, 41.8186754], [-72.2564102, 41.8193509], [-72.2570519, 41.8198184], [-72.258349, 41.8194373], [-72.2584293, 41.8195727], [-72.258936, 41.8194375], [-72.2591908, 41.8197409], [-72.2596807, 41.8203242], [-72.2583129, 41.8207369], [-72.259364, 41.821502], [-72.2602568, 41.82209], [-72.2606177, 41.8223276], [-72.2614124, 41.8217454], [-72.2615665, 41.8216325], [-72.2633513, 41.8218081], [-72.2617773, 41.8226557], [-72.2626809, 41.8233047], [-72.262361, 41.8235069], [-72.2632341, 41.8242969], [-72.26414, 41.8251165], [-72.2644737, 41.8249184], [-72.2646763, 41.82492], [-72.2647986, 41.8248575], [-72.2666593, 41.823933], [-72.2680091, 41.8242486], [-72.2683137, 41.8244679], [-72.2693532, 41.8255142], [-72.2695269, 41.8254326], [-72.2698958, 41.8252595], [-72.2701353, 41.8251102], [-72.2704644, 41.8248334], [-72.2705078, 41.8247985], [-72.2705226, 41.8247715], [-72.2705896, 41.8248526], [-72.2706443, 41.8248714], [-72.2707406, 41.8249423], [-72.2708954, 41.8251107], [-72.2709734, 41.8251905], [-72.2710975, 41.8253161], [-72.2713791, 41.825149], [-72.270938, 41.824735], [-72.2708538, 41.8247097], [-72.2706904, 41.8245776], [-72.2713201, 41.8242872], [-72.2714668, 41.8242646], [-72.2716088, 41.8242427], [-72.271698, 41.8242289], [-72.2716473, 41.8241775], [-72.2716081, 41.8241377], [-72.2715241, 41.8240525], [-72.2714954, 41.8240234], [-72.2714259, 41.8239423], [-72.2714074, 41.8239207], [-72.2712275, 41.8237107], [-72.2710535, 41.8235076], [-72.2710458, 41.8234987], [-72.2708446, 41.8235457], [-72.2703422, 41.8237222], [-72.2702339, 41.8237602], [-72.2700861, 41.8238121], [-72.2695421, 41.8240032], [-72.2690253, 41.8238264], [-72.268916, 41.8236165], [-72.2689086, 41.8236041], [-72.2687929, 41.8234107], [-72.268544, 41.8233475], [-72.2681146, 41.8233375], [-72.2679888, 41.8233043], [-72.2678224, 41.8232604], [-72.267656, 41.8231231], [-72.2676672, 41.8230831], [-72.267701, 41.8229623], [-72.2678089, 41.8228417], [-72.2677594, 41.8227546], [-72.2677109, 41.8227464], [-72.2675616, 41.8227211], [-72.2674789, 41.8227288], [-72.2672379, 41.8227512], [-72.2669997, 41.822577], [-72.2668829, 41.8224601], [-72.2668289, 41.8224061], [-72.2668321, 41.8223656], [-72.2668513, 41.8221247], [-72.2670871, 41.8220001], [-72.2672339, 41.8219225], [-72.2672379, 41.8219204], [-72.267238, 41.8219166], [-72.2672424, 41.8217093], [-72.2670716, 41.8215485], [-72.26708, 41.8213927], [-72.2670851, 41.8212973], [-72.2669922, 41.8211615], [-72.2669637, 41.8211197], [-72.2668064, 41.8210058], [-72.2667479, 41.8207445], [-72.2666024, 41.8206208], [-72.2663404, 41.8205794], [-72.2660671, 41.820592], [-72.2660188, 41.8205942], [-72.2658362, 41.8204847], [-72.265721, 41.8203397], [-72.2656853, 41.8201504], [-72.265721, 41.8200794], [-72.2657848, 41.820068], [-72.2660029, 41.8200291], [-72.2663051, 41.8200029], [-72.2663443, 41.8199995], [-72.2663576, 41.8199774], [-72.2663954, 41.819915], [-72.2664118, 41.819887], [-72.2663731, 41.8197273], [-72.2663165, 41.8194935], [-72.2663143, 41.8194023], [-72.2663126, 41.8193308], [-72.2668922, 41.8192953], [-72.2675177, 41.8191462], [-72.2676179, 41.8191223], [-72.2677056, 41.819047], [-72.2678949, 41.8188845], [-72.2679299, 41.8185291], [-72.267681, 41.8181188], [-72.2673689, 41.8177347], [-72.2672857, 41.8176999], [-72.2669231, 41.8175452], [-72.2667974, 41.8174917], [-72.2667503, 41.8171263], [-72.2663957, 41.8171067], [-72.2663862, 41.8171062], [-72.2662778, 41.8165955], [-72.2662738, 41.8165768], [-72.2662412, 41.8165748], [-72.2661786, 41.816571], [-72.2658009, 41.8165482], [-72.2657748, 41.8165466], [-72.2657738, 41.8165075], [-72.2657603, 41.8159633], [-72.2656534, 41.815565], [-72.2656313, 41.8155161], [-72.2654906, 41.8152046], [-72.2655003, 41.8152003], [-72.2660454, 41.814958], [-72.2658075, 41.8146103], [-72.2655211, 41.8141916], [-72.2655771, 41.8138616], [-72.2656335, 41.8138324], [-72.2662222, 41.8135277], [-72.266816, 41.8132203], [-72.2669392, 41.8136229], [-72.2678954, 41.8144167], [-72.2684592, 41.8148004], [-72.26862, 41.8148475], [-72.2687568, 41.814851], [-72.2687724, 41.8148967], [-72.2688142, 41.814946], [-72.2689869, 41.814932], [-72.2689575, 41.8148271], [-72.2691734, 41.8147678], [-72.2693779, 41.8146767], [-72.2696636, 41.8144914], [-72.269871, 41.81442], [-72.2700667, 41.8144667], [-72.2700979, 41.8144863]], [[-72.2623821, 41.8083722], [-72.2630592, 41.8083665], [-72.2630979, 41.8084111], [-72.2624044, 41.8087483], [-72.2623821, 41.8083722]], [[-72.2600518, 41.8088067], [-72.2608829, 41.8085982], [-72.2610975, 41.80853], [-72.2612841, 41.8084769], [-72.2615115, 41.808428], [-72.2617434, 41.8089947], [-72.2614499, 41.8090751], [-72.2611924, 41.8091333], [-72.261129, 41.8091557], [-72.2611371, 41.8091876], [-72.2610215, 41.8092059], [-72.2609741, 41.8092134], [-72.2607873, 41.8092381], [-72.2602747, 41.8092929], [-72.2602126, 41.8092995], [-72.2601431, 41.8091494], [-72.260004, 41.8091678], [-72.2598709, 41.8088719], [-72.2599281, 41.8088377], [-72.2600518, 41.8088067]], [[-72.2515463, 41.8115034], [-72.2515618, 41.8117469], [-72.2515662, 41.8118164], [-72.2516034, 41.8124005], [-72.2512609, 41.8126423], [-72.2508657, 41.8123365], [-72.2500287, 41.8117294], [-72.2499873, 41.8116824], [-72.2501836, 41.8116074], [-72.2503601, 41.8115549], [-72.2505419, 41.8115142], [-72.2507278, 41.8114855], [-72.2509163, 41.8114691], [-72.251144, 41.8114656], [-72.2513333, 41.8114764], [-72.2515463, 41.8115034]], [[-72.2530801, 41.811633], [-72.2534714, 41.8115962], [-72.2541077, 41.8115364], [-72.254135, 41.8115972], [-72.2543544, 41.8120858], [-72.2544504, 41.8122995], [-72.2546152, 41.8126666], [-72.2537852, 41.8128248], [-72.2537532, 41.8126995], [-72.2532905, 41.8128114], [-72.2531224, 41.8120428], [-72.2531743, 41.8120361], [-72.2530801, 41.811633]], [[-72.2542687, 41.811565], [-72.2548649, 41.8114211], [-72.2548468, 41.8113972], [-72.2562705, 41.8109264], [-72.2563665, 41.8109254], [-72.2576607, 41.8126411], [-72.2585512, 41.8138217], [-72.2585988, 41.8138848], [-72.2586158, 41.8138807], [-72.2587959, 41.8138379], [-72.2590477, 41.8141865], [-72.2594649, 41.8147643], [-72.2586087, 41.8148094], [-72.2574791, 41.8148688], [-72.2563474, 41.8133764], [-72.2556672, 41.8124793], [-72.2556616, 41.8124806], [-72.2547819, 41.8126928], [-72.2547444, 41.8126118], [-72.2542687, 41.811565]], [[-72.2454001, 41.80657], [-72.2457217, 41.8069568], [-72.2447807, 41.8073953], [-72.2443944, 41.8071501], [-72.2447553, 41.8068916], [-72.2454001, 41.80657]]], [[[-72.2397414, 41.800025], [-72.2411559, 41.7990361], [-72.2423292, 41.7985478], [-72.2438075, 41.7984319], [-72.2452075, 41.7985688], [-72.2450253, 41.7986798], [-72.2431602, 41.7997669], [-72.2423666, 41.8002295], [-72.2410723, 41.800952], [-72.2401054, 41.8003037], [-72.2397414, 41.800025]]]]}}