{"type": "Feature", "properties": {"market_key": 2419, "university": "Binghamton University", "osm_type": "relation", "osm_id": 13933555, "osm_name": "State University of New York at Binghamton"}, "geometry": {"type": "MultiPolygon", "coordinates": [[[[-75.9156341, 42.0961624], [-75.9155914, 42.0961555], [-75.9154642, 42.096135], [-75.9141816, 42.0959281], [-75.9144004, 42.0951733], [-75.915589, 42.0951549], [-75.9155025, 42.0955038], [-75.915474, 42.0956185], [-75.9157131, 42.095657], [-75.9156341, 42.0961624]]], [[[-75.9568512, 42.1129739], [-75.95676, 42.111794], [-75.9521305, 42.112178], [-75.9523048, 42.1131271], [-75.9548219, 42.1131003], [-75.9568512, 42.1129739]]], [[[-75.961129, 42.0925513], [-75.96152, 42.0929412], [-75.9618846, 42.0933732], [-75.9619908, 42.0935531], [-75.9620545, 42.0937343], [-75.962081, 42.093884], [-75.9622204, 42.095061], [-75.9660497, 42.0951501], [-75.9679408, 42.095263], [-75.9712066, 42.095413], [-75.9712815, 42.0949042], [-75.971399, 42.0946633], [-75.9715933, 42.0945194], [-75.9718442, 42.0944122], [-75.9720983, 42.0943764], [-75.972432, 42.0943891], [-75.9726979, 42.0944848], [-75.9729143, 42.0946172], [-75.9734211, 42.0950255], [-75.9738045, 42.0953692], [-75.9744723, 42.095563], [-75.9752234, 42.0955975], [-75.9752906, 42.0953172], [-75.9753085, 42.0942103], [-75.9753085, 42.0934778], [-75.9773041, 42.0905798], [-75.9783126, 42.0909142], [-75.9807159, 42.0884779], [-75.9817887, 42.0862804], [-75.9819604, 42.0854045], [-75.9773041, 42.0860574], [-75.9754158, 42.0846242], [-75.9743795, 42.084322], [-75.9742142, 42.0842738], [-75.9730984, 42.0842579], [-75.9676911, 42.0819965], [-75.965379, 42.0816676], [-75.9636581, 42.0811771], [-75.9620121, 42.0813143], [-75.9605156, 42.0814391], [-75.960889, 42.0828565], [-75.9603132, 42.082913], [-75.9594599, 42.0829966], [-75.9601757, 42.0871216], [-75.9605027, 42.0893696], [-75.9618975, 42.0919333], [-75.9619189, 42.0926658], [-75.961129, 42.0925513]]]]}}