{"type": "Feature", "properties": {"market_key": 2420, "university": "University of Tennessee at Chattanooga", "osm_type": "relation", "osm_id": 2858853, "osm_name": "University of Tennessee Chattanooga"}, "geometry": {"type": "MultiPolygon", "coordinates": [[[[-85.3016448, 35.0512594], [-85.3016227, 35.0512925], [-85.3010286, 35.0511327], [-85.3006876, 35.0517047], [-85.299224, 35.0511464], [-85.2982578, 35.0509813], [-85.2979159, 35.050939], [-85.2977709, 35.0507044], [-85.2983184, 35.0495477], [-85.2984403, 35.0495907], [-85.298726, 35.0489691], [-85.2962492, 35.0480373], [-85.2958407, 35.0487587], [-85.2951889, 35.0484873], [-85.2949549, 35.0488258], [-85.2948624, 35.048957], [-85.2947678, 35.0490913], [-85.2946829, 35.0492119], [-85.2945864, 35.0493488], [-85.2945107, 35.0494563], [-85.2943459, 35.0493871], [-85.2941722, 35.0492963], [-85.2940261, 35.0491988], [-85.2938836, 35.0490958], [-85.2938883, 35.0490095], [-85.2939063, 35.048795], [-85.294019, 35.048694], [-85.2943704, 35.0484678], [-85.2935362, 35.0481736], [-85.2937347, 35.0477981], [-85.2923815, 35.0473359], [-85.2928167, 35.0465568], [-85.2924365, 35.0464015], [-85.2926082, 35.0460743], [-85.2942818, 35.0466892], [-85.2950241, 35.0452195], [-85.2945283, 35.0450437], [-85.2942004, 35.0449213], [-85.2940181, 35.0448521], [-85.2943114, 35.0443258], [-85.2946178, 35.0444498], [-85.2948746, 35.0439596], [-85.2950329, 35.0440145], [-85.2951093, 35.0438843], [-85.2952662, 35.0436171], [-85.2963156, 35.0440132], [-85.2967962, 35.0431379], [-85.298081, 35.0436172], [-85.298309, 35.0431909], [-85.2978807, 35.043037], [-85.2983984, 35.0422172], [-85.299565, 35.0426424], [-85.2998432, 35.042708], [-85.2997117, 35.0428724], [-85.2991699, 35.0430997], [-85.2985282, 35.043293], [-85.2983508, 35.0432428], [-85.2981284, 35.0436458], [-85.2996397, 35.0442145], [-85.3002187, 35.0432013], [-85.301409, 35.0436574], [-85.3015844, 35.0433653], [-85.3021608, 35.0435838], [-85.3019909, 35.0439091], [-85.3027545, 35.0441953], [-85.3039781, 35.0446389], [-85.3040528, 35.044505], [-85.3053463, 35.0449905], [-85.3048036, 35.0460235], [-85.3047006, 35.0461964], [-85.3045863, 35.0463422], [-85.3044794, 35.0464448], [-85.3042755, 35.0466459], [-85.3041369, 35.0468449], [-85.3035947, 35.0477858], [-85.3030046, 35.0489232], [-85.3022858, 35.0501572], [-85.3016448, 35.0512594]], [[-85.3034685, 35.0455724], [-85.3037791, 35.0450482], [-85.3024742, 35.0446165], [-85.3021601, 35.0451917], [-85.300848, 35.044683], [-85.2994942, 35.0441871], [-85.2990836, 35.044946], [-85.3012229, 35.045747], [-85.3017058, 35.0459279], [-85.3016978, 35.0461683], [-85.3015953, 35.0461275], [-85.3015036, 35.046281], [-85.3014875, 35.0463091], [-85.3013399, 35.0465669], [-85.301714, 35.0466967], [-85.3017831, 35.0465503], [-85.3019904, 35.0466168], [-85.3019538, 35.0466834], [-85.302309, 35.0468188], [-85.3025392, 35.0464071], [-85.3026165, 35.0464338], [-85.3028519, 35.0459319], [-85.3031157, 35.0454547], [-85.3034685, 35.0455724]], [[-85.2969401, 35.0442508], [-85.2968673, 35.0443912], [-85.2967933, 35.0445355], [-85.2967217, 35.0446752], [-85.2968348, 35.0447093], [-85.2969199, 35.044735], [-85.2973658, 35.0443966], [-85.2969401, 35.0442508]], [[-85.295439, 35.0441913], [-85.2953222, 35.0441491], [-85.295282, 35.0442236], [-85.2953957, 35.0442648], [-85.2954018, 35.0442535], [-85.2954334, 35.0442649], [-85.2954619, 35.0442123], [-85.2954333, 35.0442019], [-85.295439, 35.0441913]], [[-85.301305, 35.0482207], [-85.3009595, 35.0480876], [-85.3011, 35.0478159], [-85.3007513, 35.0476952], [-85.3008157, 35.0475612], [-85.3011619, 35.0476895], [-85.3012786, 35.0474754], [-85.3016353, 35.0476116], [-85.301305, 35.0482207]]]]}}