{"type": "Feature", "properties": {"market_key": 2421, "university": "University of North Georgia", "osm_type": "relation", "osm_id": 8338296, "osm_name": "University of North Georgia - Dahlonega Campus"}, "geometry": {"type": "MultiPolygon", "coordinates": [[[[-83.9816141, 34.5287571], [-83.9810349, 34.5281959], [-83.9804014, 34.5275756], [-83.979958, 34.5271769], [-83.9797673, 34.5270354], [-83.9795243, 34.5268811], [-83.9795171, 34.5267965], [-83.979823, 34.5262129], [-83.9800963, 34.525847], [-83.9802533, 34.5256607], [-83.9804753, 34.5255013], [-83.9815269, 34.5254582], [-83.983356, 34.5245221], [-83.9865859, 34.5248676], [-83.9865716, 34.5254037], [-83.9865614, 34.5262939], [-83.9865709, 34.5263598], [-83.9866372, 34.5264769], [-83.9873323, 34.5265348], [-83.9873862, 34.5265724], [-83.9874564, 34.5266894], [-83.9874848, 34.5273313], [-83.9876061, 34.5274034], [-83.988248, 34.5274006], [-83.9883649, 34.5274878], [-83.9882503, 34.527642], [-83.9882393, 34.5277343], [-83.9882539, 34.5280217], [-83.9882225, 34.5286219], [-83.9882037, 34.5290183], [-83.9881118, 34.5292623], [-83.9880788, 34.5293549], [-83.9880255, 34.5294508], [-83.9879027, 34.5296327], [-83.9877575, 34.5298346], [-83.987655, 34.5300566], [-83.987551, 34.5303099], [-83.9875353, 34.5304173], [-83.9874869, 34.5305544], [-83.9873993, 34.5306945], [-83.9873316, 34.5307701], [-83.987283, 34.5308228], [-83.9872181, 34.5308717], [-83.9870871, 34.5309665], [-83.9868063, 34.5311557], [-83.9866103, 34.5312933], [-83.9864945, 34.5313699], [-83.9861399, 34.5310156], [-83.9855187, 34.5314426], [-83.9847555, 34.5307253], [-83.9841156, 34.5311765], [-83.9836186, 34.5307173], [-83.9825607, 34.5296763], [-83.9816141, 34.5287571]]], [[[-83.9813649, 34.5287523], [-83.9813487, 34.5287858], [-83.9810986, 34.5289298], [-83.9808405, 34.5290973], [-83.9803953, 34.5286518], [-83.9806738, 34.5284643], [-83.9808974, 34.5283186], [-83.9809167, 34.5283177], [-83.9813649, 34.5287523]]], [[[-83.9845165, 34.5317959], [-83.9840688, 34.5313513], [-83.9835184, 34.5317303], [-83.9839732, 34.5321778], [-83.9845165, 34.5317959]]], [[[-83.9938106, 34.5278653], [-83.9938106, 34.5286122], [-83.9938749, 34.528831], [-83.994465, 34.5291514], [-83.9945508, 34.5293282], [-83.9945187, 34.5297546], [-83.9940815, 34.5301435], [-83.9935182, 34.5303733], [-83.992136, 34.5303322], [-83.991655, 34.5301322], [-83.9905809, 34.5300745], [-83.990156, 34.5300052], [-83.9891426, 34.5298244], [-83.9890641, 34.5298139], [-83.9889836, 34.5298152], [-83.988818, 34.5298366], [-83.9886606, 34.529868], [-83.9884937, 34.5299187], [-83.9883698, 34.5299716], [-83.9881706, 34.5300956], [-83.9880261, 34.5301138], [-83.9877964, 34.5301224], [-83.9879003, 34.5299314], [-83.9880235, 34.5297448], [-83.98825, 34.5295024], [-83.9883809, 34.5292308], [-83.9883658, 34.5290441], [-83.9883845, 34.5285612], [-83.9883985, 34.528088], [-83.9883915, 34.5279072], [-83.9883985, 34.5277668], [-83.9884265, 34.5276533], [-83.9884672, 34.5275632], [-83.9885055, 34.527522], [-83.9885619, 34.527475], [-83.9886155, 34.5274353], [-83.9886772, 34.5274076], [-83.9887416, 34.5273811], [-83.9888388, 34.5273563], [-83.9889716, 34.5273342], [-83.9891124, 34.5273159], [-83.9898775, 34.5272518], [-83.9900344, 34.5272331], [-83.9901994, 34.5271988], [-83.990316, 34.5271436], [-83.9904729, 34.5270718], [-83.9906245, 34.52699], [-83.9907492, 34.5269281], [-83.9909021, 34.5269668], [-83.9911609, 34.5271016], [-83.9914801, 34.5272585], [-83.9919052, 34.5274452], [-83.9922325, 34.5275513], [-83.9925038, 34.5276199], [-83.9937661, 34.5277824], [-83.9938106, 34.5278653]]], [[[-83.9946279, 34.5264154], [-83.9946807, 34.52564], [-83.9929738, 34.524579], [-83.9883584, 34.5241678], [-83.9877962, 34.5243934], [-83.9875299, 34.5245206], [-83.9874608, 34.524606], [-83.987412, 34.5246881], [-83.9874059, 34.524735], [-83.9874201, 34.5248171], [-83.9874547, 34.5248673], [-83.9875462, 34.5249125], [-83.9884223, 34.5251788], [-83.9889569, 34.5253898], [-83.9891703, 34.5254953], [-83.9893309, 34.5256159], [-83.9901155, 34.5261434], [-83.990642, 34.5265236], [-83.9907477, 34.526547], [-83.9908351, 34.5265286], [-83.990951, 34.5264667], [-83.9911299, 34.5263896], [-83.9913088, 34.5263578], [-83.9917539, 34.5263528], [-83.9921259, 34.5263461], [-83.9928414, 34.5263109], [-83.9940367, 34.5264097], [-83.9943172, 34.5264281], [-83.9946279, 34.5264154]]], [[[-83.9933167, 34.5271161], [-83.9934091, 34.5269739], [-83.99344, 34.5268318], [-83.9934492, 34.5264688], [-83.9928361, 34.5264205], [-83.992642, 34.5264358], [-83.9923678, 34.5264535], [-83.9917207, 34.5264561], [-83.9917146, 34.5266109], [-83.9925742, 34.5268851], [-83.9933167, 34.5271161]]], [[[-83.9882247, 34.5301471], [-83.9882796, 34.5302548], [-83.988268, 34.5307885], [-83.9880472, 34.5307819], [-83.987711, 34.5306655], [-83.9877192, 34.5303789], [-83.9877577, 34.5302067], [-83.9878196, 34.5301807], [-83.988136, 34.5301653], [-83.9882247, 34.5301471]]], [[[-83.9855949, 34.532201], [-83.9860925, 34.5327074], [-83.9863251, 34.5325335], [-83.9863374, 34.5325082], [-83.9863328, 34.5324802], [-83.9863174, 34.5324548], [-83.9858784, 34.532036], [-83.9858537, 34.5320322], [-83.9858306, 34.5320348], [-83.9855949, 34.532201]]], [[[-83.9870367, 34.5320598], [-83.9865393, 34.5315728], [-83.9864992, 34.5315677], [-83.9859743, 34.5319378], [-83.9859731, 34.5319677], [-83.9864665, 34.5324546], [-83.9870367, 34.5320598]]], [[[-83.986689, 34.5328035], [-83.9864261, 34.5330095], [-83.9861712, 34.5327501], [-83.9864544, 34.5325678], [-83.986689, 34.5328035]]]]}}