{"type": "Feature", "properties": {"market_key": 2422, "university": "University of Central Missouri", "osm_type": "relation", "osm_id": 9964433, "osm_name": "University of Central Missouri"}, "geometry": {"type": "MultiPolygon", "coordinates": [[[[-93.7417162, 38.7539495], [-93.7417456, 38.7534559], [-93.7409924, 38.7534317], [-93.7409217, 38.7534294], [-93.7409628, 38.7531679], [-93.7410145, 38.7523354], [-93.7410277, 38.7521375], [-93.7410369, 38.751946], [-93.7410512, 38.7517781], [-93.7410473, 38.7515678], [-93.741075, 38.7509506], [-93.7410861, 38.7506477], [-93.7410932, 38.7504353], [-93.7411355, 38.7496201], [-93.7411453, 38.7494354], [-93.7411875, 38.7486424], [-93.7412008, 38.7484784], [-93.7412466, 38.7474473], [-93.7412646, 38.7471874], [-93.7413687, 38.7459267], [-93.7413937, 38.7458812], [-93.7414643, 38.7458581], [-93.7444017, 38.7459772], [-93.7443801, 38.7470453], [-93.7460226, 38.7470785], [-93.7459088, 38.7495235], [-93.7458124, 38.7509404], [-93.7457421, 38.7509416], [-93.7457067, 38.7523182], [-93.7446853, 38.7522845], [-93.7446376, 38.7532036], [-93.7445032, 38.7531997], [-93.7433713, 38.7531668], [-93.7431999, 38.7531618], [-93.7431618, 38.7539914], [-93.742218, 38.753964], [-93.7417162, 38.7539495]]], [[[-93.7381166, 38.7607061], [-93.7380928, 38.7607061], [-93.7380947, 38.7606821], [-93.7380237, 38.7606799], [-93.7379091, 38.7606761], [-93.7377408, 38.7606713], [-93.7376616, 38.7606689], [-93.7364848, 38.7606331], [-93.7363252, 38.7606282], [-93.7360925, 38.7606211], [-93.7358485, 38.7606137], [-93.7358432, 38.7606215], [-93.7358359, 38.7606295], [-93.7358185, 38.7606416], [-93.735799, 38.7606473], [-93.7357783, 38.7606484], [-93.7352901, 38.7606358], [-93.7351894, 38.7606332], [-93.7351741, 38.7606328], [-93.7339773, 38.760601], [-93.7339984, 38.7599712], [-93.7334126, 38.7599615], [-93.733394, 38.7605676], [-93.7327598, 38.7605528], [-93.7327622, 38.7605058], [-93.7327913, 38.7599368], [-93.7329034, 38.7599356], [-93.7329289, 38.7593733], [-93.732932, 38.7593039], [-93.7321762, 38.759286], [-93.7320231, 38.7592824], [-93.7320443, 38.7587673], [-93.7332491, 38.7587922], [-93.7332678, 38.7583615], [-93.7332719, 38.758267], [-93.7329749, 38.7582611], [-93.7329446, 38.7582605], [-93.7329463, 38.7577951], [-93.7312777, 38.7577623], [-93.7313527, 38.7559848], [-93.7321144, 38.7559996], [-93.7320961, 38.7564306], [-93.7320929, 38.7565048], [-93.7332382, 38.7565248], [-93.7332419, 38.7564534], [-93.7332637, 38.7560388], [-93.7335876, 38.7560484], [-93.7336708, 38.7560509], [-93.734533, 38.7560766], [-93.7345189, 38.7564828], [-93.7345186, 38.7565619], [-93.7353956, 38.7565748], [-93.7353868, 38.7567492], [-93.735924, 38.7567516], [-93.7360946, 38.7567524], [-93.7361147, 38.7558019], [-93.7366718, 38.7558157], [-93.7366846, 38.7553709], [-93.7361224, 38.755352], [-93.7361773, 38.7543999], [-93.7367063, 38.754403], [-93.7367283, 38.7538832], [-93.7385636, 38.7539175], [-93.7385659, 38.7538482], [-93.7385844, 38.7537956], [-93.7386227, 38.7537582], [-93.7386734, 38.7537403], [-93.7387481, 38.7537287], [-93.7401802, 38.7537498], [-93.7401183, 38.7550934], [-93.7407666, 38.7551146], [-93.7408894, 38.7550859], [-93.7414847, 38.754998], [-93.7416633, 38.7549716], [-93.7416674, 38.7549096], [-93.7428508, 38.754937], [-93.7431724, 38.7549445], [-93.7431492, 38.7553818], [-93.7438, 38.7554019], [-93.7437821, 38.7558207], [-93.7454889, 38.7558776], [-93.7454511, 38.756329], [-93.7454309, 38.7567824], [-93.7455309, 38.7567871], [-93.7502592, 38.7570089], [-93.7503131, 38.7570449], [-93.7503777, 38.7571165], [-93.750392, 38.757156], [-93.7503875, 38.757269], [-93.7502934, 38.7589908], [-93.7490532, 38.7589371], [-93.7490798, 38.7585835], [-93.7490836, 38.7585326], [-93.7475932, 38.758467], [-93.7472734, 38.7584542], [-93.7472693, 38.7585131], [-93.7472048, 38.7594314], [-93.7459689, 38.7593762], [-93.7460328, 38.7584584], [-93.7460365, 38.7584048], [-93.7453437, 38.7583772], [-93.7452997, 38.7589922], [-93.7447588, 38.7589781], [-93.7447329, 38.7594513], [-93.7438495, 38.7594356], [-93.7438476, 38.7595111], [-93.7438371, 38.7599229], [-93.7435414, 38.7599169], [-93.7435239, 38.7603728], [-93.7435212, 38.760444], [-93.7435005, 38.7609837], [-93.7440087, 38.7610009], [-93.7439739, 38.7614409], [-93.7427666, 38.76141], [-93.7421033, 38.7613824], [-93.7421057, 38.7613267], [-93.742106, 38.7613199], [-93.7421211, 38.7609627], [-93.7421229, 38.7609218], [-93.7405791, 38.7608634], [-93.7406092, 38.760347], [-93.7406157, 38.7602089], [-93.7404205, 38.7602062], [-93.7395801, 38.7601828], [-93.7395778, 38.7602494], [-93.7395482, 38.7607321], [-93.7388472, 38.7607116], [-93.7388643, 38.7602652], [-93.7388653, 38.7602285], [-93.7388681, 38.7601325], [-93.7382619, 38.7601188], [-93.7382456, 38.7601184], [-93.7382147, 38.7601177], [-93.7381971, 38.7601173], [-93.738189, 38.7602519], [-93.7381722, 38.7606576], [-93.7381708, 38.760665], [-93.7381667, 38.7606713], [-93.7381623, 38.7606782], [-93.7381497, 38.7606904], [-93.738142, 38.7606956], [-93.7381339, 38.7607011], [-93.7381237, 38.7607041], [-93.7381166, 38.7607061]]], [[[-93.731896, 38.7418213], [-93.7319068, 38.7420012], [-93.7319336, 38.7421937], [-93.732014, 38.7427208], [-93.7321803, 38.7433987], [-93.732678, 38.7453113], [-93.7272187, 38.7450854], [-93.7272809, 38.7438424], [-93.727406, 38.7416706], [-93.7277999, 38.7416838], [-93.7311198, 38.7417952], [-93.731896, 38.7418213]]]]}}