{"type": "Feature", "properties": {"market_key": 2423, "university": "University of Texas at Dallas", "osm_type": "relation", "osm_id": 7316239, "osm_name": "University of Texas at Dallas"}, "geometry": {"type": "MultiPolygon", "coordinates": [[[[-96.756225, 32.9867727], [-96.7562065, 32.9914766], [-96.7566626, 32.9915799], [-96.7588278, 32.9915882], [-96.7588315, 32.9924328], [-96.756196, 32.9924462], [-96.7561985, 32.9929207], [-96.7557413, 32.9929201], [-96.7529543, 32.9929084], [-96.7529492, 32.994184], [-96.7526819, 32.9941844], [-96.7525559, 32.9943043], [-96.7524934, 32.9943556], [-96.7523855, 32.9944473], [-96.7521891, 32.9946046], [-96.7520325, 32.9944684], [-96.7518942, 32.994465], [-96.7518683, 32.9950495], [-96.7516325, 32.9952044], [-96.7516305, 32.9953977], [-96.7516867, 32.9953968], [-96.7519245, 32.9955921], [-96.7519216, 32.9957537], [-96.7523323, 32.9956633], [-96.7523183, 32.9956195], [-96.7523037, 32.9955701], [-96.7521498, 32.9956033], [-96.7520057, 32.9955789], [-96.7519785, 32.9955361], [-96.752157, 32.9954077], [-96.7524601, 32.99532], [-96.7529389, 32.9949181], [-96.7530456, 32.9948254], [-96.7531039, 32.9947778], [-96.7532558, 32.9946202], [-96.7535862, 32.9946246], [-96.7537553, 32.994995], [-96.7540667, 32.994994], [-96.7540665, 32.9952738], [-96.7537485, 32.9952746], [-96.7537444, 32.9954696], [-96.7518277, 32.9958977], [-96.7493467, 32.9964483], [-96.7471754, 32.9969301], [-96.7457851, 32.9951647], [-96.7456505, 32.9947918], [-96.7427841, 32.9913414], [-96.7427206, 32.9913725], [-96.7417973, 32.9902468], [-96.7432576, 32.9902501], [-96.7434345, 32.9902149], [-96.7435747, 32.9901274], [-96.7435462, 32.9900143], [-96.743525, 32.9899094], [-96.7435102, 32.989639], [-96.7435109, 32.9890222], [-96.7435098, 32.9887801], [-96.7434687, 32.9887637], [-96.7434438, 32.9887351], [-96.7434259, 32.9886342], [-96.7434256, 32.9883663], [-96.7433767, 32.9880828], [-96.7433664, 32.9880084], [-96.74334, 32.9878482], [-96.7433333, 32.987721], [-96.7433592, 32.98745], [-96.7434026, 32.9871437], [-96.7434642, 32.986811], [-96.7435357, 32.9864903], [-96.7435645, 32.9863688], [-96.7436115, 32.9861955], [-96.7436613, 32.9860292], [-96.7437822, 32.9856592], [-96.7438552, 32.9854672], [-96.7441554, 32.9847201], [-96.7445533, 32.9837394], [-96.7447854, 32.9831583], [-96.7449037, 32.9828726], [-96.7449811, 32.9826463], [-96.7450401, 32.9824567], [-96.7450932, 32.9822428], [-96.7451345, 32.9820617], [-96.7451798, 32.9818003], [-96.745211, 32.9815611], [-96.7452241, 32.9814067], [-96.7452363, 32.9812294], [-96.7452451, 32.9806269], [-96.7452383, 32.9804924], [-96.745218, 32.9803728], [-96.7451943, 32.9802616], [-96.745073, 32.9799653], [-96.7450124, 32.9798256], [-96.7449567, 32.9796793], [-96.744912, 32.9795267], [-96.744866, 32.9793541], [-96.7448244, 32.9792125], [-96.7447901, 32.9790708], [-96.7447693, 32.9789404], [-96.7447627, 32.9788386], [-96.7447624, 32.9783723], [-96.7448316, 32.9783176], [-96.7468695, 32.9783336], [-96.7471916, 32.9783552], [-96.7477086, 32.9783566], [-96.7480288, 32.9783394], [-96.7484494, 32.9783407], [-96.7543814, 32.9783532], [-96.7546383, 32.9783826], [-96.7552801, 32.9783844], [-96.755329, 32.9783866], [-96.7553604, 32.9783943], [-96.7553916, 32.9784112], [-96.7554123, 32.9784341], [-96.7554204, 32.9784575], [-96.7554293, 32.9784971], [-96.7554396, 32.9786295], [-96.7554614, 32.9787959], [-96.7554794, 32.9789152], [-96.7555032, 32.979051], [-96.7555271, 32.9791729], [-96.7555641, 32.9793506], [-96.7555944, 32.9794765], [-96.7556396, 32.9796288], [-96.7557146, 32.9798655], [-96.7557655, 32.980005], [-96.7558457, 32.9802103], [-96.7559281, 32.9803991], [-96.7562919, 32.9810927], [-96.7564289, 32.9813682], [-96.7564864, 32.9815123], [-96.7565269, 32.9816245], [-96.7565802, 32.9817896], [-96.7566273, 32.9819809], [-96.7566637, 32.9821804], [-96.7566796, 32.9823001], [-96.7566898, 32.9824231], [-96.7566965, 32.9825377], [-96.7566987, 32.9827249], [-96.7566921, 32.9829243], [-96.7566781, 32.9830606], [-96.7566381, 32.983294], [-96.7566175, 32.9833972], [-96.7565775, 32.9835527], [-96.7565291, 32.9837112], [-96.7564558, 32.983913], [-96.7563954, 32.9841073], [-96.7563064, 32.9844791], [-96.7562854, 32.9845763], [-96.7562661, 32.9846763], [-96.7562372, 32.9848924], [-96.7562109, 32.9852995], [-96.7562018, 32.9854675], [-96.7562008, 32.9856316], [-96.7565927, 32.9856259], [-96.7588194, 32.985629], [-96.7588071, 32.986798], [-96.756225, 32.9867727]]]]}}