{"type": "Feature", "properties": {"market_key": 2425, "university": "Temple College", "osm_type": "way", "osm_id": 68838103, "osm_name": "Temple College"}, "geometry": {"type": "Polygon", "coordinates": [[[-97.3534543, 31.0701967], [-97.3534895, 31.0703358], [-97.3534598, 31.0706659], [-97.3534106, 31.071098], [-97.353341, 31.0714485], [-97.3534766, 31.0715085], [-97.3530579, 31.0725905], [-97.3528284, 31.0732104], [-97.3527919, 31.0732086], [-97.3527624, 31.0732829], [-97.3527064, 31.073424], [-97.3526236, 31.0735732], [-97.3526066, 31.0736121], [-97.3525987, 31.0736456], [-97.3525965, 31.0738066], [-97.352593, 31.0738388], [-97.3525506, 31.073956], [-97.3525257, 31.074012], [-97.3524887, 31.0740611], [-97.3524738, 31.0740951], [-97.3524748, 31.0741223], [-97.3524853, 31.0741517], [-97.3524533, 31.07424], [-97.3524132, 31.0742786], [-97.3522187, 31.0747896], [-97.3521435, 31.0749904], [-97.351481, 31.076746], [-97.3514412, 31.0767732], [-97.3514251, 31.0767948], [-97.3512356, 31.0767259], [-97.3500553, 31.0763892], [-97.3503018, 31.0755227], [-97.3503725, 31.0753504], [-97.3499344, 31.0752359], [-97.3479468, 31.0746567], [-97.346666, 31.074285], [-97.3462443, 31.0741627], [-97.3445177, 31.073662], [-97.3441279, 31.0735544], [-97.3443776, 31.0730216], [-97.3439733, 31.0729078], [-97.3449847, 31.0706331], [-97.3461644, 31.0678425], [-97.3482871, 31.0694493], [-97.3489845, 31.070065], [-97.3496014, 31.0707818], [-97.3501271, 31.0706378], [-97.3506566, 31.0691663], [-97.3533234, 31.0699048], [-97.3534543, 31.0701967]]]}}