{"type": "Feature", "properties": {"market_key": 2427, "university": "Arkansas State University", "osm_type": "way", "osm_id": 449611788, "osm_name": "Arkansas State University"}, "geometry": {"type": "Polygon", "coordinates": [[[-90.6816907, 35.8427657], [-90.6861186, 35.8428162], [-90.6861616, 35.8414965], [-90.686195, 35.840659], [-90.6861942, 35.8402393], [-90.6862495, 35.8386039], [-90.6862639, 35.838348], [-90.6835927, 35.8370522], [-90.6821249, 35.8363473], [-90.6804804, 35.835796], [-90.6789105, 35.8354673], [-90.6784172, 35.8354066], [-90.6772699, 35.8353739], [-90.6702107, 35.8351661], [-90.6699943, 35.8350828], [-90.6698996, 35.8350153], [-90.6689808, 35.8350065], [-90.6676402, 35.8349561], [-90.6644206, 35.8349263], [-90.6574026, 35.8347971], [-90.6560697, 35.8349493], [-90.6548436, 35.8351939], [-90.6539965, 35.835498], [-90.6538739, 35.8399067], [-90.6538057, 35.842693], [-90.6546129, 35.842704], [-90.6564076, 35.8427284], [-90.6564629, 35.8410322], [-90.6565057, 35.8396206], [-90.6565228, 35.8390589], [-90.6592506, 35.8390907], [-90.6591589, 35.8427976], [-90.6602577, 35.8424719], [-90.6603876, 35.8391181], [-90.6615167, 35.8391581], [-90.6624158, 35.83919], [-90.6637379, 35.8392368], [-90.6637069, 35.8405021], [-90.6636798, 35.8416106], [-90.6635623, 35.8464116], [-90.6612144, 35.8463845], [-90.6611732, 35.8485385], [-90.6611682, 35.8487979], [-90.6611519, 35.8496507], [-90.6611511, 35.849693], [-90.6611436, 35.8500855], [-90.6611332, 35.8506286], [-90.6611327, 35.8506583], [-90.6611301, 35.8507911], [-90.6610753, 35.8535594], [-90.6616779, 35.8547437], [-90.6675383, 35.8518566], [-90.6678823, 35.8516858], [-90.6687055, 35.8512795], [-90.6697451, 35.8508111], [-90.6704806, 35.8504589], [-90.6710072, 35.8502013], [-90.6708092, 35.849966], [-90.6708094, 35.8496591], [-90.6712253, 35.8496557], [-90.6714788, 35.849978], [-90.6723546, 35.849561], [-90.6727391, 35.8493694], [-90.6746931, 35.8484451], [-90.6768479, 35.8474336], [-90.6773405, 35.8472058], [-90.6777115, 35.8469968], [-90.6782545, 35.846711], [-90.6786753, 35.8465057], [-90.6790983, 35.846306], [-90.679697, 35.8460191], [-90.6803385, 35.8457633], [-90.6808888, 35.8455786], [-90.681604, 35.8454164], [-90.6816907, 35.8427657]]]}}