{"type": "Feature", "properties": {"market_key": 2430, "university": "Gonzaga University", "osm_type": "relation", "osm_id": 14972265, "osm_name": "Gonzaga University"}, "geometry": {"type": "MultiPolygon", "coordinates": [[[[-117.4094825, 47.6661239], [-117.4094559, 47.6662151], [-117.4094405, 47.6663117], [-117.4094362, 47.6664462], [-117.4094397, 47.6667768], [-117.4094386, 47.6674283], [-117.4094425, 47.6685287], [-117.4094383, 47.6693408], [-117.4094296, 47.6693795], [-117.4094123, 47.669397], [-117.4093858, 47.6694115], [-117.4093467, 47.6694196], [-117.4092807, 47.6694223], [-117.4080397, 47.669428], [-117.4049541, 47.6694313], [-117.4049185, 47.669442], [-117.4048854, 47.6694508], [-117.4048506, 47.6694545], [-117.4048076, 47.6694541], [-117.4044966, 47.6694546], [-117.4044457, 47.669452], [-117.4044121, 47.6694446], [-117.4043872, 47.6694368], [-117.4043623, 47.669429], [-117.4029203, 47.6694363], [-117.4029239, 47.6695943], [-117.4029162, 47.670094], [-117.4029129, 47.6705681], [-117.4026033, 47.6705655], [-117.4026075, 47.6700927], [-117.4024411, 47.6700925], [-117.4024254, 47.6711898], [-117.4022526, 47.6711886], [-117.4022492, 47.6716274], [-117.4020403, 47.6716261], [-117.4020412, 47.6711442], [-117.4022501, 47.6711458], [-117.4022389, 47.6696145], [-117.4020363, 47.6696135], [-117.4020433, 47.6705669], [-117.3987926, 47.6705761], [-117.3987905, 47.6701014], [-117.398265, 47.6701013], [-117.3982647, 47.6699157], [-117.3982422, 47.6698663], [-117.3982343, 47.6697829], [-117.3982492, 47.6697231], [-117.3982851, 47.6696742], [-117.3983402, 47.6696372], [-117.3983965, 47.6696105], [-117.3983902, 47.6694451], [-117.3980015, 47.6694455], [-117.3979985, 47.6689839], [-117.397361, 47.668985], [-117.3971809, 47.6689839], [-117.397187, 47.6685046], [-117.3971887, 47.6683687], [-117.3967275, 47.6683616], [-117.3966885, 47.668343], [-117.3966719, 47.6683187], [-117.3966653, 47.6641624], [-117.3978504, 47.6641561], [-117.3980222, 47.6641547], [-117.3980187, 47.6638107], [-117.3980372, 47.6637834], [-117.398073, 47.6637632], [-117.3981361, 47.6637355], [-117.3981771, 47.6636919], [-117.3981896, 47.6636433], [-117.3981814, 47.6635971], [-117.3981417, 47.6635447], [-117.3980637, 47.6635115], [-117.3980316, 47.6634967], [-117.3980152, 47.6634725], [-117.3980102, 47.662071], [-117.3979684, 47.6620094], [-117.3979686, 47.6619675], [-117.3979806, 47.6619553], [-117.398, 47.6619476], [-117.3992499, 47.6619487], [-117.3999564, 47.6619678], [-117.4004714, 47.6619796], [-117.403254, 47.6645565], [-117.4058139, 47.6656692], [-117.4065542, 47.6658065], [-117.4070799, 47.6657378], [-117.4077973, 47.6650231], [-117.4088978, 47.6656727], [-117.4089045, 47.6661239], [-117.4094825, 47.6661239]], [[-117.3987885, 47.670061], [-117.3991874, 47.6700602], [-117.3991913, 47.6696241], [-117.3987916, 47.6696229], [-117.3987885, 47.670061]]], [[[-117.3977078, 47.6616969], [-117.3977077, 47.6615979], [-117.3978157, 47.6615979], [-117.3978155, 47.6611458], [-117.3978593, 47.6611458], [-117.3978577, 47.6600218], [-117.3978805, 47.6600177], [-117.3980045, 47.6599957], [-117.398155, 47.6599998], [-117.3984005, 47.6600507], [-117.3985268, 47.6601439], [-117.3986476, 47.660308], [-117.3987647, 47.6604104], [-117.3988949, 47.6605499], [-117.3990084, 47.6605846], [-117.3994684, 47.6609419], [-117.3995439, 47.6610872], [-117.3995422, 47.6612073], [-117.399622, 47.6613619], [-117.3997976, 47.6615171], [-117.399998, 47.6616074], [-117.3998028, 47.6616074], [-117.3998604, 47.6616737], [-117.3998643, 47.6616896], [-117.3997387, 47.6616897], [-117.3992314, 47.6616623], [-117.3986227, 47.6616625], [-117.3985213, 47.6617296], [-117.3981435, 47.6617297], [-117.3979406, 47.6616969], [-117.3977078, 47.6616969]]], [[[-117.3931637, 47.6684144], [-117.392161, 47.6684184], [-117.3920284, 47.6684677], [-117.3918016, 47.6688045], [-117.3917798, 47.6693998], [-117.390412, 47.669404], [-117.390844, 47.6686297], [-117.3912337, 47.668067], [-117.3912472, 47.6680329], [-117.3915712, 47.6680346], [-117.3915712, 47.6680273], [-117.3923372, 47.6680334], [-117.3923379, 47.6680888], [-117.3931849, 47.6680912], [-117.3931854, 47.6683399], [-117.3931637, 47.6684144]]], [[[-117.393716, 47.6685084], [-117.3937091, 47.6689646], [-117.3947951, 47.6689646], [-117.3947973, 47.6685272], [-117.3947858, 47.6685138], [-117.3947644, 47.6685066], [-117.393716, 47.6685084]]]]}}