{"type": "Feature", "properties": {"market_key": 2435, "university": "Brigham Young University-Idaho", "osm_type": "relation", "osm_id": 8311245, "osm_name": "Brigham Young University - Idaho"}, "geometry": {"type": "MultiPolygon", "coordinates": [[[[-111.7868541, 43.8192589], [-111.7874365, 43.8192558], [-111.7874337, 43.8196135], [-111.7874381, 43.8196731], [-111.786851, 43.8196692], [-111.7868541, 43.8192589]]], [[[-111.7865549, 43.8155456], [-111.7865532, 43.8163784], [-111.7865491, 43.8183798], [-111.7865491, 43.8184333], [-111.7865489, 43.8189804], [-111.7865489, 43.8217579], [-111.7847143, 43.8217567], [-111.781094, 43.8217699], [-111.781068, 43.8217616], [-111.7810536, 43.8217399], [-111.7810578, 43.8198941], [-111.7810449, 43.8198085], [-111.7810224, 43.8197665], [-111.7809819, 43.8197273], [-111.780921, 43.8196939], [-111.7808148, 43.8196761], [-111.7782054, 43.819682], [-111.7781758, 43.8196569], [-111.7782361, 43.8116085], [-111.7782623, 43.8115924], [-111.7783009, 43.8115823], [-111.7835552, 43.8116041], [-111.7866478, 43.811605], [-111.786737, 43.811605], [-111.7867044, 43.8135745], [-111.7866873, 43.8139569], [-111.7881212, 43.8139562], [-111.7880742, 43.8155299], [-111.7865549, 43.8155456]]]]}}