{"type": "Feature", "properties": {"market_key": 2437, "university": "Salisbury University", "osm_type": "relation", "osm_id": 9395653, "osm_name": "Salisbury University"}, "geometry": {"type": "MultiPolygon", "coordinates": [[[[-75.6107686, 38.3442864], [-75.610536, 38.3451062], [-75.6102598, 38.3450705], [-75.6101525, 38.345426], [-75.6104234, 38.3454743], [-75.6102973, 38.3459098], [-75.6100344, 38.3467828], [-75.6094953, 38.3466881], [-75.6094041, 38.3470268], [-75.6093773, 38.3471257], [-75.6099137, 38.3472224], [-75.6097005, 38.3479345], [-75.6098581, 38.3479624], [-75.6098031, 38.3481348], [-75.6096663, 38.3485934], [-75.6095121, 38.3485661], [-75.6092532, 38.3485203], [-75.6091842, 38.3487601], [-75.6085887, 38.3486697], [-75.6085512, 38.3488106], [-75.6079101, 38.3487265], [-75.6078753, 38.3488253], [-75.6078163, 38.3490041], [-75.6082964, 38.3490777], [-75.6082508, 38.3492734], [-75.6077572, 38.3492061], [-75.6077204, 38.3493565], [-75.6075212, 38.3493365], [-75.6073952, 38.3498077], [-75.6063652, 38.3496815], [-75.6063766, 38.3496131], [-75.6058368, 38.3495489], [-75.6059119, 38.3491514], [-75.6059387, 38.3489852], [-75.6026691, 38.348636], [-75.6024572, 38.3485477], [-75.6024114, 38.3483824], [-75.6024036, 38.3483541], [-75.6029371, 38.3467338], [-75.6029408, 38.3467229], [-75.603244, 38.3460646], [-75.6046089, 38.3433266], [-75.6050468, 38.3424742], [-75.605421, 38.3417929], [-75.6062579, 38.3420517], [-75.6064376, 38.3416814], [-75.6109362, 38.3425395], [-75.6106958, 38.3433523], [-75.6105193, 38.3433169], [-75.6095114, 38.3431309], [-75.6092471, 38.3440232], [-75.6107686, 38.3442864]], [[-75.6071672, 38.3492897], [-75.6071131, 38.3494736], [-75.6070919, 38.3495505], [-75.6070904, 38.349556], [-75.6068875, 38.3495326], [-75.6069636, 38.3492647], [-75.6071672, 38.3492897]]]]}}