{"type": "Feature", "properties": {"market_key": 2438, "university": "Claremont McKenna College", "osm_type": "relation", "osm_id": 19559549, "osm_name": "Claremont McKenna College"}, "geometry": {"type": "MultiPolygon", "coordinates": [[[[-117.7038283, 34.0974794], [-117.7048226, 34.0974954], [-117.705304, 34.0975029], [-117.7057961, 34.0975105], [-117.7057961, 34.0977686], [-117.7057979, 34.0979527], [-117.7059903, 34.0979493], [-117.7069842, 34.0979664], [-117.7070102, 34.0995196], [-117.7069642, 34.099533], [-117.7069627, 34.0996807], [-117.7070006, 34.0997033], [-117.707038, 34.0997338], [-117.7072107, 34.0997392], [-117.7072154, 34.0997172], [-117.7072321, 34.0997023], [-117.7072484, 34.0996904], [-117.7077814, 34.0996974], [-117.7092163, 34.0997227], [-117.7092865, 34.0997378], [-117.7092825, 34.0998403], [-117.7092609, 34.0998834], [-117.7092623, 34.100032], [-117.7092852, 34.1000328], [-117.7092854, 34.1004924], [-117.709263, 34.1004919], [-117.7092644, 34.1007267], [-117.7092868, 34.1007263], [-117.7092791, 34.1013237], [-117.7092774, 34.1013792], [-117.7092869, 34.1014308], [-117.7093161, 34.1014612], [-117.7093158, 34.1014975], [-117.7093144, 34.1015414], [-117.7093075, 34.1015629], [-117.7093001, 34.1015821], [-117.7092992, 34.1016082], [-117.7093075, 34.1016282], [-117.7093219, 34.1016458], [-117.709335, 34.1016581], [-117.7093561, 34.1016713], [-117.709382, 34.1016773], [-117.7094086, 34.1016771], [-117.7094411, 34.1016697], [-117.7094693, 34.1016516], [-117.7094992, 34.1016341], [-117.7099779, 34.1016394], [-117.7099672, 34.101713], [-117.711387, 34.1017276], [-117.7113806, 34.1025401], [-117.7089996, 34.1025161], [-117.7070398, 34.1025189], [-117.7069587, 34.1025797], [-117.7064761, 34.1025737], [-117.7063294, 34.1025479], [-117.7062425, 34.1025159], [-117.7060582, 34.1024427], [-117.7059248, 34.1024176], [-117.7052394, 34.102408], [-117.705151, 34.102417], [-117.7049499, 34.1024621], [-117.7048684, 34.1024707], [-117.7031762, 34.1024583], [-117.7030913, 34.1023914], [-117.7030974, 34.0996464], [-117.703116, 34.0996288], [-117.7031452, 34.0996204], [-117.7031812, 34.099469], [-117.7031485, 34.0994503], [-117.7031255, 34.0993932], [-117.7031864, 34.0991357], [-117.7032502, 34.0989239], [-117.7038283, 34.0974794]]], [[[-117.7027515, 34.0992563], [-117.7027235, 34.097819], [-117.7033361, 34.0978293], [-117.7031937, 34.0981528], [-117.7029774, 34.0986805], [-117.7029427, 34.0987691], [-117.7027899, 34.0992583], [-117.7027515, 34.0992563]]], [[[-117.7027639, 34.1066976], [-117.7027506, 34.106735], [-117.7027082, 34.1067558], [-117.6999258, 34.106646], [-117.6987331, 34.1066592], [-117.6986667, 34.1066284], [-117.6986309, 34.106579], [-117.6986283, 34.1064955], [-117.6986283, 34.1048152], [-117.6986044, 34.1045055], [-117.6985633, 34.1042123], [-117.6985421, 34.1040366], [-117.6985368, 34.103672], [-117.6985287, 34.0997023], [-117.6985537, 34.099669], [-117.6986072, 34.0996547], [-117.7023777, 34.0997102], [-117.7024777, 34.099704], [-117.7025243, 34.0996888], [-117.7026663, 34.0996875], [-117.7027495, 34.099758], [-117.7027639, 34.1066976]]]]}}