{"type": "Feature", "properties": {"market_key": 2441, "university": "Prairie View A&M University", "osm_type": "way", "osm_id": 452801963, "osm_name": "Prairie View A&M University"}, "geometry": {"type": "Polygon", "coordinates": [[[-95.985639, 30.087806], [-95.9886914, 30.087987], [-95.9894692, 30.0880125], [-95.9920685, 30.0879886], [-95.9919069, 30.0886822], [-95.9936176, 30.0886769], [-95.9938351, 30.0884818], [-95.9938092, 30.0879727], [-95.9950241, 30.0879615], [-95.9966388, 30.0879661], [-95.9971484, 30.08811], [-95.9975239, 30.08837], [-95.9978511, 30.0887784], [-95.9979745, 30.0892194], [-95.9980121, 30.0897114], [-95.9980496, 30.093522], [-95.9980282, 30.0991796], [-95.9948739, 30.0991703], [-95.9917582, 30.0986689], [-95.9895121, 30.0992898], [-95.9881141, 30.0999948], [-95.9875952, 30.101568], [-95.9757122, 30.1017786], [-95.9756156, 30.0994117], [-95.9762379, 30.0934454], [-95.9742745, 30.0931576], [-95.9744569, 30.0914217], [-95.983139, 30.0922912], [-95.9833576, 30.0908523], [-95.9818691, 30.0906236], [-95.9822056, 30.0884196], [-95.9843326, 30.0887442], [-95.9844697, 30.0877405], [-95.985639, 30.087806]]]}}