{"type": "Feature", "properties": {"market_key": 2442, "university": "California State University Stanislaus", "osm_type": "way", "osm_id": 232387028, "osm_name": "California State University, Stanislaus"}, "geometry": {"type": "Polygon", "coordinates": [[[-120.8625745, 37.5220626], [-120.8625691, 37.5220582], [-120.8625612, 37.5220532], [-120.8625537, 37.5220495], [-120.8625454, 37.522047], [-120.8625337, 37.5220452], [-120.8606017, 37.5220406], [-120.8603089, 37.5220399], [-120.8583467, 37.522036], [-120.8578971, 37.522035], [-120.8546454, 37.5220201], [-120.8545424, 37.5220196], [-120.8543089, 37.5220185], [-120.8520247, 37.5220081], [-120.8512978, 37.5220012], [-120.8512166, 37.5220022], [-120.8511353, 37.5220047], [-120.8491236, 37.5220668], [-120.8491138, 37.522068], [-120.849104, 37.5220703], [-120.8490957, 37.5220732], [-120.8490877, 37.5220769], [-120.8490804, 37.5220807], [-120.8490748, 37.5220844], [-120.8490676, 37.5220895], [-120.8490613, 37.5220955], [-120.8490551, 37.5221023], [-120.84905, 37.5221097], [-120.8490466, 37.5221153], [-120.8490429, 37.5221236], [-120.8490409, 37.5221301], [-120.8490395, 37.5221366], [-120.8490388, 37.5221426], [-120.8490387, 37.5221487], [-120.8490757, 37.5245686], [-120.8490797, 37.5250663], [-120.84908, 37.525082], [-120.8490813, 37.5250961], [-120.8490845, 37.5251325], [-120.8490852, 37.5251448], [-120.8490857, 37.5251594], [-120.8491314, 37.5285187], [-120.849136, 37.5285482], [-120.8491411, 37.5285715], [-120.8491604, 37.5286948], [-120.8491642, 37.5287301], [-120.8491654, 37.5287705], [-120.8491636, 37.5289354], [-120.8491655, 37.5289636], [-120.8491702, 37.5289867], [-120.8491764, 37.5290057], [-120.8491844, 37.5290229], [-120.8491927, 37.5290382], [-120.8492042, 37.5290527], [-120.8492183, 37.5290659], [-120.8492428, 37.5290864], [-120.8492677, 37.5291035], [-120.8492996, 37.5291201], [-120.8493262, 37.5291314], [-120.8493457, 37.5291386], [-120.8493708, 37.5291436], [-120.8493982, 37.529145], [-120.8500716, 37.5291458], [-120.8501102, 37.5291467], [-120.8501487, 37.5291499], [-120.850282, 37.529166], [-120.8503204, 37.5291701], [-120.8503617, 37.5291719], [-120.8539606, 37.5291761], [-120.8550252, 37.5291568], [-120.8553939, 37.5291569], [-120.8554348, 37.5291578], [-120.8554762, 37.5291602], [-120.855741, 37.5291785], [-120.8557711, 37.52918], [-120.8558022, 37.5291808], [-120.8564905, 37.5291819], [-120.8568361, 37.5292006], [-120.8573544, 37.5292627], [-120.8578433, 37.5292958], [-120.8587628, 37.529293], [-120.8587628, 37.5292915], [-120.8587503, 37.529291], [-120.8587394, 37.5292891], [-120.8587292, 37.5292854], [-120.858719, 37.5292801], [-120.8587113, 37.5292747], [-120.8587043, 37.5292688], [-120.8586979, 37.5292616], [-120.8586942, 37.5292551], [-120.8586916, 37.5292484], [-120.85869, 37.529241], [-120.858689, 37.5292324], [-120.8586894, 37.5292236], [-120.8586915, 37.5292154], [-120.858695, 37.5292073], [-120.8587006, 37.5291998], [-120.8587079, 37.5291926], [-120.8587161, 37.5291872], [-120.8587253, 37.5291823], [-120.8587323, 37.5291794], [-120.8587396, 37.5291772], [-120.8587488, 37.5291753], [-120.8587604, 37.5291745], [-120.8587724, 37.5291752], [-120.8587832, 37.5291771], [-120.8587944, 37.52918], [-120.8588042, 37.5291829], [-120.8588128, 37.5291854], [-120.8588223, 37.5291871], [-120.8588327, 37.5291876], [-120.85885, 37.5291874], [-120.8588598, 37.5273529], [-120.861061, 37.5273556], [-120.8623969, 37.5273499], [-120.8624442, 37.5261282], [-120.8624715, 37.5261059], [-120.8624737, 37.5260604], [-120.8624752, 37.5260292], [-120.8624489, 37.5260062], [-120.8625009, 37.5246674], [-120.8625297, 37.5246437], [-120.8625312, 37.5246147], [-120.8625327, 37.5245856], [-120.8625047, 37.5245621], [-120.862512, 37.5243581], [-120.8625933, 37.5220989], [-120.8625929, 37.5220904], [-120.8625913, 37.5220835], [-120.8625876, 37.5220769], [-120.8625831, 37.5220713], [-120.862579, 37.5220671], [-120.8625745, 37.5220626]]]}}