{"type": "Feature", "properties": {"market_key": 2443, "university": "Abilene Christian University", "osm_type": "way", "osm_id": 187009585, "osm_name": "Abilene Christian University"}, "geometry": {"type": "Polygon", "coordinates": [[[-99.7114817, 32.4658768], [-99.7121583, 32.4658591], [-99.7121512, 32.4665678], [-99.7121593, 32.4672199], [-99.7121589, 32.4677212], [-99.712153, 32.467918], [-99.712155, 32.4679992], [-99.7121575, 32.4686472], [-99.71244, 32.4686464], [-99.712434, 32.4690994], [-99.7124332, 32.4691637], [-99.714418, 32.4691619], [-99.7144149, 32.4695937], [-99.7114952, 32.4696026], [-99.7114978, 32.4708915], [-99.7114834, 32.473073], [-99.7114817, 32.4733399], [-99.7114978, 32.4745211], [-99.7079559, 32.4745353], [-99.707435, 32.4745007], [-99.7067859, 32.4745122], [-99.7066668, 32.4744587], [-99.7065907, 32.4743627], [-99.7063694, 32.4739282], [-99.7060832, 32.4735232], [-99.7056398, 32.4730774], [-99.7050512, 32.4726951], [-99.704549, 32.4723918], [-99.7041627, 32.4720976], [-99.7040693, 32.4720062], [-99.7037623, 32.4717061], [-99.7035029, 32.4713554], [-99.7032883, 32.4707625], [-99.7032151, 32.4703077], [-99.7032312, 32.4696379], [-99.7033201, 32.4693607], [-99.7033581, 32.4692421], [-99.7035565, 32.4688619], [-99.7038301, 32.468355], [-99.7044578, 32.4672009], [-99.7051892, 32.4658813], [-99.7065123, 32.4658612], [-99.7091516, 32.4658612], [-99.7100435, 32.4658672], [-99.7101261, 32.4658677], [-99.7105201, 32.4658704], [-99.7106202, 32.465871], [-99.7111004, 32.4658742], [-99.7112041, 32.4658749], [-99.7114817, 32.4658768]]]}}