{"type": "Feature", "properties": {"market_key": 2447, "university": "Gulf Coast State College", "osm_type": "way", "osm_id": 237754782, "osm_name": "Gulf Coast State College"}, "geometry": {"type": "Polygon", "coordinates": [[[-85.7202112, 30.1879771], [-85.720228, 30.1879139], [-85.7202489, 30.1878245], [-85.7202582, 30.1877738], [-85.720273, 30.1876929], [-85.7202854, 30.1876158], [-85.7202986, 30.1875274], [-85.7203096, 30.1874214], [-85.7203305, 30.1872671], [-85.7203485, 30.187127], [-85.7203677, 30.1870122], [-85.7203889, 30.186915], [-85.7204156, 30.1868166], [-85.7204438, 30.1867222], [-85.7204901, 30.1865977], [-85.7205345, 30.1864934], [-85.7205713, 30.1864172], [-85.7206165, 30.1863298], [-85.720667, 30.1862427], [-85.7207175, 30.1861639], [-85.7207796, 30.1860754], [-85.7208383, 30.1859976], [-85.7208975, 30.1859235], [-85.720969, 30.1858454], [-85.7210563, 30.1857537], [-85.7211252, 30.1856876], [-85.7212161, 30.1856069], [-85.7213041, 30.1855372], [-85.7213918, 30.185472], [-85.72149, 30.1854047], [-85.7215892, 30.1853411], [-85.7216876, 30.1852855], [-85.7217802, 30.1852353], [-85.7219021, 30.1851781], [-85.7220586, 30.1851126], [-85.7222381, 30.1850495], [-85.7222991, 30.1850317], [-85.7223784, 30.1850085], [-85.7224865, 30.1849826], [-85.7226222, 30.1849524], [-85.7227253, 30.1849348], [-85.722824, 30.1849208], [-85.7229282, 30.1849093], [-85.7230424, 30.1849011], [-85.7231522, 30.1848958], [-85.7232919, 30.1848948], [-85.7237223, 30.1849032], [-85.7240326, 30.1849048], [-85.7242179, 30.184943], [-85.7243363, 30.1849394], [-85.7244755, 30.1849259], [-85.7246963, 30.1849019], [-85.7248185, 30.184883], [-85.7249051, 30.1848683], [-85.7249955, 30.1848488], [-85.72508, 30.1848298], [-85.7253954, 30.1847471], [-85.7255561, 30.184693], [-85.7256675, 30.1846535], [-85.7257572, 30.1846158], [-85.7258923, 30.1845606], [-85.7260256, 30.1844958], [-85.7262275, 30.1843931], [-85.726537, 30.1842334], [-85.7266252, 30.1841878], [-85.7266773, 30.184166], [-85.7267253, 30.1841469], [-85.7267737, 30.1841278], [-85.7268165, 30.1841122], [-85.7269026, 30.1840859], [-85.7269936, 30.1840625], [-85.7270496, 30.1840504], [-85.7270973, 30.1840418], [-85.7271768, 30.1840319], [-85.7272624, 30.184024], [-85.7273415, 30.1840228], [-85.7274206, 30.1840349], [-85.7274688, 30.1840458], [-85.7275225, 30.1840623], [-85.7275936, 30.1840861], [-85.7276431, 30.1841127], [-85.7279607, 30.18431], [-85.7281029, 30.1843866], [-85.7282952, 30.1844794], [-85.7284346, 30.1845394], [-85.7285598, 30.184585], [-85.7288042, 30.1846711], [-85.7290644, 30.1847598], [-85.7292697, 30.1848148], [-85.7295921, 30.184925], [-85.7297046, 30.1849684], [-85.7298477, 30.1850288], [-85.7299742, 30.1850894], [-85.7304033, 30.1853051], [-85.7304396, 30.1853247], [-85.7304666, 30.1853418], [-85.730479, 30.1853526], [-85.7304924, 30.1853686], [-85.7305018, 30.1853869], [-85.7305093, 30.1854052], [-85.730514, 30.1854236], [-85.730515, 30.1854404], [-85.730512, 30.185463], [-85.7305066, 30.1854789], [-85.7304993, 30.1854986], [-85.7304832, 30.1855253], [-85.7303735, 30.1856885], [-85.7303112, 30.185786], [-85.73025, 30.1858906], [-85.7302166, 30.1859494], [-85.7301826, 30.1860141], [-85.7300095, 30.1863434], [-85.7299719, 30.186402], [-85.729938, 30.1864423], [-85.7299025, 30.1864814], [-85.729826, 30.186555], [-85.7297901, 30.1865864], [-85.729745, 30.1866215], [-85.7296996, 30.1866533], [-85.7296569, 30.1866828], [-85.7296097, 30.1867125], [-85.7295664, 30.1867383], [-85.7295131, 30.1867671], [-85.7294557, 30.1867946], [-85.7293917, 30.1868228], [-85.7292849, 30.1868639], [-85.7286478, 30.1870947], [-85.7285734, 30.187125], [-85.7283211, 30.1872219], [-85.7281025, 30.1873066], [-85.7277867, 30.187424], [-85.7276901, 30.1874609], [-85.7274877, 30.1875332], [-85.7274081, 30.187564], [-85.7273042, 30.1876024], [-85.727136, 30.1876668], [-85.7270593, 30.1876962], [-85.726997, 30.1877138], [-85.7268079, 30.1877653], [-85.7266739, 30.187806], [-85.7265151, 30.1878635], [-85.7263987, 30.1879049], [-85.7263279, 30.1879317], [-85.7260432, 30.1880234], [-85.7259435, 30.188051], [-85.7258382, 30.1880799], [-85.7257153, 30.1881067], [-85.7256234, 30.188125], [-85.7255196, 30.1881449], [-85.7254272, 30.188161], [-85.7253489, 30.1881723], [-85.7252727, 30.18818], [-85.7252321, 30.1881856], [-85.7250116, 30.1882082], [-85.7249997, 30.1882144], [-85.724978, 30.1882239], [-85.7249606, 30.188229], [-85.7249371, 30.1882334], [-85.7248115, 30.1882371], [-85.7246658, 30.1882396], [-85.7245388, 30.1882381], [-85.7244131, 30.1882331], [-85.7237445, 30.1882093], [-85.7234653, 30.1882037], [-85.7229739, 30.1881973], [-85.7225696, 30.1881937], [-85.7224946, 30.1881928], [-85.7222593, 30.188172], [-85.7219585, 30.1881715], [-85.721793, 30.1881396], [-85.7211915, 30.1881415], [-85.720821, 30.1881412], [-85.7203493, 30.1881412], [-85.7203279, 30.1881378], [-85.7203037, 30.188132], [-85.7202844, 30.1881242], [-85.7202661, 30.1881129], [-85.7202453, 30.1880976], [-85.720233, 30.1880841], [-85.7202236, 30.1880696], [-85.7202141, 30.1880513], [-85.7202096, 30.1880352], [-85.7202073, 30.1880212], [-85.7202066, 30.1880027], [-85.7202112, 30.1879771]]]}}