{"type": "Feature", "properties": {"market_key": 2448, "university": "The Ohio State University at Mansfield", "osm_type": "way", "osm_id": 316613897, "osm_name": "Ohio State University Mansfield"}, "geometry": {"type": "Polygon", "coordinates": [[[-82.5862036, 40.7976434], [-82.5862025, 40.7975246], [-82.5861632, 40.7970485], [-82.5861882, 40.7968932], [-82.5863102, 40.7967315], [-82.5859836, 40.7965675], [-82.5853525, 40.7965516], [-82.5850704, 40.7967218], [-82.5849777, 40.7967128], [-82.5848315, 40.7966849], [-82.5847065, 40.7966184], [-82.584188, 40.7961531], [-82.5841652, 40.7960703], [-82.5841687, 40.7954552], [-82.584075, 40.7954238], [-82.5835542, 40.7953825], [-82.58293, 40.795448], [-82.5825925, 40.7956232], [-82.5823668, 40.7957983], [-82.5821683, 40.7960258], [-82.5822138, 40.7961401], [-82.5822703, 40.7962857], [-82.5822507, 40.7964371], [-82.5821791, 40.7964644], [-82.5818948, 40.7963628], [-82.5816855, 40.7964116], [-82.5814602, 40.7963913], [-82.5810579, 40.7964725], [-82.5808123, 40.796578], [-82.5807307, 40.796554], [-82.5807145, 40.7965033], [-82.5808098, 40.7964423], [-82.5809614, 40.7963709], [-82.5809986, 40.7963198], [-82.5809853, 40.7962421], [-82.580838, 40.7961476], [-82.580265, 40.7960069], [-82.5801453, 40.796015], [-82.5794644, 40.7967374], [-82.5792929, 40.7967584], [-82.5784325, 40.7965508], [-82.5782683, 40.7965533], [-82.5781504, 40.7965699], [-82.5779844, 40.7966268], [-82.5778875, 40.7967771], [-82.577968, 40.7968908], [-82.5781188, 40.7970287], [-82.5781273, 40.7970848], [-82.5780301, 40.7972467], [-82.5778394, 40.7973917], [-82.5777217, 40.7974831], [-82.5775881, 40.7974964], [-82.5773166, 40.7974383], [-82.577193, 40.7974234], [-82.5770917, 40.7974698], [-82.5767171, 40.7978178], [-82.5763426, 40.7980359], [-82.5763448, 40.7982853], [-82.576339, 40.798786], [-82.5759297, 40.7994461], [-82.576091, 40.7997694], [-82.5760196, 40.7998516], [-82.5752878, 40.7999983], [-82.5752519, 40.8000382], [-82.575248, 40.8003039], [-82.5751579, 40.8003612], [-82.5746726, 40.8004302], [-82.574553, 40.8004051], [-82.5744658, 40.8002633], [-82.5743457, 40.8002537], [-82.5737499, 40.8005074], [-82.5730106, 40.8006383], [-82.572396, 40.8010308], [-82.572179, 40.8011626], [-82.5722856, 40.8012602], [-82.5726017, 40.801494], [-82.5729972, 40.8017436], [-82.5736253, 40.8020521], [-82.5740524, 40.8022525], [-82.5744758, 40.8024193], [-82.5746998, 40.8024935], [-82.5746962, 40.8023524], [-82.5746874, 40.8018475], [-82.5746975, 40.8017921], [-82.574981, 40.8013229], [-82.575085, 40.8010849], [-82.5751385, 40.8010683], [-82.5751992, 40.8010805], [-82.5751931, 40.8013307], [-82.5752451, 40.8013825], [-82.5753512, 40.8013954], [-82.5759863, 40.8012521], [-82.576057, 40.8011451], [-82.5762249, 40.8010849], [-82.576596, 40.8009009], [-82.5766808, 40.8008297], [-82.5767434, 40.8007081], [-82.5767575, 40.8006478], [-82.5766969, 40.8006006], [-82.5765509, 40.8005614], [-82.5761939, 40.8004896], [-82.5762425, 40.8004327], [-82.5780861, 40.8004685], [-82.578421, 40.8004301], [-82.5785093, 40.8003786], [-82.5785265, 40.8003081], [-82.5785725, 40.7999677], [-82.5786416, 40.7999244], [-82.5789769, 40.800018], [-82.5790455, 40.800058], [-82.5790553, 40.8001306], [-82.5788625, 40.8010314], [-82.5788941, 40.8010711], [-82.5794706, 40.8011732], [-82.5795912, 40.8011657], [-82.5796491, 40.801099], [-82.579897, 40.8004175], [-82.5799783, 40.8003449], [-82.5801085, 40.8003256], [-82.5808373, 40.8004528], [-82.5808586, 40.8004216], [-82.5808153, 40.800316], [-82.580861, 40.8002846], [-82.5811163, 40.8003296], [-82.5813113, 40.8003745], [-82.5813888, 40.8003619], [-82.581624, 40.8001771], [-82.5824306, 40.7999133], [-82.5824455, 40.7998809], [-82.5822791, 40.7994393], [-82.5823224, 40.79936], [-82.5828572, 40.7991297], [-82.5829139, 40.7991486], [-82.5831031, 40.8009189], [-82.5831576, 40.8009552], [-82.584995, 40.80081], [-82.5851123, 40.8007849], [-82.5851847, 40.8007504], [-82.5852113, 40.8004595], [-82.5851967, 40.7993152], [-82.5851955, 40.7992253], [-82.5852058, 40.7984357], [-82.58518, 40.7983875], [-82.5850787, 40.7983692], [-82.5842516, 40.7984056], [-82.5841382, 40.7983534], [-82.5840909, 40.7982942], [-82.5842168, 40.7981885], [-82.5862525, 40.7981595], [-82.5862338, 40.7979985], [-82.5862036, 40.7976434]]]}}