{"type": "Feature", "properties": {"market_key": 2449, "university": "Northwestern State University", "osm_type": "way", "osm_id": 189192304, "osm_name": "Northwestern State University"}, "geometry": {"type": "Polygon", "coordinates": [[[-93.107852, 31.7494046], [-93.1076224, 31.7493712], [-93.1056379, 31.7494114], [-93.1054395, 31.7494154], [-93.105293, 31.7493913], [-93.1051749, 31.7493351], [-93.1052032, 31.7492025], [-93.1054726, 31.7485797], [-93.1058694, 31.747531], [-93.1059734, 31.7472658], [-93.105997, 31.7469725], [-93.1060537, 31.7467274], [-93.1060962, 31.7465426], [-93.1060678, 31.7465302], [-93.1057655, 31.746398], [-93.1053083, 31.7460031], [-93.1051112, 31.7458027], [-93.1049934, 31.7455038], [-93.1048205, 31.7452167], [-93.1047922, 31.7449675], [-93.1047922, 31.7447988], [-93.1053946, 31.7442338], [-93.1055718, 31.7440675], [-93.1073963, 31.7441056], [-93.1077274, 31.7430363], [-93.1077925, 31.7428259], [-93.1108165, 31.7428338], [-93.1108186, 31.7428236], [-93.1108644, 31.742588], [-93.1109294, 31.742475], [-93.1109976, 31.7423283], [-93.1110708, 31.7421437], [-93.1112245, 31.7417017], [-93.1112558, 31.7415317], [-93.1112716, 31.741437], [-93.1112953, 31.7412995], [-93.1112861, 31.741298], [-93.110759, 31.741121], [-93.110411, 31.740978], [-93.110295, 31.740912], [-93.110224, 31.740846], [-93.110147, 31.740742], [-93.110147, 31.740626], [-93.1100825, 31.7405769], [-93.1100696, 31.7404834], [-93.1100825, 31.7404008], [-93.1101596, 31.7402358], [-93.1101724, 31.7401808], [-93.1101596, 31.7401534], [-93.1101338, 31.7401368], [-93.1100309, 31.7401259], [-93.1099729, 31.7401369], [-93.1097219, 31.740115], [-93.1094387, 31.7400161], [-93.1094065, 31.7400326], [-93.1093036, 31.7402581], [-93.1091943, 31.7403792], [-93.1088018, 31.7406379], [-93.1086217, 31.7407919], [-93.1085509, 31.7408579], [-93.1084481, 31.7409075], [-93.10821, 31.7409735], [-93.1080619, 31.7410121], [-93.1080362, 31.7410671], [-93.1079526, 31.7411551], [-93.1077595, 31.7412212], [-93.1072897, 31.7413094], [-93.10691, 31.7413095], [-93.1068457, 31.7412985], [-93.1067169, 31.741205], [-93.1065044, 31.7411117], [-93.1061762, 31.7410512], [-93.1052558, 31.7410406], [-93.1050756, 31.7410571], [-93.1045801, 31.7411343], [-93.1044, 31.7411784], [-93.1042777, 31.7412279], [-93.1042262, 31.7412719], [-93.1041555, 31.7414204], [-93.1041492, 31.741591], [-93.1041299, 31.7416184], [-93.1040977, 31.7416239], [-93.1040526, 31.7415855], [-93.1036857, 31.741525], [-93.1035442, 31.7415472], [-93.1029713, 31.7414538], [-93.1026495, 31.7414484], [-93.1021539, 31.7412946], [-93.101943, 31.7412791], [-93.1017262, 31.7411919], [-93.1014449, 31.7410969], [-93.1012624, 31.7410457], [-93.1008586, 31.7409256], [-93.1007245, 31.7409283], [-93.1005458, 31.7409397], [-93.1004013, 31.7409727], [-93.0999242, 31.7410949], [-93.0992358, 31.7413847], [-93.0990506, 31.7414565], [-93.0985596, 31.7416866], [-93.0981675, 31.7418946], [-93.0971771, 31.7422498], [-93.0968575, 31.7423576], [-93.0963753, 31.7425147], [-93.0960327, 31.742454], [-93.0957318, 31.7425063], [-93.0954969, 31.7425147], [-93.0951263, 31.7426661], [-93.0949222, 31.7427743], [-93.0946327, 31.7430466], [-93.0942998, 31.7433788], [-93.0941422, 31.7435464], [-93.0940616, 31.7436646], [-93.0939876, 31.7437664], [-93.0938782, 31.7439754], [-93.0937421, 31.7442391], [-93.0936457, 31.7445143], [-93.0936143, 31.7446076], [-93.0935747, 31.7446722], [-93.0935121, 31.7448097], [-93.0933913, 31.7451336], [-93.09323, 31.7454808], [-93.092925, 31.7461007], [-93.0926878, 31.7464683], [-93.0926171, 31.7465681], [-93.092499, 31.7467594], [-93.0924563, 31.7468134], [-93.0921993, 31.7470612], [-93.0919854, 31.7474143], [-93.0920064, 31.7474517], [-93.0919485, 31.7474958], [-93.0918463, 31.7474859], [-93.0916425, 31.7475497], [-93.0915954, 31.7475956], [-93.0913836, 31.7478171], [-93.0913372, 31.7478149], [-93.0906772, 31.748488], [-93.0905778, 31.7485574], [-93.0904023, 31.7487595], [-93.0902561, 31.7489261], [-93.0901991, 31.7489996], [-93.0901155, 31.749118], [-93.0899556, 31.7495204], [-93.0898546, 31.7496251], [-93.0896042, 31.7497676], [-93.0894942, 31.7498393], [-93.0892227, 31.7499079], [-93.089131, 31.7499423], [-93.0889574, 31.7499017], [-93.088712, 31.7497755], [-93.0885321, 31.7499919], [-93.0885403, 31.7499985], [-93.0886579, 31.7501267], [-93.0888453, 31.7504538], [-93.0889962, 31.7506278], [-93.089074, 31.7507732], [-93.0892175, 31.75084], [-93.0893623, 31.7509711], [-93.0893697, 31.7510452], [-93.0896956, 31.7512551], [-93.0907101, 31.7516192], [-93.090937, 31.7516759], [-93.0917077, 31.7519092], [-93.0918894, 31.7519737], [-93.0925614, 31.7521764], [-93.093146, 31.7523684], [-93.0942806, 31.7526907], [-93.0947974, 31.7528515], [-93.0957022, 31.7532716], [-93.0959108, 31.753355], [-93.0966681, 31.753601], [-93.0975376, 31.7538687], [-93.0989893, 31.7543025], [-93.0993274, 31.7543876], [-93.0995929, 31.7544445], [-93.099945, 31.7544969], [-93.1002278, 31.7545306], [-93.1005633, 31.7545463], [-93.1007662, 31.7545361], [-93.1009736, 31.7545161], [-93.1015805, 31.7544044], [-93.1019913, 31.7543168], [-93.1022871, 31.7542271], [-93.1026158, 31.7541052], [-93.1029027, 31.7539894], [-93.1035754, 31.7536819], [-93.1042186, 31.7533893], [-93.1058084, 31.7527237], [-93.1075363, 31.7519296], [-93.107657, 31.7518481], [-93.1076959, 31.7517859], [-93.107716, 31.7517289], [-93.1077014, 31.7513342], [-93.1076829, 31.7507923], [-93.1077182, 31.750209], [-93.1077836, 31.7498076], [-93.1078194, 31.7495761], [-93.107852, 31.7494046]]]}}