{"type": "Feature", "properties": {"market_key": 2451, "university": "Northern Iowa University", "osm_type": "way", "osm_id": 544674332, "osm_name": "University of Northern Iowa"}, "geometry": {"type": "Polygon", "coordinates": [[[-92.4605911, 42.5213912], [-92.4607097, 42.5213918], [-92.4616273, 42.5213968], [-92.4617434, 42.5213977], [-92.4620151, 42.5213997], [-92.4621021, 42.5214003], [-92.4624504, 42.5214028], [-92.462649, 42.5214043], [-92.465484, 42.5214249], [-92.4654853, 42.5197825], [-92.4657478, 42.5197846], [-92.4695088, 42.5198146], [-92.4695088, 42.5191182], [-92.4713124, 42.5191103], [-92.4713231, 42.5167538], [-92.4701322, 42.5167398], [-92.4699934, 42.5131601], [-92.4700035, 42.5111597], [-92.4729647, 42.5111597], [-92.4729861, 42.5099734], [-92.4705312, 42.5099558], [-92.4705395, 42.509539], [-92.4669147, 42.5095866], [-92.4654936, 42.5096053], [-92.4637137, 42.5095878], [-92.4636092, 42.5095868], [-92.4633517, 42.5095843], [-92.4620989, 42.509572], [-92.4617566, 42.5095495], [-92.4614467, 42.5095292], [-92.4607009, 42.5100592], [-92.4606123, 42.509985], [-92.4605568, 42.5099386], [-92.4605764, 42.5090783], [-92.4605971, 42.5081702], [-92.4605113, 42.5072685], [-92.4579685, 42.5071261], [-92.4538397, 42.5051196], [-92.4536808, 42.5050424], [-92.4517818, 42.5059204], [-92.4489885, 42.5074366], [-92.4491601, 42.5082908], [-92.4507395, 42.5090594], [-92.4510312, 42.5092893], [-92.4558764, 42.5097461], [-92.4558524, 42.5131914], [-92.4558303, 42.5167225], [-92.4588884, 42.516736], [-92.4588615, 42.5172451], [-92.4588611, 42.517394], [-92.4588602, 42.5177947], [-92.4588601, 42.5178441], [-92.460588, 42.5178502], [-92.4605894, 42.519463], [-92.4605894, 42.5195045], [-92.4605897, 42.5197654], [-92.4605911, 42.5213912]]]}}