{"type": "Feature", "properties": {"market_key": 2453, "university": "Albany State University", "osm_type": "way", "osm_id": 624970678, "osm_name": "Albany State University"}, "geometry": {"type": "Polygon", "coordinates": [[[-84.1470419, 31.5753774], [-84.145003, 31.5754324], [-84.1435111, 31.575462], [-84.1430594, 31.5754753], [-84.1426608, 31.5754638], [-84.1422668, 31.5754434], [-84.1418023, 31.575386], [-84.1414307, 31.5753119], [-84.1389538, 31.574763], [-84.1360603, 31.5740978], [-84.1357086, 31.574017], [-84.1358773, 31.5727617], [-84.134695, 31.572393], [-84.1348116, 31.5716895], [-84.1355409, 31.5670814], [-84.137028, 31.5670227], [-84.1390005, 31.5669552], [-84.140467, 31.5669259], [-84.1407252, 31.5669435], [-84.1408732, 31.5650546], [-84.1409008, 31.5646645], [-84.1409042, 31.5644123], [-84.140887, 31.5640163], [-84.1408354, 31.5635382], [-84.1407045, 31.5628841], [-84.1402674, 31.5609365], [-84.1406529, 31.560869], [-84.1405049, 31.5605845], [-84.1430397, 31.5603374], [-84.1431079, 31.5605892], [-84.1432329, 31.5608215], [-84.1433238, 31.5610442], [-84.1434375, 31.5612573], [-84.1435624, 31.5614703], [-84.143642, 31.561722], [-84.1437102, 31.5619641], [-84.1438124, 31.5621965], [-84.1439147, 31.5624385], [-84.1439488, 31.5626806], [-84.144017, 31.5631647], [-84.1440965, 31.5633874], [-84.1442102, 31.5638521], [-84.1443011, 31.5640942], [-84.1444033, 31.5643265], [-84.1444602, 31.5645589], [-84.1445965, 31.565043], [-84.1446988, 31.5652657], [-84.1447897, 31.5655174], [-84.1448465, 31.5657595], [-84.1449601, 31.5662339], [-84.1450738, 31.5664566], [-84.1451419, 31.5666696], [-84.1452556, 31.5668826], [-84.1453579, 31.5671731], [-84.1454601, 31.5673764], [-84.1455738, 31.5675991], [-84.1456874, 31.567783], [-84.145801, 31.5679766], [-84.1458919, 31.5682187], [-84.1459942, 31.5684123], [-84.146051, 31.568635], [-84.1461306, 31.5688383], [-84.1461874, 31.56909], [-84.1463692, 31.5692837], [-84.1464828, 31.5695354], [-84.1465624, 31.5697677], [-84.146676, 31.5700001], [-84.1467328, 31.5702325], [-84.1467783, 31.5704842], [-84.1468464, 31.5707165], [-84.1469601, 31.5709392], [-84.1470283, 31.5711716], [-84.1470283, 31.5714136], [-84.1470396, 31.571675], [-84.1470851, 31.571917], [-84.1470851, 31.5721494], [-84.1470396, 31.5723914], [-84.1470169, 31.5728852], [-84.1470851, 31.5731175], [-84.1471873, 31.5733402], [-84.1472442, 31.5735822], [-84.1472896, 31.5740566], [-84.1472669, 31.5742986], [-84.1471987, 31.57456], [-84.1471419, 31.5747827], [-84.1471078, 31.5750247], [-84.147051, 31.5752764], [-84.1470419, 31.5753774]]]}}