{"type": "Feature", "properties": {"market_key": 2478, "university": "Fox Valley Technical College", "osm_type": "relation", "osm_id": 8504790, "osm_name": "Fox Valley Technical College-Appleton"}, "geometry": {"type": "MultiPolygon", "coordinates": [[[[-88.4546794, 44.2842406], [-88.4557453, 44.284247], [-88.4565905, 44.2842391], [-88.4565738, 44.2840932], [-88.4565496, 44.2831158], [-88.4565242, 44.2825628], [-88.4564866, 44.2823179], [-88.4564289, 44.2821077], [-88.4563659, 44.2819176], [-88.4562613, 44.2817352], [-88.4562157, 44.2816958], [-88.4561245, 44.2816622], [-88.4560119, 44.2816516], [-88.4556042, 44.2816996], [-88.455222, 44.2817582], [-88.4549564, 44.2818235], [-88.4549135, 44.2818456], [-88.4549068, 44.2818859], [-88.4549859, 44.2820136], [-88.4550449, 44.2821576], [-88.4550771, 44.2823352], [-88.4550986, 44.2825224], [-88.4550919, 44.282653], [-88.4550181, 44.2829468], [-88.4549041, 44.283206], [-88.4547955, 44.2835478], [-88.4547459, 44.2838512], [-88.4547365, 44.2839117], [-88.4546794, 44.2842406]]], [[[-88.4627048, 44.2760919], [-88.4625044, 44.2764053], [-88.4622254, 44.2768862], [-88.4621641, 44.2770838], [-88.4621181, 44.2772319], [-88.4618357, 44.277607], [-88.4616993, 44.2777656], [-88.4616663, 44.2778905], [-88.4616139, 44.2780154], [-88.4613412, 44.2781581], [-88.4606627, 44.2784286], [-88.460452, 44.2785096], [-88.4596623, 44.2774478], [-88.4593431, 44.277456], [-88.4565644, 44.2774903], [-88.4566703, 44.2797304], [-88.4567267, 44.2808029], [-88.4567522, 44.2813175], [-88.4568004, 44.2813722], [-88.4568299, 44.2817294], [-88.4567226, 44.2817966], [-88.456669, 44.2818705], [-88.4566368, 44.28198], [-88.4567615, 44.2823669], [-88.4568125, 44.2827183], [-88.4568527, 44.2842256], [-88.4569144, 44.2845847], [-88.4570204, 44.2848449], [-88.4570807, 44.2849006], [-88.457129, 44.2851319], [-88.4570727, 44.2852011], [-88.4570324, 44.2853268], [-88.4570204, 44.2856149], [-88.4570338, 44.2859864], [-88.4569775, 44.286741], [-88.4569184, 44.2871375], [-88.456897, 44.2875426], [-88.4568957, 44.2877106], [-88.4569184, 44.2877989], [-88.4570137, 44.2878642], [-88.4570673, 44.2878786], [-88.4571249, 44.287884], [-88.4574933, 44.287889], [-88.4579536, 44.2878975], [-88.4611374, 44.287884], [-88.4613649, 44.2878828], [-88.4615107, 44.2877458], [-88.462571, 44.2874991], [-88.4632711, 44.2872229], [-88.463931, 44.2868568], [-88.4646415, 44.2863603], [-88.4649215, 44.2860599], [-88.4651407, 44.2856907], [-88.4656706, 44.2845527], [-88.4657297, 44.2840782], [-88.465749, 44.2839235], [-88.4658091, 44.2837103], [-88.4658761, 44.283481], [-88.4658128, 44.2821272], [-88.4657655, 44.2809971], [-88.4657497, 44.2781887], [-88.4627048, 44.2760919]]], [[[-88.4545422, 44.2817905], [-88.4544303, 44.2818196], [-88.4542588, 44.2818514], [-88.4540996, 44.2818595], [-88.4539766, 44.281857], [-88.4538766, 44.2818488], [-88.4537635, 44.2818307], [-88.453631, 44.2818001], [-88.4534605, 44.2817423], [-88.4533103, 44.2816668], [-88.4531646, 44.2815657], [-88.4530233, 44.2814292], [-88.4529358, 44.2812944], [-88.4528865, 44.2811756], [-88.4528574, 44.2810006], [-88.4544741, 44.2810103], [-88.4544449, 44.2811355], [-88.4544337, 44.2812543], [-88.4544516, 44.2813995], [-88.4544785, 44.2815384], [-88.4545481, 44.2816781], [-88.4545817, 44.2817246], [-88.4545772, 44.2817551], [-88.4545422, 44.2817905]]], [[[-88.4544393, 44.2819344], [-88.45441, 44.2826536], [-88.4537837, 44.2831254], [-88.4535503, 44.2831454], [-88.4526013, 44.2831194], [-88.4526141, 44.2824864], [-88.4532438, 44.2824723], [-88.4534983, 44.2819254], [-88.4537902, 44.2819858], [-88.4540805, 44.2819974], [-88.4544393, 44.2819344]]]]}}