{"type": "Feature", "properties": {"market_key": 2486, "university": "University of Texas at Tyler", "osm_type": "way", "osm_id": 231354268, "osm_name": "The University of Texas at Tyler"}, "geometry": {"type": "Polygon", "coordinates": [[[-95.258327, 32.318372], [-95.2583622, 32.3182757], [-95.2584157, 32.3181296], [-95.2584961, 32.3179683], [-95.2587138, 32.3177334], [-95.2592186, 32.3172141], [-95.2593059, 32.3170924], [-95.2594032, 32.3169289], [-95.2594755, 32.3167768], [-95.2595094, 32.316674], [-95.2595569, 32.3165009], [-95.2595796, 32.316374], [-95.2595961, 32.3162416], [-95.2595967, 32.3161221], [-95.259592, 32.315697], [-95.2595862, 32.3153136], [-95.2595872, 32.3147641], [-95.2595786, 32.3136964], [-95.2595733, 32.3128956], [-95.2595662, 32.3116136], [-95.258599, 32.3116218], [-95.2574385, 32.3116217], [-95.2569942, 32.3116321], [-95.2566831, 32.3116429], [-95.256494, 32.3116512], [-95.2563044, 32.3116615], [-95.2561045, 32.311676], [-95.2558955, 32.3116917], [-95.2556131, 32.3117106], [-95.2553226, 32.3117356], [-95.2548693, 32.311773], [-95.2545929, 32.311806], [-95.254298, 32.3118403], [-95.2540159, 32.3118797], [-95.253697, 32.3119244], [-95.2534289, 32.3119631], [-95.2530438, 32.3120215], [-95.2516307, 32.3122778], [-95.2498118, 32.3125944], [-95.2482166, 32.3128821], [-95.2452605, 32.3134061], [-95.2459538, 32.3142471], [-95.2463182, 32.3146589], [-95.246691, 32.3150556], [-95.247907, 32.3164151], [-95.248138, 32.31669], [-95.2482871, 32.3168519], [-95.2485263, 32.3171299], [-95.2489666, 32.3176604], [-95.2491104, 32.3178538], [-95.2496488, 32.3184501], [-95.2497702, 32.3186023], [-95.2500537, 32.3189196], [-95.250266, 32.3191665], [-95.2503766, 32.3192843], [-95.2504933, 32.3194375], [-95.2511896, 32.3204423], [-95.2515356, 32.3209826], [-95.2519306, 32.3208082], [-95.251626, 32.3203127], [-95.2515678, 32.3202179], [-95.2524796, 32.3196745], [-95.2525512, 32.3197583], [-95.2527844, 32.3200313], [-95.2537376, 32.3200256], [-95.253733, 32.3190551], [-95.2537324, 32.318925], [-95.2543698, 32.3185361], [-95.2544916, 32.3184856], [-95.2546153, 32.3184507], [-95.2547296, 32.318429], [-95.254916, 32.3184192], [-95.2550715, 32.3184145], [-95.258327, 32.318372]]]}}