{"type": "Feature", "properties": {"market_key": 2489, "university": "Tufts University", "osm_type": "relation", "osm_id": 3567946, "osm_name": "Tufts University"}, "geometry": {"type": "MultiPolygon", "coordinates": [[[[-71.1162643, 42.4073788], [-71.1163279, 42.4075126], [-71.1169879, 42.4083063], [-71.116549, 42.4089081], [-71.1162313, 42.4093185], [-71.1159209, 42.4097578], [-71.1168493, 42.4099833], [-71.1164259, 42.4106327], [-71.1160412, 42.4112023], [-71.1149064, 42.4107967], [-71.1134686, 42.4105807], [-71.11392, 42.4100808], [-71.1143505, 42.4095963], [-71.1146031, 42.4093167], [-71.1144214, 42.4092379], [-71.114548, 42.4087604], [-71.1142011, 42.4086468], [-71.1128426, 42.4083882], [-71.1129704, 42.4078554], [-71.111892, 42.4079272], [-71.1116193, 42.4075562], [-71.110972, 42.4078118], [-71.1108355, 42.4076154], [-71.1106341, 42.4076951], [-71.1105811, 42.4076003], [-71.1109221, 42.4074575], [-71.110789, 42.4072638], [-71.110904, 42.4072107], [-71.1107611, 42.4070178], [-71.1144711, 42.4056226], [-71.1143061, 42.4053968], [-71.1143707, 42.4053538], [-71.1132871, 42.4038493], [-71.1131192, 42.4039046], [-71.1131061, 42.4039093], [-71.1126029, 42.4033027], [-71.1131335, 42.4031132], [-71.1137617, 42.4028584], [-71.114983, 42.4044745], [-71.1151074, 42.4044239], [-71.1152878, 42.4043506], [-71.1154824, 42.4046313], [-71.1154037, 42.4046664], [-71.1155179, 42.4048287], [-71.1155651, 42.4048241], [-71.1157456, 42.4048031], [-71.1158045, 42.4052097], [-71.1161035, 42.405158], [-71.1160846, 42.405013], [-71.1160566, 42.4047978], [-71.1164287, 42.4047754], [-71.1164245, 42.4047546], [-71.116846, 42.4047031], [-71.1168601, 42.4048235], [-71.116615, 42.4048423], [-71.1164567, 42.4048544], [-71.1165168, 42.4051383], [-71.1166357, 42.4051525], [-71.1167127, 42.4051646], [-71.1169991, 42.4052477], [-71.1170144, 42.4050958], [-71.1170338, 42.4049024], [-71.1171548, 42.4049008], [-71.11722, 42.4048978], [-71.1174561, 42.4048871], [-71.117251, 42.4037129], [-71.1172004, 42.4032283], [-71.116945, 42.4015483], [-71.1169468, 42.4014886], [-71.1169611, 42.4014506], [-71.1169936, 42.4014201], [-71.117031, 42.4013937], [-71.1171019, 42.4013792], [-71.1171718, 42.4013803], [-71.1172421, 42.4014103], [-71.1173457, 42.4014864], [-71.1175478, 42.4016264], [-71.1177671, 42.4017647], [-71.1182398, 42.401966], [-71.1185511, 42.4020508], [-71.1188087, 42.4021049], [-71.1190706, 42.4021703], [-71.119371, 42.4022658], [-71.1196068, 42.4023552], [-71.1199481, 42.4025027], [-71.1202965, 42.4027143], [-71.1206337, 42.4029601], [-71.120989, 42.4032774], [-71.1213213, 42.4035318], [-71.1215646, 42.4036674], [-71.1220157, 42.4039065], [-71.1232881, 42.404506], [-71.1237021, 42.4046729], [-71.1235758, 42.4048486], [-71.12338, 42.4047793], [-71.1231761, 42.4047072], [-71.1228467, 42.4051845], [-71.1230684, 42.4052682], [-71.1233156, 42.4053616], [-71.1232066, 42.4055154], [-71.1233934, 42.4055864], [-71.1232892, 42.4057241], [-71.1232271, 42.4058151], [-71.1239461, 42.406086], [-71.1238167, 42.4062725], [-71.123968, 42.4063304], [-71.1237976, 42.4065693], [-71.1237385, 42.4066521], [-71.1247246, 42.4070186], [-71.12487, 42.4070685], [-71.1251199, 42.4071542], [-71.1249455, 42.4074625], [-71.1247859, 42.4076019], [-71.1247013, 42.4077233], [-71.124625, 42.4078242], [-71.1248372, 42.4078944], [-71.1247182, 42.4080901], [-71.1241299, 42.4078993], [-71.1239091, 42.408236], [-71.1234147, 42.409043], [-71.1235157, 42.4090782], [-71.1237733, 42.4091681], [-71.123477, 42.409658], [-71.1231939, 42.4095723], [-71.1230778, 42.4095371], [-71.1227374, 42.4099894], [-71.122902, 42.4100451], [-71.1240728, 42.4104412], [-71.1238227, 42.410827], [-71.124144, 42.4109553], [-71.1239697, 42.4112128], [-71.1224757, 42.4104318], [-71.1224315, 42.4104849], [-71.1222154, 42.4103699], [-71.1220935, 42.4105601], [-71.1226572, 42.4108098], [-71.1225764, 42.4109225], [-71.1221919, 42.4108004], [-71.122115, 42.4109183], [-71.1225636, 42.4110641], [-71.1223957, 42.4113268], [-71.1224699, 42.4113529], [-71.1223774, 42.4114992], [-71.1220036, 42.4113681], [-71.1218645, 42.4112727], [-71.1213726, 42.4109482], [-71.1215859, 42.4107553], [-71.1213591, 42.410619], [-71.1211841, 42.4105602], [-71.1209366, 42.41041], [-71.120683, 42.410253], [-71.1207949, 42.4101475], [-71.1210383, 42.4102952], [-71.1211687, 42.4101839], [-71.1214182, 42.4103412], [-71.1215637, 42.4102124], [-71.1210432, 42.4099185], [-71.1212309, 42.4097494], [-71.1207322, 42.4094834], [-71.1205562, 42.409676], [-71.1202777, 42.4095548], [-71.1201905, 42.4095429], [-71.1199566, 42.4098811], [-71.1197496, 42.4101964], [-71.1191081, 42.4096438], [-71.118812, 42.4093978], [-71.1185062, 42.4091084], [-71.118368, 42.4089545], [-71.1177905, 42.4083407], [-71.116894, 42.4071591], [-71.1168553, 42.4070286], [-71.116786, 42.4070164], [-71.1166852, 42.4070154], [-71.1165742, 42.4070158], [-71.1165643, 42.4070719], [-71.116453, 42.4071805], [-71.1162923, 42.4073493], [-71.1162643, 42.4073788]]]]}}