{"type": "Feature", "properties": {"market_key": 261, "university": "Southern Illinois University Edwardsville", "osm_type": "relation", "osm_id": 12443611, "osm_name": "Southern Illinois University Edwardsville"}, "geometry": {"type": "MultiPolygon", "coordinates": [[[[-89.9794648, 38.7905734], [-89.9793863, 38.7921683], [-89.9781286, 38.7961549], [-89.9786564, 38.7962246], [-89.9807839, 38.7965058], [-89.9817907, 38.7967357], [-89.9835348, 38.7974711], [-89.9842423, 38.7978736], [-89.9846182, 38.7985597], [-89.9849131, 38.798718], [-89.9853124, 38.7990649], [-89.9848635, 38.7992933], [-89.9848263, 38.7995248], [-89.9848364, 38.8071161], [-89.9847662, 38.8075035], [-89.9846586, 38.8119832], [-89.9846972, 38.814067], [-89.9860847, 38.8143547], [-89.9901315, 38.8143012], [-89.9901572, 38.8138133], [-89.991626, 38.8138998], [-89.9945546, 38.8136493], [-89.9977195, 38.8132993], [-90.0006904, 38.8128998], [-90.0017335, 38.8126847], [-90.0024891, 38.8124032], [-90.0040122, 38.8116606], [-90.0048578, 38.8110155], [-90.0054442, 38.8104233], [-90.0060703, 38.8095628], [-90.0079673, 38.8058595], [-90.0088848, 38.8040278], [-90.0102422, 38.8026518], [-90.0116568, 38.8017693], [-90.013433, 38.8011372], [-90.0217928, 38.7991831], [-90.0218177, 38.7824224], [-90.0261722, 38.7823642], [-90.02602, 38.7750686], [-90.0217605, 38.7750724], [-90.0214968, 38.775161], [-90.021429, 38.775472], [-90.0211979, 38.7756097], [-90.0136745, 38.7770365], [-90.0087107, 38.7783638], [-90.0089831, 38.7789672], [-90.0079074, 38.7792203], [-90.0075926, 38.7784562], [-90.0073242, 38.7794626], [-90.0069076, 38.7802357], [-90.0057371, 38.7797667], [-90.0038839, 38.7807359], [-89.9794648, 38.7905734]]], [[[-89.9937557, 38.7823202], [-89.9868705, 38.7824708], [-89.9863568, 38.7830655], [-89.9847294, 38.7831012], [-89.9847331, 38.7843196], [-89.9847366, 38.7854937], [-89.9847447, 38.7881834], [-89.9936725, 38.7846101], [-89.9937557, 38.7823202]]]]}}