{"type": "Feature", "properties": {"market_key": 27, "university": "University of Texas at Austin", "osm_type": "relation", "osm_id": 1701848, "osm_name": "University of Texas at Austin"}, "geometry": {"type": "MultiPolygon", "coordinates": [[[[-97.723437, 30.2863023], [-97.7234363, 30.2863973], [-97.7233994, 30.2864864], [-97.723327, 30.2865907], [-97.7229493, 30.2872007], [-97.7238887, 30.2876402], [-97.7240103, 30.2874459], [-97.7240344, 30.2873162], [-97.7240096, 30.2872398], [-97.7238775, 30.2870469], [-97.7236529, 30.2867007], [-97.7235281, 30.2864592], [-97.7234571, 30.2863012], [-97.723437, 30.2863023]]], [[[-97.7392271, 30.2810723], [-97.7389897, 30.2836764], [-97.7402481, 30.2837573], [-97.7402969, 30.2832088], [-97.7398046, 30.2831665], [-97.7398733, 30.2825222], [-97.7408303, 30.282613], [-97.7419132, 30.2827157], [-97.7413528, 30.2890932], [-97.7421507, 30.2891546], [-97.7421876, 30.2891766], [-97.7421574, 30.2894664], [-97.7420062, 30.2894542], [-97.7418206, 30.2894393], [-97.7415775, 30.289421], [-97.7415393, 30.2894154], [-97.7413447, 30.2893995], [-97.741108, 30.2918887], [-97.7410812, 30.2919107], [-97.7401739, 30.2918458], [-97.740127, 30.2918267], [-97.7401029, 30.2917966], [-97.7401887, 30.2909501], [-97.7389562, 30.290847], [-97.738857, 30.2917456], [-97.7365422, 30.2915893], [-97.7365141, 30.2919784], [-97.7365462, 30.2922922], [-97.7365288, 30.2924949], [-97.7364725, 30.2926431], [-97.7364041, 30.2927392], [-97.7362727, 30.2928411], [-97.7362103, 30.2928521], [-97.7361546, 30.2928388], [-97.736105, 30.2927971], [-97.7360467, 30.2925244], [-97.735934, 30.2922517], [-97.7358489, 30.2920988], [-97.7350348, 30.2912327], [-97.7349798, 30.2911643], [-97.7346969, 30.2906641], [-97.7345882, 30.2901088], [-97.7333719, 30.2894968], [-97.7327144, 30.2895996], [-97.7326146, 30.2896682], [-97.7324495, 30.2897284], [-97.7324098, 30.2893593], [-97.7323808, 30.2890903], [-97.7313428, 30.2891656], [-97.7310611, 30.289154], [-97.7307473, 30.2891123], [-97.7303275, 30.2890116], [-97.7300218, 30.2889085], [-97.7297857, 30.2887846], [-97.7295846, 30.2886364], [-97.729079, 30.288143], [-97.7288429, 30.2879937], [-97.7275407, 30.2873868], [-97.7273436, 30.287234], [-97.7271304, 30.287139], [-97.7260508, 30.286853], [-97.7257383, 30.2867545], [-97.7252568, 30.2865415], [-97.7270968, 30.2837395], [-97.7274656, 30.2831819], [-97.7276581, 30.2830215], [-97.7278773, 30.2828101], [-97.7284145, 30.2823891], [-97.7287813, 30.2820515], [-97.7290099, 30.2818037], [-97.7291648, 30.2816242], [-97.7293177, 30.2814192], [-97.7294867, 30.2811667], [-97.7296691, 30.2808679], [-97.7298173, 30.2805541], [-97.7305408, 30.2787682], [-97.7305837, 30.2787381], [-97.7307554, 30.2782847], [-97.731033, 30.2775348], [-97.731556, 30.2761264], [-97.7318001, 30.2751733], [-97.7318752, 30.2750482], [-97.7319771, 30.2750007], [-97.7320884, 30.2749856], [-97.7326237, 30.2750985], [-97.7330078, 30.2752066], [-97.7352707, 30.2758852], [-97.7354595, 30.2759368], [-97.7358225, 30.2760361], [-97.7358464, 30.2760858], [-97.7349168, 30.2785852], [-97.7348612, 30.2786704], [-97.734611, 30.2790804], [-97.7344535, 30.279473], [-97.7344253, 30.2794776], [-97.7343401, 30.279715], [-97.7345782, 30.2797671], [-97.7355123, 30.2800115], [-97.7358013, 30.2801348], [-97.7366173, 30.2803601], [-97.7366897, 30.2803937], [-97.7368782, 30.2804423], [-97.7369546, 30.2804475], [-97.7383661, 30.2808216], [-97.7385626, 30.2808865], [-97.7392271, 30.2810723]]], [[[-97.7247338, 30.286289], [-97.7241598, 30.2860018], [-97.7236985, 30.2857378], [-97.7228549, 30.2851645], [-97.7225237, 30.2849306], [-97.722234, 30.2846538], [-97.7220838, 30.2844789], [-97.7219658, 30.2843596], [-97.7222306, 30.2839358], [-97.722297, 30.2838605], [-97.722177, 30.2837071], [-97.7220876, 30.283296], [-97.7223811, 30.2832486], [-97.7224722, 30.2836583], [-97.7224781, 30.283685], [-97.7227087, 30.2836489], [-97.7227025, 30.2836165], [-97.7226073, 30.2832078], [-97.7229109, 30.283159], [-97.7229977, 30.2835993], [-97.7233135, 30.2835466], [-97.723217, 30.2831036], [-97.7240059, 30.282967], [-97.7239462, 30.2826929], [-97.7234725, 30.2805164], [-97.7242973, 30.2803856], [-97.7243791, 30.2803879], [-97.7244783, 30.2803775], [-97.7254801, 30.2802194], [-97.7253152, 30.2794961], [-97.7251377, 30.2795257], [-97.7248421, 30.2795751], [-97.7247553, 30.2792142], [-97.7250575, 30.2791667], [-97.7252568, 30.2791354], [-97.7271786, 30.27884], [-97.7272148, 30.2788062], [-97.7279136, 30.2787057], [-97.7281952, 30.2786976], [-97.7285828, 30.2787358], [-97.7286927, 30.2787937], [-97.728741, 30.2788667], [-97.7287437, 30.2789918], [-97.7286699, 30.2790937], [-97.728332, 30.2797608], [-97.7279618, 30.2806433], [-97.7275354, 30.2816624], [-97.7272376, 30.2823341], [-97.7267978, 30.2831054], [-97.7265371, 30.2835303], [-97.7244181, 30.2838759], [-97.7244238, 30.2840604], [-97.7243878, 30.2840762], [-97.7244521, 30.284416], [-97.724348, 30.2844363], [-97.7243958, 30.2847189], [-97.724399, 30.2848871], [-97.7244261, 30.2849081], [-97.72443, 30.2850023], [-97.7244499, 30.2850625], [-97.7244558, 30.2853086], [-97.7241349, 30.2857921], [-97.7248244, 30.2861348], [-97.7247338, 30.286289]]], [[[-97.7323079, 30.3846515], [-97.7322708, 30.3847294], [-97.732132, 30.3846837], [-97.7320453, 30.3846551], [-97.7320934, 30.3845491], [-97.7248668, 30.3810301], [-97.724502, 30.3826164], [-97.7242834, 30.3835243], [-97.7241519, 30.3841251], [-97.7238191, 30.3856217], [-97.7236654, 30.3862747], [-97.723572, 30.3866068], [-97.7232756, 30.387583], [-97.7224778, 30.389936], [-97.7226002, 30.3899677], [-97.7225479, 30.390135], [-97.7228996, 30.3903102], [-97.7228048, 30.3905324], [-97.7226758, 30.3908623], [-97.7226604, 30.3908988], [-97.7232827, 30.3912018], [-97.7237977, 30.3914525], [-97.723991, 30.3914964], [-97.7241679, 30.3915416], [-97.724325, 30.3915874], [-97.7245119, 30.391646], [-97.7246605, 30.391701], [-97.7248905, 30.3917938], [-97.7252331, 30.3919592], [-97.7254879, 30.3918603], [-97.7258093, 30.3919576], [-97.7259474, 30.3919994], [-97.7262469, 30.3920901], [-97.7264907, 30.3925679], [-97.7268793, 30.3927547], [-97.726909, 30.3927089], [-97.7269656, 30.3927321], [-97.7269373, 30.3927797], [-97.7296986, 30.3937782], [-97.7333098, 30.3851422], [-97.7323079, 30.3846515]]], [[[-97.7405443, 30.2813378], [-97.7409583, 30.281455], [-97.7410261, 30.2814742], [-97.7411258, 30.2815024], [-97.7414217, 30.2815867], [-97.7415348, 30.2816179], [-97.741594, 30.2816346], [-97.7417394, 30.2816768], [-97.7419265, 30.2817283], [-97.7419983, 30.2818541], [-97.7420569, 30.2820294], [-97.7420811, 30.2822195], [-97.7420531, 30.2826609], [-97.7418557, 30.282647], [-97.7416532, 30.2826328], [-97.7415321, 30.2826234], [-97.741512, 30.2826219], [-97.7414185, 30.2826151], [-97.7409839, 30.2825846], [-97.740915, 30.2825798], [-97.7408137, 30.2825724], [-97.740721, 30.2825657], [-97.7403687, 30.282539], [-97.7398574, 30.2824958], [-97.7398646, 30.2824219], [-97.7399145, 30.2819074], [-97.7399306, 30.2817423], [-97.7399805, 30.2812843], [-97.7399882, 30.281175], [-97.7401679, 30.2812281], [-97.740454, 30.2813126], [-97.7405443, 30.2813378]]], [[[-97.7279415, 30.3174219], [-97.7283713, 30.3176079], [-97.7284618, 30.3176471], [-97.728533, 30.3175412], [-97.728685, 30.3173152], [-97.7288141, 30.3171233], [-97.7289284, 30.3169534], [-97.7291622, 30.3166057], [-97.7292438, 30.3164838], [-97.7294223, 30.3162174], [-97.729565, 30.3160035], [-97.7299971, 30.3153558], [-97.7300321, 30.3153018], [-97.7300963, 30.3152027], [-97.7304191, 30.3147297], [-97.7305019, 30.3146066], [-97.7305728, 30.3145011], [-97.7307633, 30.3142179], [-97.7307745, 30.3142012], [-97.7310292, 30.3138222], [-97.7310862, 30.3137374], [-97.7297798, 30.3131021], [-97.7270493, 30.3117742], [-97.7269583, 30.3117299], [-97.7269179, 30.3117103], [-97.7265565, 30.3115345], [-97.7263806, 30.3114469], [-97.7249313, 30.3136445], [-97.7256096, 30.3139788], [-97.7252394, 30.3145567], [-97.7251911, 30.3146817], [-97.725175, 30.3148716], [-97.725195, 30.3156628], [-97.725175, 30.3161312], [-97.7250883, 30.3162464], [-97.7252615, 30.3162773], [-97.7253931, 30.3163072], [-97.725486, 30.316343], [-97.7257064, 30.3164425], [-97.7261664, 30.3166501], [-97.7263514, 30.3167336], [-97.7277635, 30.3173449], [-97.727917, 30.3174113], [-97.7279415, 30.3174219]]], [[[-97.7429808, 30.289182], [-97.7429213, 30.2891775], [-97.7423209, 30.2891325], [-97.742237, 30.2891262], [-97.7422435, 30.2890626], [-97.7422544, 30.2889558], [-97.7422622, 30.2888801], [-97.7422716, 30.2887883], [-97.7423161, 30.2883546], [-97.742327, 30.2882486], [-97.743069, 30.288302], [-97.7431113, 30.2878759], [-97.7438771, 30.2879338], [-97.7437806, 30.2888969], [-97.7437217, 30.2888928], [-97.7430146, 30.2888432], [-97.7429977, 30.2890121], [-97.742986, 30.2891296], [-97.7429808, 30.289182]]], [[[-97.7434099, 30.2800369], [-97.7433243, 30.2800126], [-97.7424315, 30.279758], [-97.7423281, 30.2797303], [-97.7423503, 30.2796645], [-97.742419, 30.2794785], [-97.742471, 30.2793378], [-97.7425326, 30.2791711], [-97.7426229, 30.2789323], [-97.742654, 30.2788501], [-97.7427488, 30.2788773], [-97.7427882, 30.2788885], [-97.743649, 30.279134], [-97.7437395, 30.2791598], [-97.7437157, 30.2792231], [-97.7434372, 30.2799642], [-97.7434099, 30.2800369]]], [[[-97.7340686, 30.3939496], [-97.7341071, 30.393793], [-97.7342064, 30.3933007], [-97.7343893, 30.3933129], [-97.7360756, 30.3934382], [-97.7360248, 30.3939703], [-97.7361459, 30.3939831], [-97.7364205, 30.3940497], [-97.7366088, 30.3941354], [-97.7367689, 30.3942363], [-97.7368857, 30.3943508], [-97.737028, 30.3945161], [-97.7372058, 30.3948359], [-97.7372659, 30.3950096], [-97.7372521, 30.3951532], [-97.7371708, 30.3953311], [-97.7379675, 30.3957876], [-97.7374823, 30.396517], [-97.7367424, 30.3961765], [-97.7364247, 30.3964978], [-97.7362244, 30.3967435], [-97.7360171, 30.3970527], [-97.7359294, 30.3971836], [-97.7358887, 30.3972443], [-97.7358125, 30.3973516], [-97.7356779, 30.3972843], [-97.7352687, 30.3970821], [-97.73453, 30.3967308], [-97.7341135, 30.3965352], [-97.7334969, 30.3962362], [-97.7334045, 30.3960943], [-97.7334538, 30.3959712], [-97.7336342, 30.3955203], [-97.7337829, 30.3950906], [-97.7339069, 30.3946689], [-97.7340686, 30.3939496]]], [[[-97.7738024, 30.2776637], [-97.7738759, 30.2776483], [-97.7739358, 30.2776571], [-97.7739859, 30.2776599], [-97.7740798, 30.2776784], [-97.7741931, 30.2777153], [-97.7744088, 30.2778385], [-97.7744677, 30.277871], [-97.774648, 30.2779748], [-97.7752023, 30.27737], [-97.7754104, 30.2773891], [-97.7755306, 30.2775892], [-97.7764034, 30.2782959], [-97.7774666, 30.278992], [-97.7776257, 30.2791048], [-97.7781226, 30.2794571], [-97.7788839, 30.2801267], [-97.779557, 30.2807019], [-97.7800169, 30.2809346], [-97.7807808, 30.2815869], [-97.7816648, 30.2823726], [-97.7821885, 30.282875], [-97.7822056, 30.2828914], [-97.7831784, 30.2839549], [-97.7840767, 30.2851223], [-97.7847135, 30.2864825], [-97.7850551, 30.2868641], [-97.7852999, 30.2881288], [-97.7852827, 30.2897298], [-97.785626, 30.291212], [-97.785188, 30.29159], [-97.7834469, 30.2915789], [-97.783224, 30.2915775], [-97.7830625, 30.2915765], [-97.7829866, 30.291438], [-97.7819784, 30.290103], [-97.7810832, 30.2889537], [-97.7808086, 30.2885876], [-97.7802392, 30.2878287], [-97.7800991, 30.2876434], [-97.7785153, 30.2855482], [-97.7781994, 30.2851303], [-97.7779171, 30.2847568], [-97.7778011, 30.284604], [-97.7776307, 30.2843794], [-97.7773454, 30.2839835], [-97.7770575, 30.2835812], [-97.7768746, 30.2833284], [-97.7767975, 30.2832212], [-97.7767178, 30.2831016], [-97.7765682, 30.2828692], [-97.7763591, 30.2825703], [-97.7762355, 30.2823951], [-97.7761446, 30.2822622], [-97.7760367, 30.2821044], [-97.775682, 30.2815977], [-97.7752562, 30.2809809], [-97.7751879, 30.2808812], [-97.7746876, 30.2801481], [-97.7744728, 30.2798386], [-97.7743004, 30.2795954], [-97.7742097, 30.2794723], [-97.7741591, 30.2794036], [-97.7741062, 30.2793378], [-97.7740443, 30.2792608], [-97.7738692, 30.279078], [-97.7736296, 30.2788668], [-97.7731645, 30.2785235], [-97.7732436, 30.2784505], [-97.7732982, 30.2784003], [-97.7735539, 30.2780248], [-97.7737397, 30.2777299], [-97.7738024, 30.2776637]]], [[[-97.7643549, 30.277243], [-97.7644733, 30.2767722], [-97.764761, 30.2761222], [-97.76423, 30.2758664], [-97.7641137, 30.2757651], [-97.7630676, 30.2773712], [-97.7625798, 30.2784513], [-97.7632107, 30.2790228], [-97.7644483, 30.2795104], [-97.7645831, 30.2792993], [-97.7647521, 30.2782064], [-97.7647855, 30.2778168], [-97.764715, 30.2774942], [-97.7643549, 30.277243]]]]}}