{"type": "Feature", "properties": {"market_key": 288, "university": "University of Memphis", "osm_type": "way", "osm_id": 46266607, "osm_name": "The University of Memphis"}, "geometry": {"type": "Polygon", "coordinates": [[[-89.9403795, 35.1229406], [-89.9427613, 35.1230108], [-89.9428256, 35.1213435], [-89.9404408, 35.1212903], [-89.9406155, 35.1165871], [-89.9395426, 35.1165695], [-89.9395746, 35.1159019], [-89.9395991, 35.1153889], [-89.9396057, 35.1152514], [-89.939639, 35.1145565], [-89.9396499, 35.1134452], [-89.9333882, 35.1132356], [-89.9332797, 35.1158236], [-89.9339958, 35.1158411], [-89.9339851, 35.1165695], [-89.933792, 35.1227476], [-89.933792, 35.1229757], [-89.9312855, 35.1229139], [-89.931233, 35.1246769], [-89.9377831, 35.1260646], [-89.9380687, 35.1245716], [-89.9387487, 35.1245377], [-89.9391794, 35.1229055], [-89.9403795, 35.1229406]]]}}