{"type": "Feature", "properties": {"market_key": 29, "university": "University of Texas at San Antonio", "osm_type": "way", "osm_id": 160255165, "osm_name": "The University of Texas at San Antonio"}, "geometry": {"type": "Polygon", "coordinates": [[[-98.6317223, 29.5772741], [-98.6318046, 29.578883], [-98.6317939, 29.5793868], [-98.6318582, 29.5797414], [-98.6320835, 29.5804365], [-98.6321318, 29.581085], [-98.6320865, 29.5812629], [-98.6319763, 29.5816961], [-98.6315364, 29.5825498], [-98.6314049, 29.5829184], [-98.6313379, 29.5835808], [-98.6313318, 29.5839986], [-98.6313298, 29.584136], [-98.631357, 29.5844632], [-98.6313888, 29.5848451], [-98.6313567, 29.5855845], [-98.6313218, 29.5859763], [-98.6312574, 29.5861209], [-98.631134, 29.5862306], [-98.6309624, 29.5863379], [-98.6297593, 29.5865194], [-98.6276164, 29.5868426], [-98.6273776, 29.5868786], [-98.6263962, 29.5869987], [-98.625653, 29.5870897], [-98.624168, 29.5872715], [-98.6233064, 29.587377], [-98.6199439, 29.5877887], [-98.6190158, 29.5878913], [-98.6174709, 29.5880452], [-98.6149986, 29.5882921], [-98.6079785, 29.5892907], [-98.6072624, 29.5859635], [-98.6071256, 29.5848917], [-98.6071417, 29.5843902], [-98.6073375, 29.5836648], [-98.6076687, 29.5830813], [-98.6081622, 29.5826148], [-98.6088274, 29.581831], [-98.6090069, 29.5814596], [-98.6091407, 29.5811825], [-98.6093123, 29.5807533], [-98.6093767, 29.5793538], [-98.6098788, 29.5793864], [-98.6106427, 29.5795404], [-98.6114238, 29.579741], [-98.6116966, 29.5797879], [-98.6121018, 29.5798576], [-98.6132171, 29.5797923], [-98.6147199, 29.5797323], [-98.6154702, 29.5796803], [-98.6162212, 29.579643], [-98.6170151, 29.5795311], [-98.617455, 29.5793911], [-98.6179271, 29.5791765], [-98.618357, 29.578851], [-98.6185064, 29.5787379], [-98.6190209, 29.5782714], [-98.619332, 29.5779635], [-98.619748, 29.5777158], [-98.6199202, 29.5776152], [-98.6207195, 29.5773726], [-98.6243977, 29.5773181], [-98.6254437, 29.5773026], [-98.6281796, 29.577262], [-98.6302945, 29.577266], [-98.6317223, 29.5772741]]]}}