{"type": "Feature", "properties": {"market_key": 294, "university": "Baylor University", "osm_type": "way", "osm_id": 163627351, "osm_name": "Baylor University"}, "geometry": {"type": "Polygon", "coordinates": [[[-97.1031984, 31.5514407], [-97.1044328, 31.5515121], [-97.1052616, 31.55156], [-97.1095812, 31.5526549], [-97.1101412, 31.5528974], [-97.109522, 31.5540448], [-97.1088273, 31.555071], [-97.1086349, 31.5557597], [-97.1084026, 31.5570032], [-97.1082376, 31.5575196], [-97.1127476, 31.5593752], [-97.1134024, 31.5596369], [-97.1136655, 31.5597227], [-97.1140356, 31.559837], [-97.1143392, 31.5599218], [-97.1145705, 31.5599847], [-97.1146098, 31.5599952], [-97.1148778, 31.5600668], [-97.1167396, 31.5602929], [-97.116784, 31.5602151], [-97.1168379, 31.5601206], [-97.1171515, 31.5596426], [-97.1176938, 31.5588953], [-97.1179066, 31.5585689], [-97.1182329, 31.5580008], [-97.1184009, 31.5577331], [-97.1184394, 31.557665], [-97.1149458, 31.5560428], [-97.1155183, 31.5551386], [-97.1174771, 31.5534951], [-97.1165551, 31.5528662], [-97.116761, 31.5525638], [-97.1169719, 31.552232], [-97.117206, 31.5516735], [-97.1188171, 31.5521463], [-97.1193639, 31.5524341], [-97.1194266, 31.5524671], [-97.119845, 31.5527634], [-97.1204453, 31.5533067], [-97.1204954, 31.5533307], [-97.1205471, 31.5533441], [-97.1206034, 31.5533507], [-97.1206552, 31.5533512], [-97.1207052, 31.5533401], [-97.1207459, 31.55332], [-97.1207914, 31.5532893], [-97.1208289, 31.5532506], [-97.1216925, 31.5515459], [-97.1206295, 31.5506686], [-97.1211509, 31.5501995], [-97.122275, 31.5491759], [-97.1226298, 31.5488529], [-97.1240848, 31.5475934], [-97.1242455, 31.5473712], [-97.1243442, 31.5470948], [-97.1243685, 31.5468945], [-97.1243415, 31.5466389], [-97.1242712, 31.5463234], [-97.1240767, 31.5459135], [-97.1237916, 31.5456706], [-97.1248667, 31.5447346], [-97.1236886, 31.543757], [-97.122007, 31.542341], [-97.1209771, 31.5432122], [-97.1200697, 31.542441], [-97.1194163, 31.543016], [-97.1191564, 31.5432447], [-97.118649, 31.5428183], [-97.1181967, 31.542443], [-97.1169012, 31.5413908], [-97.1162544, 31.5408691], [-97.1152357, 31.5417028], [-97.1144399, 31.5422241], [-97.1125201, 31.5438744], [-97.1106537, 31.5422612], [-97.1076436, 31.5446561], [-97.1059034, 31.5460977], [-97.1054709, 31.5465365], [-97.1048551, 31.5459405], [-97.1047614, 31.5459713], [-97.1005541, 31.549593], [-97.0992751, 31.5508392], [-97.1000392, 31.55107], [-97.1011178, 31.5511851], [-97.1022105, 31.5513212], [-97.1031984, 31.5514407]]]}}