{"type": "Feature", "properties": {"market_key": 296, "university": "University of Wisconsin Milwaukee", "osm_type": "relation", "osm_id": 721788, "osm_name": "University of Wisconsin-Milwaukee"}, "geometry": {"type": "MultiPolygon", "coordinates": [[[[-87.9237154, 43.0464745], [-87.9237972, 43.046475], [-87.924282, 43.0464738], [-87.9242743, 43.04707], [-87.9242741, 43.0470858], [-87.924273, 43.0471679], [-87.9242222, 43.0471423], [-87.9238386, 43.0469488], [-87.9237721, 43.0469179], [-87.9237046, 43.0468843], [-87.9236346, 43.0468503], [-87.9236366, 43.0466689], [-87.9236382, 43.0464738], [-87.9237154, 43.0464745]]], [[[-87.8731807, 43.0775633], [-87.8724344, 43.0775721], [-87.8724571, 43.0775493], [-87.8724148, 43.077565], [-87.8724001, 43.0775508], [-87.8723921, 43.0775329], [-87.872304, 43.0768325], [-87.8732183, 43.0768345], [-87.8731807, 43.0775633]]], [[[-87.9078621, 43.0178052], [-87.9076066, 43.0178113], [-87.9057161, 43.0178137], [-87.9030562, 43.0178158], [-87.9029177, 43.0177418], [-87.9028656, 43.0173936], [-87.9028647, 43.0173891], [-87.9028901, 43.0173891], [-87.9031867, 43.0173895], [-87.9031864, 43.0173618], [-87.903186, 43.0173329], [-87.9032762, 43.0173318], [-87.9032789, 43.017119], [-87.9033362, 43.0171357], [-87.9033903, 43.0171386], [-87.9034404, 43.0171286], [-87.9034794, 43.017111], [-87.9035199, 43.0170958], [-87.9035687, 43.0170881], [-87.9062678, 43.0170902], [-87.9065753, 43.0170903], [-87.9070385, 43.0171147], [-87.9074602, 43.0171159], [-87.9074865, 43.0171484], [-87.9075273, 43.0171989], [-87.9075898, 43.0172911], [-87.9078621, 43.0178052]]], [[[-87.8865781, 43.074751], [-87.8803969, 43.0747304], [-87.880394, 43.074171], [-87.8803959, 43.0734532], [-87.8798633, 43.0734527], [-87.8798503, 43.0739763], [-87.8792607, 43.0739689], [-87.879256, 43.0741692], [-87.8792509, 43.0747334], [-87.8775031, 43.0747171], [-87.8775084, 43.0750663], [-87.8779184, 43.0750685], [-87.8780236, 43.0750696], [-87.8778241, 43.0818366], [-87.8778871, 43.0818856], [-87.8826336, 43.0818904], [-87.8826944, 43.0794057], [-87.8828472, 43.0794057], [-87.8858591, 43.0794058], [-87.8858715, 43.078822], [-87.8858963, 43.078822], [-87.8859352, 43.0776793], [-87.8859389, 43.0775987], [-87.8864888, 43.0775987], [-87.8865781, 43.074751]]]]}}