{"type": "Feature", "properties": {"market_key": 297, "university": "Coastal Carolina", "osm_type": "way", "osm_id": 43967615, "osm_name": "Coastal Carolina University"}, "geometry": {"type": "Polygon", "coordinates": [[[-79.0164877, 33.8017275], [-79.0177396, 33.8016808], [-79.017802, 33.8016785], [-79.0183328, 33.8016871], [-79.0184251, 33.8016874], [-79.0184497, 33.8015947], [-79.0184795, 33.8013637], [-79.0178589, 33.8012824], [-79.0179353, 33.7990671], [-79.0170442, 33.7990234], [-79.0168312, 33.7984756], [-79.0175875, 33.7982903], [-79.0181609, 33.7982962], [-79.018587, 33.79835], [-79.0186409, 33.7982804], [-79.0186419, 33.7982405], [-79.0186441, 33.7981544], [-79.0186428, 33.7980691], [-79.0186426, 33.7979018], [-79.0186424, 33.7977141], [-79.0186422, 33.7975267], [-79.0186419, 33.7972358], [-79.0186581, 33.7955203], [-79.0186447, 33.7941333], [-79.0186424, 33.7939556], [-79.0186388, 33.7936715], [-79.0186378, 33.793596], [-79.0186326, 33.7931464], [-79.018628, 33.7923408], [-79.0186346, 33.7922213], [-79.018642, 33.7921327], [-79.0186521, 33.7920352], [-79.0186688, 33.7918301], [-79.0186849, 33.7917493], [-79.0187253, 33.79158], [-79.0189679, 33.7908805], [-79.0190122, 33.7907646], [-79.0191595, 33.7903706], [-79.0194663, 33.7894812], [-79.0196036, 33.7890978], [-79.0193742, 33.7890643], [-79.0189, 33.7889915], [-79.0186676, 33.7890875], [-79.0158595, 33.7901638], [-79.0146308, 33.7886674], [-79.0107902, 33.790314], [-79.0108343, 33.7907597], [-79.0099807, 33.7911991], [-79.0101388, 33.7915334], [-79.0101497, 33.7915565], [-79.0070442, 33.7931129], [-79.006125, 33.7942669], [-79.0062965, 33.7944532], [-79.0069356, 33.7951798], [-79.0064821, 33.7954656], [-79.006431, 33.7955706], [-79.0063457, 33.7956312], [-79.0063961, 33.7956891], [-79.0063459, 33.7957778], [-79.0063463, 33.7958347], [-79.0063743, 33.7959692], [-79.0063014, 33.7960011], [-79.0061543, 33.796108], [-79.006105, 33.7960739], [-79.0060596, 33.796054], [-79.0060167, 33.7960463], [-79.0059574, 33.796047], [-79.0057822, 33.7960713], [-79.0057542, 33.7960069], [-79.0056509, 33.7960649], [-79.003962, 33.7971414], [-79.0035884, 33.7973632], [-79.0032681, 33.7975479], [-79.0039292, 33.7982754], [-79.0047941, 33.7992271], [-79.0054303, 33.7987989], [-79.0068232, 33.7979101], [-79.008306, 33.796942], [-79.008471, 33.796988], [-79.0093438, 33.7979664], [-79.0098677, 33.7985536], [-79.0104467, 33.7992026], [-79.0107335, 33.7995175], [-79.0118241, 33.8007147], [-79.0137381, 33.8005507], [-79.0140994, 33.8005212], [-79.0135658, 33.8017894], [-79.0138622, 33.8018069], [-79.0142722, 33.8018256], [-79.0158869, 33.8017676], [-79.0164877, 33.8017275]]]}}