{"type": "Feature", "properties": {"market_key": 303, "university": "University of West Florida", "osm_type": "way", "osm_id": 92357852, "osm_name": "University of West Florida"}, "geometry": {"type": "Polygon", "coordinates": [[[-87.198148, 30.5389336], [-87.1982415, 30.5389499], [-87.2021074, 30.5396244], [-87.2064118, 30.540268], [-87.2066698, 30.5402972], [-87.2090145, 30.5405626], [-87.2213934, 30.541855], [-87.2263432, 30.5423717], [-87.2263105, 30.5445838], [-87.2260737, 30.5495534], [-87.2258381, 30.5544961], [-87.2227736, 30.5543772], [-87.2216859, 30.55433], [-87.2190184, 30.5528491], [-87.2185582, 30.5534573], [-87.2179363, 30.5542794], [-87.2175253, 30.5552184], [-87.2170639, 30.5554496], [-87.2162292, 30.5551815], [-87.216007, 30.5551101], [-87.204085, 30.5463758], [-87.1974222, 30.5445961], [-87.1974731, 30.5434942], [-87.1969646, 30.5424773], [-87.1972408, 30.5411204], [-87.1974071, 30.5402666], [-87.1977472, 30.539458], [-87.198148, 30.5389336]]]}}