{"type": "Feature", "properties": {"market_key": 31, "university": "University of Houston", "osm_type": "way", "osm_id": 258132245, "osm_name": "University of Houston"}, "geometry": {"type": "Polygon", "coordinates": [[[-95.3349754, 29.715865], [-95.3350605, 29.7157369], [-95.3351846, 29.7156836], [-95.3385535, 29.7157301], [-95.3399007, 29.7158725], [-95.3467067, 29.7179016], [-95.3468938, 29.7179977], [-95.3469207, 29.7180115], [-95.3470899, 29.7181053], [-95.3473569, 29.7182455], [-95.3475967, 29.7183498], [-95.3477669, 29.7184084], [-95.348218, 29.7185516], [-95.3492116, 29.7154837], [-95.3494438, 29.7148503], [-95.3492662, 29.7147976], [-95.3492017, 29.7147068], [-95.3494009, 29.7141019], [-95.3499719, 29.7142648], [-95.3503509, 29.7135229], [-95.3511092, 29.7137411], [-95.3497107, 29.7171878], [-95.3518035, 29.717831], [-95.3511529, 29.7193929], [-95.3517267, 29.7196217], [-95.3518124, 29.7196774], [-95.351864, 29.7197219], [-95.3519309, 29.719801], [-95.3519777, 29.7198819], [-95.3520002, 29.7199434], [-95.3520167, 29.7200402], [-95.3520174, 29.7201221], [-95.3520007, 29.72021], [-95.351971, 29.7202976], [-95.351893, 29.7204911], [-95.3516535, 29.7210893], [-95.3516206, 29.7211714], [-95.3513641, 29.721812], [-95.3507451, 29.7233512], [-95.3507052, 29.7234713], [-95.3505316, 29.7240548], [-95.3504438, 29.7243543], [-95.350353, 29.7246557], [-95.3502812, 29.7248258], [-95.3502707, 29.7248619], [-95.3498642, 29.7259671], [-95.3497772, 29.72631], [-95.3496759, 29.7266501], [-95.3496414, 29.7270184], [-95.3496567, 29.7272446], [-95.3496915, 29.727481], [-95.34971, 29.7276063], [-95.349687, 29.7276417], [-95.3496444, 29.7276368], [-95.3493115, 29.7275986], [-95.3489347, 29.727608], [-95.3484768, 29.7276533], [-95.3483623, 29.7277064], [-95.3481526, 29.7277396], [-95.3480182, 29.7277648], [-95.3476825, 29.7278211], [-95.3474311, 29.7278597], [-95.3472417, 29.7278758], [-95.347174, 29.7278816], [-95.3467123, 29.7278762], [-95.3462346, 29.7278269], [-95.3441887, 29.7272218], [-95.3410344, 29.7262085], [-95.3410083, 29.7262001], [-95.34084, 29.7261507], [-95.3399749, 29.7258968], [-95.3391207, 29.7257739], [-95.3384316, 29.7257507], [-95.3382008, 29.7257006], [-95.337954, 29.7256066], [-95.3377542, 29.7254478], [-95.3375722, 29.7251681], [-95.3369642, 29.7229796], [-95.3354977, 29.7177335], [-95.3349754, 29.715865]]]}}