{"type": "Feature", "properties": {"market_key": 317, "university": "Florida International University", "osm_type": "relation", "osm_id": 17619320, "osm_name": "Florida International University"}, "geometry": {"type": "MultiPolygon", "coordinates": [[[[-80.3734055, 25.7528615], [-80.3739088, 25.7528546], [-80.3739039, 25.7526619], [-80.3748435, 25.7526539], [-80.3766654, 25.752616], [-80.3767205, 25.7518736], [-80.3767269, 25.7518388], [-80.3767509, 25.7518155], [-80.3767882, 25.7518079], [-80.3768548, 25.7518037], [-80.3770714, 25.7517953], [-80.377165, 25.7517828], [-80.3772613, 25.751756], [-80.3776636, 25.7516497], [-80.3779078, 25.7516354], [-80.3780134, 25.751638], [-80.378105, 25.7516478], [-80.3782495, 25.7516702], [-80.378463, 25.7517276], [-80.3788422, 25.7518393], [-80.3791438, 25.7519638], [-80.37914, 25.7521273], [-80.3791444, 25.7525833], [-80.3824837, 25.7525273], [-80.382791, 25.7525246], [-80.3840586, 25.7525117], [-80.3840934, 25.7538349], [-80.3841017, 25.7540793], [-80.384191, 25.7567003], [-80.3840601, 25.7571431], [-80.3838521, 25.7575679], [-80.3836305, 25.7579402], [-80.383209, 25.7584217], [-80.3822224, 25.7594392], [-80.3816874, 25.7599712], [-80.3811052, 25.7602893], [-80.3803905, 25.7605321], [-80.3796245, 25.7606144], [-80.3785809, 25.7605118], [-80.378345, 25.7606157], [-80.3782028, 25.7608367], [-80.3781143, 25.7608868], [-80.3780097, 25.760908], [-80.3727311, 25.7610207], [-80.368789, 25.7610942], [-80.368641, 25.7609884], [-80.368611, 25.7604344], [-80.36864, 25.7602618], [-80.3686097, 25.7597303], [-80.3685977, 25.7594611], [-80.3685777, 25.7589562], [-80.3685577, 25.7584152], [-80.3684964, 25.7581181], [-80.3683807, 25.7539752], [-80.3682478, 25.7525615], [-80.3719587, 25.7523962], [-80.3721518, 25.7521836], [-80.3724683, 25.7520338], [-80.3728116, 25.7519614], [-80.3732876, 25.7520024], [-80.3733615, 25.7520025], [-80.3734055, 25.7528615]]]]}}