{"type": "Feature", "properties": {"market_key": 321, "university": "University of North Carolina Wilmington", "osm_type": "relation", "osm_id": 7126636, "osm_name": "University of North Carolina at Wilmington"}, "geometry": {"type": "MultiPolygon", "coordinates": [[[[-77.8818286, 34.2242292], [-77.8815135, 34.2246766], [-77.8813566, 34.2248995], [-77.8827004, 34.2249183], [-77.8826843, 34.2254595], [-77.8841273, 34.2254861], [-77.8842453, 34.2259961], [-77.8858385, 34.2257123], [-77.8857849, 34.2255171], [-77.8853236, 34.2255925], [-77.8852485, 34.2252466], [-77.8841166, 34.2240756], [-77.8843419, 34.2236808], [-77.8839825, 34.2235522], [-77.8838349, 34.2235067], [-77.8839825, 34.2232517], [-77.883556, 34.2230787], [-77.8833924, 34.2233426], [-77.883725, 34.2236908], [-77.882923, 34.2242763], [-77.8826762, 34.2244692], [-77.8825743, 34.224589], [-77.8818286, 34.2242292]]], [[[-77.860865, 34.232257], [-77.860501, 34.232379], [-77.860237, 34.232445], [-77.859985, 34.232445], [-77.859833, 34.232423], [-77.859688, 34.232368], [-77.859463, 34.232242], [-77.859337, 34.232132], [-77.8589, 34.231676], [-77.858761, 34.231511], [-77.858715, 34.231429], [-77.858688, 34.231347], [-77.858695, 34.231182], [-77.858662, 34.23111], [-77.858602, 34.231077], [-77.85853, 34.231061], [-77.858437, 34.231061], [-77.858192, 34.231089], [-77.858034, 34.231089], [-77.857881, 34.231078], [-77.857769, 34.231056], [-77.857643, 34.231012], [-77.857326, 34.230864], [-77.857187, 34.230831], [-77.857074, 34.230847], [-77.856962, 34.230897], [-77.856936, 34.230963], [-77.856922, 34.23099], [-77.856909, 34.231007], [-77.85683, 34.231265], [-77.856757, 34.231402], [-77.856704, 34.231457], [-77.856632, 34.231507], [-77.856546, 34.231551], [-77.856341, 34.231628], [-77.855851, 34.231743], [-77.855402, 34.231815], [-77.85517, 34.231826], [-77.855131, 34.231826], [-77.854879, 34.231815], [-77.854674, 34.231782], [-77.854476, 34.231711], [-77.854284, 34.231656], [-77.853741, 34.231393], [-77.853047, 34.230997], [-77.8553143, 34.2277499], [-77.8607217, 34.2209591], [-77.8648469, 34.2158667], [-77.8689936, 34.2181468], [-77.8692672, 34.216399], [-77.8703025, 34.2164966], [-77.8699538, 34.2186968], [-77.8729472, 34.2203869], [-77.8756535, 34.2204346], [-77.8757179, 34.2190595], [-77.8761685, 34.2190595], [-77.8762114, 34.2182832], [-77.8806398, 34.2206075], [-77.880916, 34.2201684], [-77.8832174, 34.2211953], [-77.8823725, 34.2224461], [-77.8806934, 34.221732], [-77.880275, 34.2223596], [-77.8808624, 34.2226169], [-77.8810582, 34.2223375], [-77.8821472, 34.2227877], [-77.879127, 34.2271777], [-77.8791156, 34.2271937], [-77.8790322, 34.22731], [-77.8788095, 34.227621], [-77.8764233, 34.2309521], [-77.8729633, 34.2292313], [-77.8718314, 34.229249], [-77.8718421, 34.2298433], [-77.8711769, 34.2298877], [-77.8711394, 34.2292712], [-77.8656301, 34.2295861], [-77.8643748, 34.2292268], [-77.8611455, 34.2294796], [-77.860865, 34.232257]]]]}}