{"type": "Feature", "properties": {"market_key": 322, "university": "University of Alabama at Birmingham", "osm_type": "way", "osm_id": 129478027, "osm_name": "University of Alabama at Birmingham"}, "geometry": {"type": "Polygon", "coordinates": [[[-86.8155075, 33.4966591], [-86.815297, 33.496342], [-86.8135836, 33.4971196], [-86.8135743, 33.4959832], [-86.8117178, 33.4959976], [-86.8117194, 33.4959142], [-86.8114488, 33.4958733], [-86.8114361, 33.4950164], [-86.8111409, 33.4950061], [-86.8109975, 33.4950065], [-86.810854, 33.4950252], [-86.8104034, 33.4951416], [-86.8079357, 33.4962868], [-86.8072959, 33.4953652], [-86.8069916, 33.4949268], [-86.8069567, 33.4947434], [-86.8071172, 33.4947165], [-86.8081445, 33.4947656], [-86.8081512, 33.494129], [-86.8070688, 33.4940922], [-86.8070904, 33.493598], [-86.8055534, 33.4935711], [-86.8055588, 33.4941393], [-86.8055437, 33.4948595], [-86.8055331, 33.4953673], [-86.8055101, 33.4954365], [-86.8044451, 33.4959463], [-86.8042987, 33.4959915], [-86.8042027, 33.4957725], [-86.8039698, 33.4958371], [-86.8038569, 33.4955718], [-86.8031292, 33.4957768], [-86.8036826, 33.4971902], [-86.8036925, 33.4972155], [-86.802997, 33.4974816], [-86.8027058, 33.4970076], [-86.8024254, 33.496449], [-86.801905, 33.496702], [-86.801798, 33.496754], [-86.8019969, 33.49728], [-86.8017066, 33.4974159], [-86.8017174, 33.4974339], [-86.8018334, 33.4976276], [-86.8018496, 33.4976546], [-86.8020066, 33.4978895], [-86.8014466, 33.4981526], [-86.801155, 33.4982895], [-86.8008643, 33.4978101], [-86.8006651, 33.4979035], [-86.8009586, 33.4983818], [-86.8006201, 33.4985344], [-86.8005475, 33.4985645], [-86.8005321, 33.498539], [-86.8003213, 33.4980646], [-86.8002552, 33.4980963], [-86.7998215, 33.4983044], [-86.8000779, 33.4987336], [-86.8001054, 33.4987796], [-86.8000755, 33.498794], [-86.7998337, 33.4989102], [-86.7998103, 33.4988728], [-86.799534, 33.4984308], [-86.7988875, 33.4987501], [-86.7988095, 33.4987886], [-86.7991226, 33.4992443], [-86.7998485, 33.4989285], [-86.800478, 33.4986309], [-86.80056, 33.4985921], [-86.8005948, 33.4986586], [-86.8006392, 33.4987382], [-86.8009673, 33.4992903], [-86.8013747, 33.4999287], [-86.7972461, 33.501878], [-86.7972319, 33.5019177], [-86.7991102, 33.5047281], [-86.7983323, 33.5050978], [-86.7977242, 33.5054018], [-86.7984874, 33.506537], [-86.79925, 33.5076514], [-86.797863, 33.508336], [-86.7984135, 33.5091466], [-86.7986476, 33.5094912], [-86.80003, 33.5088145], [-86.8014864, 33.5081237], [-86.8034036, 33.5071929], [-86.8041435, 33.5068474], [-86.8056638, 33.5061401], [-86.8070288, 33.5055005], [-86.8068897, 33.505296], [-86.8062488, 33.5043537], [-86.8064636, 33.5042518], [-86.8075265, 33.5037475], [-86.8089941, 33.5030511], [-86.8090571, 33.5031439], [-86.809883, 33.5041406], [-86.8108507, 33.5036812], [-86.8110387, 33.50359], [-86.8144263, 33.5019532], [-86.8141887, 33.5013526], [-86.8140585, 33.5007186], [-86.813889, 33.4993848], [-86.8137518, 33.4992506], [-86.8136594, 33.4991685], [-86.8135108, 33.4991099], [-86.8133631, 33.4990611], [-86.8131967, 33.4990435], [-86.8125622, 33.4990324], [-86.8116479, 33.4990702], [-86.8113854, 33.4986591], [-86.8115267, 33.49863], [-86.8115369, 33.4986293], [-86.8115677, 33.4986511], [-86.8115858, 33.4986605], [-86.8116058, 33.4986652], [-86.8117094, 33.4986432], [-86.8119463, 33.498569], [-86.8123379, 33.4985058], [-86.8127215, 33.4984999], [-86.8130421, 33.4985014], [-86.8131573, 33.498486], [-86.8133545, 33.4984398], [-86.8135304, 33.4983805], [-86.81367, 33.4983052], [-86.8138012, 33.4982053], [-86.8139877, 33.4980224], [-86.8143704, 33.4976175], [-86.8155075, 33.4966591]]]}}