{"type": "Feature", "properties": {"market_key": 330, "university": "University of Southern Mississippi", "osm_type": "relation", "osm_id": 2601235, "osm_name": "University of Southern Mississippi"}, "geometry": {"type": "MultiPolygon", "coordinates": [[[[-89.3389176, 31.3344315], [-89.3389351, 31.3323696], [-89.3369045, 31.3322133], [-89.3352109, 31.3320991], [-89.3336074, 31.3320545], [-89.3291943, 31.3320486], [-89.3291948, 31.3321333], [-89.3292006, 31.3331184], [-89.3292166, 31.3341307], [-89.3292253, 31.3346518], [-89.3292486, 31.3354842], [-89.3294608, 31.3356435], [-89.3312212, 31.3356485], [-89.3312453, 31.33491], [-89.3313083, 31.3329846], [-89.333272, 31.3334138], [-89.333333, 31.3332203], [-89.3355021, 31.3336907], [-89.3389176, 31.3344315]]], [[[-89.3291933, 31.331891], [-89.3291876, 31.3309956], [-89.3291629, 31.3299447], [-89.3291614, 31.3286544], [-89.3291542, 31.3275291], [-89.3291643, 31.3267338], [-89.3291876, 31.32657], [-89.329189, 31.3260142], [-89.329205, 31.3253007], [-89.3292079, 31.3250104], [-89.3292442, 31.3249335], [-89.3293052, 31.3248838], [-89.3293938, 31.324864], [-89.3297148, 31.3248627], [-89.330733, 31.3248541], [-89.3324382, 31.3248888], [-89.3330192, 31.3248938], [-89.3333525, 31.3248967], [-89.3341768, 31.3249037], [-89.3353243, 31.3248776], [-89.3353417, 31.3253603], [-89.3365763, 31.3253665], [-89.3365987, 31.3259008], [-89.3366133, 31.3262193], [-89.3367475, 31.3262425], [-89.3371522, 31.3260327], [-89.3371573, 31.3267338], [-89.339519, 31.3267784], [-89.3397195, 31.3267886], [-89.3397212, 31.3270063], [-89.3402753, 31.3270138], [-89.3402783, 31.3272053], [-89.3407929, 31.3272054], [-89.3408055, 31.3280464], [-89.3414663, 31.3280491], [-89.3414748, 31.3267595], [-89.3415573, 31.3267609], [-89.3416344, 31.3267631], [-89.3420173, 31.3267691], [-89.3420089, 31.3284722], [-89.3442238, 31.3285405], [-89.3442696, 31.3285535], [-89.3442899, 31.328583], [-89.3443011, 31.328636], [-89.3442869, 31.3299426], [-89.3437695, 31.3299634], [-89.3437619, 31.3321385], [-89.3410294, 31.3321014], [-89.3410232, 31.3323821], [-89.3409657, 31.3324347], [-89.3408795, 31.3324452], [-89.3403023, 31.3323312], [-89.3396696, 31.3322821], [-89.3382214, 31.3321487], [-89.3373505, 31.3320768], [-89.3353375, 31.3319522], [-89.3341052, 31.3319024], [-89.3291933, 31.331891]]], [[[-89.3442869, 31.3284693], [-89.3432568, 31.3284523], [-89.3432541, 31.3268295], [-89.3442996, 31.3268366], [-89.3442869, 31.3284693]]], [[[-89.3453895, 31.3267544], [-89.3434154, 31.3267129], [-89.3434108, 31.3259442], [-89.3443607, 31.3259429], [-89.3443486, 31.3255152], [-89.3453804, 31.3255178], [-89.3453895, 31.3267544]]], [[[-89.3233187, 31.3345867], [-89.3220665, 31.3345824], [-89.3220527, 31.3323186], [-89.3233483, 31.3323559], [-89.3233401, 31.3329748], [-89.3238516, 31.332982], [-89.3238501, 31.3341389], [-89.3233246, 31.3341424], [-89.3233187, 31.3345867]]], [[[-89.3277468, 31.3336298], [-89.3270843, 31.3336321], [-89.3270816, 31.3339964], [-89.3262716, 31.3339872], [-89.3259068, 31.3336], [-89.3258317, 31.3331922], [-89.3258317, 31.3329425], [-89.3277522, 31.3329425], [-89.3277468, 31.3336298]]], [[[-89.3407561, 31.3263835], [-89.3396962, 31.3263888], [-89.33969, 31.3261572], [-89.3397024, 31.3260493], [-89.3397424, 31.3259229], [-89.3397979, 31.3258124], [-89.3398718, 31.3257097], [-89.3399766, 31.325565], [-89.340146, 31.3253834], [-89.3402816, 31.3254229], [-89.3407622, 31.3254281], [-89.3407561, 31.3263835]]], [[[-89.3413917, 31.3266846], [-89.3409157, 31.3266807], [-89.3408987, 31.3258201], [-89.3413902, 31.3258214], [-89.3413917, 31.3266846]]]]}}