{"type": "Feature", "properties": {"market_key": 333, "university": "Rochester Institute of Technology", "osm_type": "way", "osm_id": 102645121, "osm_name": "Rochester Institute of Technology"}, "geometry": {"type": "Polygon", "coordinates": [[[-77.6790045, 43.0922059], [-77.6789602, 43.0922289], [-77.6789083, 43.0922427], [-77.6788514, 43.0922445], [-77.6783829, 43.0921674], [-77.6779084, 43.0921147], [-77.6775618, 43.0920926], [-77.6768914, 43.0920835], [-77.6771573, 43.0911282], [-77.6754834, 43.0910858], [-77.6754854, 43.0912959], [-77.6754927, 43.0920961], [-77.6749136, 43.0921165], [-77.674319, 43.0921695], [-77.6737626, 43.0921861], [-77.6734962, 43.0921956], [-77.673369, 43.0921997], [-77.6705179, 43.0922941], [-77.6703579, 43.0923003], [-77.668418, 43.0923749], [-77.6670708, 43.0924329], [-77.6661016, 43.0924754], [-77.6646824, 43.0925346], [-77.6637803, 43.0925737], [-77.6624799, 43.0926292], [-77.6590817, 43.0927764], [-77.6565394, 43.0928829], [-77.6561399, 43.0928956], [-77.6557662, 43.0928972], [-77.6553621, 43.0928882], [-77.6549258, 43.0928653], [-77.6545874, 43.0928395], [-77.6542203, 43.0928043], [-77.6539925, 43.0927741], [-77.6539048, 43.0927556], [-77.6538674, 43.0927339], [-77.6538428, 43.09271], [-77.6538179, 43.0926792], [-77.6538072, 43.0926446], [-77.6538068, 43.0926301], [-77.6538063, 43.0926115], [-77.6538159, 43.0925772], [-77.6540963, 43.0920688], [-77.654605, 43.0911105], [-77.6555697, 43.0893394], [-77.6570266, 43.0866851], [-77.6571634, 43.0864284], [-77.6573658, 43.0860512], [-77.6577263, 43.0853073], [-77.6583336, 43.0841937], [-77.658791, 43.0833647], [-77.658961, 43.0830605], [-77.6594081, 43.0822797], [-77.6597262, 43.0817455], [-77.6602428, 43.0808791], [-77.6619251, 43.0779161], [-77.6625122, 43.0768427], [-77.663324, 43.0754915], [-77.6637388, 43.074767], [-77.6642219, 43.0739231], [-77.6650331, 43.0724932], [-77.6650577, 43.0724665], [-77.6650851, 43.0724431], [-77.6651162, 43.0724242], [-77.6651632, 43.072409], [-77.6652217, 43.0724047], [-77.6695737, 43.0723414], [-77.671526, 43.0723013], [-77.6715868, 43.0723002], [-77.6751084, 43.0722362], [-77.677612, 43.0721917], [-77.6776172, 43.0728482], [-77.6789168, 43.072836], [-77.6789019, 43.0721787], [-77.6839838, 43.0721016], [-77.6839272, 43.0732318], [-77.686677, 43.0732281], [-77.6868041, 43.0720651], [-77.6876042, 43.0720512], [-77.6881967, 43.0720611], [-77.6886784, 43.0720561], [-77.68875, 43.0720586], [-77.6887998, 43.0720727], [-77.6888272, 43.0720917], [-77.6888419, 43.0721161], [-77.6888494, 43.0721536], [-77.6887968, 43.0724183], [-77.6886902, 43.0730245], [-77.6881995, 43.0754214], [-77.6873353, 43.0753119], [-77.6871157, 43.0762721], [-77.6870005, 43.0765193], [-77.6879541, 43.0765811], [-77.6876136, 43.0781538], [-77.687559, 43.0784897], [-77.6874855, 43.0787444], [-77.6872042, 43.0801196], [-77.6870252, 43.0810075], [-77.6857244, 43.0810699], [-77.6857322, 43.0818995], [-77.6868474, 43.081892], [-77.6865895, 43.083089], [-77.6864993, 43.0834907], [-77.6864075, 43.083841], [-77.6863317, 43.0841404], [-77.6862714, 43.0843117], [-77.6861609, 43.0845953], [-77.6860454, 43.0848073], [-77.6858209, 43.0851514], [-77.6856197, 43.0854409], [-77.6853966, 43.085741], [-77.6852117, 43.085981], [-77.6850258, 43.0861977], [-77.6848294, 43.0863973], [-77.6846074, 43.086614], [-77.6843339, 43.0868665], [-77.6840978, 43.0870854], [-77.6825908, 43.0884724], [-77.6818445, 43.0891359], [-77.6816377, 43.0893125], [-77.6815798, 43.0893704], [-77.6801191, 43.0907441], [-77.6794115, 43.0915172], [-77.6793065, 43.0916872], [-77.679214, 43.0918526], [-77.6790336, 43.0921748], [-77.6790045, 43.0922059]]]}}