{"type": "Feature", "properties": {"market_key": 334, "university": "University of Wisconsin Madison", "osm_type": "relation", "osm_id": 7144092, "osm_name": "University of Wisconsin-Madison"}, "geometry": {"type": "MultiPolygon", "coordinates": [[[[-89.4064153, 43.0776653], [-89.4070831, 43.0777333], [-89.4075651, 43.0778251], [-89.4080345, 43.0778976], [-89.4083661, 43.0779575], [-89.4085334, 43.0779936], [-89.4087265, 43.0780421], [-89.4090859, 43.0781405], [-89.409449, 43.0782592], [-89.4095473, 43.0782933], [-89.4096599, 43.0783384], [-89.4099389, 43.0784677], [-89.4100116, 43.0784992], [-89.410552, 43.0787333], [-89.4106368, 43.0787566], [-89.4107182, 43.078772], [-89.4107768, 43.0787685], [-89.4108257, 43.0787554], [-89.4109114, 43.0787281], [-89.4109852, 43.0787037], [-89.4111442, 43.0786715], [-89.411312, 43.0786591], [-89.4122784, 43.0786475], [-89.41229, 43.0786474], [-89.4123053, 43.0786472], [-89.4123904, 43.0786481], [-89.4125431, 43.0786496], [-89.4126356, 43.0786483], [-89.4127077, 43.0786472], [-89.4130348, 43.0786425], [-89.4135963, 43.0786101], [-89.4140707, 43.0785343], [-89.4143472, 43.0785357], [-89.4145815, 43.0785101], [-89.4151078, 43.0784325], [-89.4152442, 43.078423], [-89.4155756, 43.0784165], [-89.4157611, 43.078423], [-89.415924, 43.0784312], [-89.4163134, 43.0785166], [-89.4166138, 43.078594], [-89.4168877, 43.0786715], [-89.4171845, 43.0787846], [-89.4176874, 43.0789812], [-89.4181646, 43.0791942], [-89.4184314, 43.0792999], [-89.4184995, 43.0793269], [-89.4187114, 43.0794075], [-89.4187414, 43.0794251], [-89.4187509, 43.0794306], [-89.4187836, 43.0794559], [-89.4188126, 43.0794825], [-89.4188419, 43.0794898], [-89.418867, 43.0794876], [-89.418918, 43.079466], [-89.418985, 43.0794308], [-89.4191004, 43.0793504], [-89.419164, 43.0793365], [-89.4192086, 43.0793399], [-89.4192693, 43.0793446], [-89.4193525, 43.07937], [-89.4193964, 43.0793842], [-89.4194195, 43.0793916], [-89.4195161, 43.0794131], [-89.419687, 43.0794438], [-89.4198409, 43.0794541], [-89.4199426, 43.0794425], [-89.4200096, 43.0794288], [-89.4200794, 43.0793955], [-89.4201384, 43.0793407], [-89.4201759, 43.0792819], [-89.42017, 43.0792442], [-89.4201344, 43.0792109], [-89.4200378, 43.0791756], [-89.4199941, 43.079168], [-89.4199627, 43.079158], [-89.4199453, 43.0791336], [-89.4199359, 43.0791051], [-89.4199466, 43.0789209], [-89.4199654, 43.0787955], [-89.4200244, 43.0786917], [-89.4201102, 43.0785918], [-89.4201504, 43.0785506], [-89.4202175, 43.0784919], [-89.4203534, 43.0784314], [-89.4205808, 43.0783746], [-89.4207069, 43.0783417], [-89.4208703, 43.0782668], [-89.42101, 43.0781858], [-89.4211133, 43.078099], [-89.4212225, 43.0779735], [-89.4213178, 43.0779731], [-89.4214124, 43.0779727], [-89.4214347, 43.0781434], [-89.42148, 43.0781829], [-89.4215904, 43.0782248], [-89.4217539, 43.0782894], [-89.4219085, 43.0783184], [-89.4220217, 43.0783391], [-89.4221913, 43.0783668], [-89.4223194, 43.0784184], [-89.4224785, 43.0784765], [-89.4226817, 43.0785314], [-89.4229203, 43.0786347], [-89.4231074, 43.0787342], [-89.4232348, 43.0788019], [-89.4237326, 43.0791557], [-89.4246707, 43.0800234], [-89.4248635, 43.0802209], [-89.4249677, 43.080328], [-89.4250411, 43.0803689], [-89.4252114, 43.0804856], [-89.4254928, 43.0806838], [-89.4260354, 43.0811657], [-89.4261813, 43.0812466], [-89.426367, 43.0814735], [-89.4267535, 43.0828739], [-89.4267405, 43.083195], [-89.4267731, 43.0833908], [-89.4266536, 43.0838531], [-89.4265123, 43.0844001], [-89.4263645, 43.0846622], [-89.4262271, 43.0848994], [-89.4256371, 43.085215], [-89.4253041, 43.0853764], [-89.4250165, 43.0854808], [-89.4248349, 43.0855429], [-89.4245448, 43.0855876], [-89.4243626, 43.0855794], [-89.4240568, 43.0855457], [-89.4238242, 43.0854677], [-89.4236939, 43.0853479], [-89.423482, 43.0853353], [-89.4232701, 43.0853662], [-89.4224642, 43.085562], [-89.4219548, 43.0857522], [-89.4214686, 43.0859047], [-89.4209757, 43.0860211], [-89.420614, 43.0862282], [-89.4194936, 43.0868732], [-89.4192538, 43.0871938], [-89.4188816, 43.0873698], [-89.4184315, 43.0874952], [-89.4180607, 43.0876265], [-89.4177666, 43.0878014], [-89.4173932, 43.0879418], [-89.4171529, 43.0879881], [-89.416863, 43.0880293], [-89.4166358, 43.0880829], [-89.4164165, 43.0882176], [-89.4161507, 43.088341], [-89.4160237, 43.0884845], [-89.4159133, 43.0886662], [-89.4157255, 43.0888878], [-89.415564, 43.0891619], [-89.4153685, 43.089392], [-89.4152145, 43.0895903], [-89.4151527, 43.0896677], [-89.4151135, 43.0897339], [-89.4151221, 43.0898015], [-89.4151752, 43.0898458], [-89.4152803, 43.0898807], [-89.4153829, 43.0898873], [-89.4154538, 43.0898787], [-89.4155794, 43.089852], [-89.4157255, 43.0897727], [-89.4159293, 43.0896834], [-89.4161647, 43.0895062], [-89.4166533, 43.0891563], [-89.4173727, 43.0886338], [-89.4177887, 43.0881137], [-89.4182695, 43.087812], [-89.4189911, 43.087536], [-89.419059, 43.0875032], [-89.4192482, 43.0874624], [-89.4198138, 43.0873796], [-89.4200094, 43.087355], [-89.4206858, 43.0872621], [-89.4221136, 43.0871861], [-89.4231268, 43.0872139], [-89.4243556, 43.0873482], [-89.4251561, 43.0876367], [-89.4263814, 43.0884411], [-89.4276796, 43.0893608], [-89.4279083, 43.0896895], [-89.4281864, 43.0899953], [-89.4293054, 43.091273], [-89.4299459, 43.0917955], [-89.4303272, 43.0922267], [-89.4310117, 43.0927578], [-89.4312538, 43.0926166], [-89.4318361, 43.0925683], [-89.4323044, 43.092689], [-89.4327293, 43.0921914], [-89.4333144, 43.0918941], [-89.4344609, 43.0916254], [-89.4370151, 43.0907439], [-89.4387343, 43.0896501], [-89.4397757, 43.0892831], [-89.4399524, 43.0892037], [-89.4399719, 43.0891261], [-89.4400762, 43.0890691], [-89.4401404, 43.0890664], [-89.4404084, 43.0890552], [-89.4409289, 43.0888817], [-89.4418727, 43.0885407], [-89.4425919, 43.08841], [-89.4441524, 43.0878733], [-89.4440164, 43.0873552], [-89.4439915, 43.0872551], [-89.4443559, 43.0871882], [-89.4447204, 43.0870703], [-89.4450533, 43.0869003], [-89.4453629, 43.0866757], [-89.4459653, 43.0858951], [-89.445974, 43.0850734], [-89.4459506, 43.0835454], [-89.4459419, 43.0829716], [-89.4459442, 43.0825763], [-89.4436232, 43.0825683], [-89.4429889, 43.0825596], [-89.4409281, 43.0825312], [-89.4400064, 43.0825312], [-89.4393412, 43.0825312], [-89.4392038, 43.0825312], [-89.4387524, 43.0825442], [-89.4384796, 43.0825785], [-89.4379128, 43.0826498], [-89.4372168, 43.082659], [-89.4369935, 43.0826506], [-89.4369856, 43.0826289], [-89.4369718, 43.082613], [-89.436958, 43.0826022], [-89.4369273, 43.0825914], [-89.4368749, 43.0825813], [-89.4368453, 43.0825784], [-89.4368156, 43.0825791], [-89.4367721, 43.0825892], [-89.4366525, 43.0825391], [-89.43676, 43.0824451], [-89.4367926, 43.0824118], [-89.4368805, 43.0823083], [-89.4369163, 43.0822512], [-89.4369619, 43.082168], [-89.4370124, 43.0820479], [-89.4370302, 43.0819934], [-89.4370417, 43.0819396], [-89.4370433, 43.0819123], [-89.4370398, 43.0818588], [-89.4370531, 43.0816222], [-89.4370515, 43.081317], [-89.4370544, 43.0810165], [-89.4370454, 43.080697], [-89.4370192, 43.0803589], [-89.4369904, 43.0802188], [-89.4369587, 43.0800821], [-89.4369011, 43.0799119], [-89.4368367, 43.0797444], [-89.4367681, 43.0795872], [-89.436676, 43.079376], [-89.4366226, 43.0792434], [-89.436571, 43.0791298], [-89.4365397, 43.079057], [-89.4365118, 43.0789845], [-89.4364665, 43.078884], [-89.4359132, 43.0788869], [-89.4355544, 43.078365], [-89.4354381, 43.0784036], [-89.4348318, 43.0775988], [-89.4342226, 43.07696], [-89.4344441, 43.0768174], [-89.4342634, 43.0766535], [-89.4346741, 43.0764101], [-89.4345552, 43.0762953], [-89.4344779, 43.0762085], [-89.4343761, 43.0760919], [-89.4343395, 43.0760622], [-89.4343134, 43.076045], [-89.4342931, 43.0760337], [-89.434267, 43.0760229], [-89.4340024, 43.0759756], [-89.4340212, 43.0758943], [-89.4340346, 43.0758169], [-89.4340373, 43.0757758], [-89.4340333, 43.0756974], [-89.4340199, 43.0756044], [-89.4339998, 43.0755348], [-89.4339649, 43.0754486], [-89.4339274, 43.0753663], [-89.4338764, 43.0752537], [-89.4337991, 43.0750231], [-89.4337862, 43.0750231], [-89.4325554, 43.0750231], [-89.4325554, 43.0752183], [-89.4310651, 43.0752044], [-89.4310509, 43.0758169], [-89.4291045, 43.0757897], [-89.4287379, 43.0757845], [-89.4287347, 43.0769849], [-89.4273518, 43.0770079], [-89.4271382, 43.0769945], [-89.4269627, 43.0769565], [-89.426833, 43.0769097], [-89.4267029, 43.0768528], [-89.4267217, 43.0755419], [-89.4252675, 43.0755349], [-89.4252252, 43.0736367], [-89.4239121, 43.0737546], [-89.4233026, 43.0737997], [-89.4230346, 43.0738157], [-89.4227582, 43.0738571], [-89.4206208, 43.0741602], [-89.4196598, 43.0741802], [-89.4193682, 43.0742054], [-89.4190721, 43.0742274], [-89.4186503, 43.0742627], [-89.4182735, 43.0742881], [-89.418001, 43.0743035], [-89.4179678, 43.0740464], [-89.4179453, 43.0739061], [-89.4179339, 43.0738532], [-89.4179084, 43.0737343], [-89.4178949, 43.073679], [-89.4178455, 43.0734767], [-89.4178087, 43.0733454], [-89.4177852, 43.0732657], [-89.4176207, 43.0732879], [-89.4174882, 43.0733335], [-89.4168335, 43.0734236], [-89.4167373, 43.0734134], [-89.4166806, 43.0734267], [-89.416584, 43.0734374], [-89.4164358, 43.0734413], [-89.4163869, 43.0734415], [-89.4163218, 43.0734417], [-89.4162729, 43.0734419], [-89.4161468, 43.0734423], [-89.4159481, 43.073443], [-89.4158474, 43.073457], [-89.4155964, 43.0734548], [-89.4150357, 43.0734486], [-89.4149306, 43.0734485], [-89.4148412, 43.0734484], [-89.4144339, 43.0734476], [-89.4143234, 43.0734506], [-89.4142055, 43.073455], [-89.4140251, 43.0734549], [-89.4139038, 43.0734559], [-89.4139062, 43.0733677], [-89.4139064, 43.0733014], [-89.4139067, 43.0729877], [-89.4139078, 43.0716705], [-89.4139078, 43.0716], [-89.4139079, 43.0715202], [-89.4139088, 43.0710874], [-89.4139094, 43.0703731], [-89.4139089, 43.0702936], [-89.4139112, 43.0702311], [-89.4139175, 43.0687293], [-89.4139179, 43.0686474], [-89.4139187, 43.0685862], [-89.4139196, 43.0683426], [-89.4139221, 43.0678988], [-89.4139223, 43.067811], [-89.4137913, 43.0678453], [-89.4136255, 43.0678545], [-89.4135736, 43.0678794], [-89.4134634, 43.0679019], [-89.4125575, 43.0681224], [-89.412326, 43.0681881], [-89.4122909, 43.068202], [-89.4122559, 43.0682192], [-89.4120763, 43.0683318], [-89.4118498, 43.0684034], [-89.4118019, 43.0684324], [-89.4117103, 43.0684881], [-89.4114381, 43.0686533], [-89.4113591, 43.0687012], [-89.411137, 43.068836], [-89.410742, 43.0690758], [-89.4103178, 43.0693332], [-89.4099227, 43.0695731], [-89.4091454, 43.0700571], [-89.409096, 43.0700873], [-89.4090775, 43.0701058], [-89.409062, 43.0701265], [-89.4090522, 43.0701451], [-89.4090398, 43.0701704], [-89.4090287, 43.0701983], [-89.4090205, 43.0702278], [-89.4090153, 43.070252], [-89.4090104, 43.070276], [-89.4090064, 43.0703028], [-89.4090045, 43.0703251], [-89.4090032, 43.0703483], [-89.4090027, 43.070368], [-89.4090223, 43.0710111], [-89.4090247, 43.0710885], [-89.4089099, 43.0710821], [-89.4080991, 43.0710692], [-89.4080417, 43.0710684], [-89.4078466, 43.0710654], [-89.4074869, 43.07106], [-89.4073747, 43.0710586], [-89.407374, 43.0709831], [-89.4073702, 43.0705912], [-89.4073675, 43.0703184], [-89.4073658, 43.0701442], [-89.406765, 43.0701288], [-89.406764, 43.0701076], [-89.4062506, 43.0701077], [-89.4062471, 43.0699013], [-89.405782, 43.0699008], [-89.4057057, 43.0699019], [-89.4057057, 43.0696858], [-89.4057067, 43.0696015], [-89.4057841, 43.0695595], [-89.4058353, 43.0695278], [-89.4058861, 43.0695042], [-89.4059578, 43.0694797], [-89.40627, 43.0694076], [-89.4072522, 43.0691656], [-89.4073081, 43.0691534], [-89.4073558, 43.0691398], [-89.4073553, 43.0690911], [-89.4073517, 43.0687407], [-89.407349, 43.068473], [-89.4068545, 43.0684672], [-89.4065923, 43.0684658], [-89.4065209, 43.0684633], [-89.4058281, 43.0684551], [-89.4057647, 43.0684544], [-89.4056481, 43.0684537], [-89.4056472, 43.0682289], [-89.4055543, 43.0682288], [-89.4042298, 43.0682274], [-89.4041379, 43.0682275], [-89.4041428, 43.068658], [-89.4041412, 43.0693722], [-89.4041939, 43.0693724], [-89.4045688, 43.0693709], [-89.4045673, 43.069103], [-89.4048789, 43.0691054], [-89.4048783, 43.0692263], [-89.4050358, 43.0692286], [-89.4050213, 43.0695905], [-89.405108, 43.0696912], [-89.4044299, 43.0698645], [-89.4042017, 43.0699146], [-89.4041828, 43.069918], [-89.4041556, 43.0699204], [-89.4040811, 43.069921], [-89.4039736, 43.0699281], [-89.4039629, 43.0699303], [-89.4038739, 43.069959], [-89.4037792, 43.0699971], [-89.403685, 43.0700287], [-89.4035549, 43.0700553], [-89.4031822, 43.0701253], [-89.4030356, 43.0701472], [-89.4028702, 43.0701664], [-89.4026986, 43.0701753], [-89.4025573, 43.0701775], [-89.4023122, 43.0701657], [-89.4021424, 43.0701463], [-89.4019791, 43.0701195], [-89.4018218, 43.070089], [-89.4016945, 43.070051], [-89.4014453, 43.0699659], [-89.4013844, 43.0699494], [-89.4012704, 43.0699242], [-89.4011238, 43.0698833], [-89.4009878, 43.0698401], [-89.4008229, 43.0697837], [-89.4008253, 43.0697605], [-89.4008539, 43.0693995], [-89.4008566, 43.0693213], [-89.4008755, 43.0688042], [-89.4008773, 43.0687464], [-89.4008786, 43.0687311], [-89.4008838, 43.0684943], [-89.4008721, 43.0680961], [-89.3992155, 43.0679091], [-89.3992092, 43.068188], [-89.3992086, 43.0682156], [-89.3992056, 43.0683493], [-89.399203, 43.0684639], [-89.3992155, 43.0685439], [-89.3992063, 43.0688465], [-89.3991981, 43.0691375], [-89.3991941, 43.0692349], [-89.3991932, 43.069366], [-89.3990855, 43.0693322], [-89.3961358, 43.068417], [-89.3961217, 43.0684467], [-89.3961196, 43.0684695], [-89.3961172, 43.0684841], [-89.3961063, 43.0685884], [-89.3960625, 43.0685869], [-89.3960494, 43.0686343], [-89.3953669, 43.0684984], [-89.3952821, 43.0685537], [-89.3952271, 43.0685522], [-89.395166, 43.0685975], [-89.3951504, 43.0686099], [-89.3950825, 43.0686539], [-89.3950393, 43.0686819], [-89.394721, 43.0688865], [-89.394286, 43.0691882], [-89.394208, 43.0692424], [-89.3941741, 43.0692654], [-89.3947457, 43.0695236], [-89.394329, 43.0700498], [-89.3941037, 43.0700996], [-89.3941239, 43.0701274], [-89.3941396, 43.0701644], [-89.3941452, 43.0702124], [-89.3941451, 43.0702908], [-89.3941459, 43.0703092], [-89.3941458, 43.0703295], [-89.3942016, 43.0703309], [-89.3959123, 43.0703741], [-89.3959003, 43.0707984], [-89.3958969, 43.0709613], [-89.3958816, 43.0715052], [-89.3958758, 43.071711], [-89.3958699, 43.0719234], [-89.3958714, 43.0721091], [-89.3958673, 43.0722404], [-89.3958632, 43.0723716], [-89.3958625, 43.0724025], [-89.3958587, 43.0725733], [-89.3958581, 43.0725947], [-89.3958572, 43.072641], [-89.3958518, 43.0727849], [-89.3958403, 43.0730879], [-89.3958388, 43.0731152], [-89.3958309, 43.0732083], [-89.3959443, 43.0732101], [-89.3966435, 43.073221], [-89.3973326, 43.0732324], [-89.3974354, 43.073233], [-89.3974377, 43.0733437], [-89.3974293, 43.0737048], [-89.3974229, 43.0739736], [-89.3974051, 43.0744202], [-89.3974037, 43.0745206], [-89.3974022, 43.0745863], [-89.3973933, 43.0748333], [-89.3973711, 43.0749169], [-89.3973623, 43.0749912], [-89.3973473, 43.0754408], [-89.39734, 43.0756569], [-89.3973373, 43.0757406], [-89.3973343, 43.0758161], [-89.3973295, 43.0758997], [-89.3973221, 43.0760868], [-89.3973172, 43.0762116], [-89.397308, 43.0764433], [-89.3973038, 43.0765744], [-89.3972989, 43.0766006], [-89.397288, 43.0766237], [-89.3972697, 43.076642], [-89.3972449, 43.0766523], [-89.3972404, 43.0768426], [-89.3972329, 43.0769868], [-89.3972315, 43.0770177], [-89.3973608, 43.0773524], [-89.3982306, 43.0773693], [-89.4020226, 43.0778286], [-89.4031099, 43.0776466], [-89.4031545, 43.0773533], [-89.4034074, 43.0773661], [-89.4041292, 43.0774728], [-89.4046311, 43.0775544], [-89.4047536, 43.0775708], [-89.4048866, 43.0775857], [-89.4056992, 43.0776039], [-89.4060366, 43.0776134], [-89.4064153, 43.0776653]]]]}}