{"type": "Feature", "properties": {"market_key": 347, "university": "Rensselaer Polytechnic Institute", "osm_type": "relation", "osm_id": 8670722, "osm_name": "Rensselaer Polytechnic Institute"}, "geometry": {"type": "MultiPolygon", "coordinates": [[[[-73.6734415, 42.7319368], [-73.6735026, 42.7316816], [-73.6729651, 42.7316121], [-73.6729436, 42.7317019], [-73.6717919, 42.7315207], [-73.6720421, 42.7306413], [-73.6705826, 42.7304488], [-73.6692952, 42.7304763], [-73.6688767, 42.7298616], [-73.6687751, 42.7296055], [-73.6687751, 42.7294597], [-73.6688499, 42.7292863], [-73.6690109, 42.7291445], [-73.6691664, 42.7290262], [-73.6682601, 42.7282894], [-73.6681027, 42.7283133], [-73.6674554, 42.7284115], [-73.6676486, 42.7287583], [-73.6680777, 42.7290105], [-73.6679168, 42.7291996], [-73.6681957, 42.7293415], [-73.6680563, 42.7295464], [-73.6682333, 42.7298459], [-73.668244, 42.7300902], [-73.6681689, 42.7302872], [-73.668035, 42.730497], [-73.667729, 42.7309768], [-73.6671872, 42.7307916], [-73.6673106, 42.7304448], [-73.6675574, 42.7297946], [-73.6665167, 42.7295897], [-73.6663772, 42.7304803], [-73.6664577, 42.7307916], [-73.6667312, 42.730965], [-73.6660596, 42.7317881], [-73.6658568, 42.7320367], [-73.6648254, 42.7328329], [-73.6645962, 42.7330098], [-73.6634697, 42.7339279], [-73.6629225, 42.7341761], [-73.662665, 42.7351257], [-73.6631425, 42.735437], [-73.6633517, 42.7355237], [-73.6629601, 42.7364772], [-73.6631521, 42.7368233], [-73.6633731, 42.7372218], [-73.6642368, 42.7370012], [-73.6640169, 42.7366269], [-73.6640169, 42.7364378], [-73.6641402, 42.7362605], [-73.6651702, 42.7357561], [-73.6653955, 42.7357916], [-73.6655296, 42.7352676], [-73.6658944, 42.7353109], [-73.6660124, 42.7349366], [-73.6678515, 42.7352398], [-73.6689036, 42.7354133], [-73.6690216, 42.7349642], [-73.6692684, 42.7349957], [-73.6695688, 42.7339279], [-73.6701642, 42.7332147], [-73.6706883, 42.7326628], [-73.6707328, 42.732616], [-73.6708509, 42.7323993], [-73.6709728, 42.7322568], [-73.6709799, 42.7322485], [-73.6714783, 42.7322956], [-73.6714929, 42.7322854], [-73.6715344, 42.7322897], [-73.6715499, 42.7322897], [-73.6715664, 42.7322854], [-73.6715797, 42.7322749], [-73.6715888, 42.7322519], [-73.6716534, 42.7320275], [-73.6710366, 42.7319456], [-73.6711191, 42.7316151], [-73.6713819, 42.7315245], [-73.671779, 42.7315834], [-73.6717467, 42.7318752], [-73.6729537, 42.7320249], [-73.6729914, 42.7318786], [-73.6734415, 42.7319368]]], [[[-73.6774174, 42.7307228], [-73.6771594, 42.7307167], [-73.6760061, 42.7305605], [-73.6760166, 42.7306718], [-73.6759609, 42.7307396], [-73.675475, 42.7310162], [-73.6746381, 42.730496], [-73.6747991, 42.7304094], [-73.6749304, 42.7304823], [-73.6752118, 42.7306466], [-73.6756788, 42.7302222], [-73.6755012, 42.7301699], [-73.6752543, 42.7300545], [-73.6751666, 42.7299984], [-73.6749071, 42.7297954], [-73.6748519, 42.7297318], [-73.6746235, 42.7295232], [-73.6744874, 42.7294519], [-73.6741049, 42.729369], [-73.6734043, 42.7294242], [-73.6727177, 42.7291957], [-73.6735331, 42.7262244], [-73.6759685, 42.7266264], [-73.6762904, 42.7268234], [-73.6767195, 42.7270678], [-73.6774276, 42.7273278], [-73.6779748, 42.7274618], [-73.6781368, 42.7274997], [-73.6781593, 42.727322], [-73.6781868, 42.7270211], [-73.6781917, 42.7270063], [-73.6781978, 42.7269947], [-73.6782118, 42.7269816], [-73.6782259, 42.7269717], [-73.6782436, 42.7269623], [-73.6782638, 42.726956], [-73.6782907, 42.7269511], [-73.6783139, 42.7269511], [-73.6784942, 42.7269861], [-73.6787766, 42.727041], [-73.6791868, 42.7271207], [-73.6800784, 42.7272799], [-73.6847554, 42.7282027], [-73.6843427, 42.729734], [-73.6842007, 42.7302608], [-73.6860175, 42.7305091], [-73.6864672, 42.7305665], [-73.6861494, 42.7320092], [-73.6850022, 42.7318831], [-73.6837255, 42.7318043], [-73.6833915, 42.7330566], [-73.6826386, 42.7328836], [-73.6824583, 42.7328022], [-73.6819107, 42.7321912], [-73.6817138, 42.7322822], [-73.6812784, 42.7337285], [-73.6804413, 42.7335612], [-73.6797268, 42.7334137], [-73.6793637, 42.7333357], [-73.6789983, 42.7332825], [-73.6767123, 42.7329549], [-73.6767605, 42.7327813], [-73.6771508, 42.7328377], [-73.6771931, 42.7326957], [-73.6777258, 42.7327817], [-73.6778149, 42.7324565], [-73.6779029, 42.7321355], [-73.6774767, 42.7319284], [-73.6778067, 42.7307783], [-73.6774174, 42.7307228]]], [[[-73.6631209, 42.7325491], [-73.6619193, 42.7322654], [-73.6612566, 42.7330124], [-73.6609859, 42.7333175], [-73.6607143, 42.7340993], [-73.6610696, 42.7352235], [-73.6615541, 42.7354112], [-73.6622573, 42.7334632], [-73.6631182, 42.7332229], [-73.6632476, 42.7328918], [-73.6631209, 42.7325491]]], [[[-73.6701675, 42.7373844], [-73.6703238, 42.7368678], [-73.6686259, 42.7365908], [-73.668548, 42.7368484], [-73.6688014, 42.7368897], [-73.668723, 42.7371487], [-73.6701675, 42.7373844]]], [[[-73.6734924, 42.7365895], [-73.6739021, 42.7351302], [-73.6724295, 42.7349072], [-73.6718811, 42.7367573], [-73.6728733, 42.7368177], [-73.6731126, 42.7365319], [-73.6734924, 42.7365895]]]]}}