{"type": "Feature", "properties": {"market_key": 353, "university": "University of Louisville", "osm_type": "relation", "osm_id": 9309199, "osm_name": "University of Louisville"}, "geometry": {"type": "MultiPolygon", "coordinates": [[[[-85.7629188, 38.2194488], [-85.7622631, 38.2193709], [-85.7622497, 38.2194557], [-85.7621048, 38.2203286], [-85.7613087, 38.2202479], [-85.7610606, 38.2204261], [-85.7604437, 38.2203586], [-85.7597682, 38.2202902], [-85.7567861, 38.2199526], [-85.7565498, 38.2198964], [-85.7565387, 38.2199601], [-85.7565297, 38.2200121], [-85.7561155, 38.2198281], [-85.7559683, 38.2197099], [-85.7557809, 38.2195732], [-85.7555913, 38.2194454], [-85.7553191, 38.2192276], [-85.7546826, 38.222489], [-85.7538297, 38.2224054], [-85.7540335, 38.2211037], [-85.7518521, 38.2208731], [-85.7526302, 38.2193573], [-85.7529032, 38.2182622], [-85.7529028, 38.2182558], [-85.7528985, 38.218179], [-85.7528997, 38.2179569], [-85.7528712, 38.2176528], [-85.7528234, 38.2172961], [-85.7527425, 38.2166967], [-85.752695, 38.2161919], [-85.7527051, 38.2158733], [-85.7527594, 38.2154598], [-85.7527904, 38.2152871], [-85.7532813, 38.2153461], [-85.7534395, 38.2145464], [-85.7534704, 38.2143546], [-85.7530828, 38.2143146], [-85.7530452, 38.2142967], [-85.7530171, 38.2142661], [-85.7529996, 38.2142208], [-85.7530522, 38.2138152], [-85.7531587, 38.2131733], [-85.7532215, 38.2129701], [-85.7533073, 38.2127986], [-85.7534919, 38.2124495], [-85.7534189, 38.2114001], [-85.7532638, 38.2102047], [-85.7529809, 38.2091553], [-85.7524199, 38.2083296], [-85.7535623, 38.2087451], [-85.7536345, 38.2083849], [-85.7537183, 38.207967], [-85.7539934, 38.2079967], [-85.754203, 38.2080193], [-85.7561048, 38.2082245], [-85.756363, 38.208236], [-85.7565558, 38.2068076], [-85.7570035, 38.2043596], [-85.7570429, 38.2041444], [-85.7570438, 38.2041392], [-85.757209, 38.2032361], [-85.7572429, 38.2032432], [-85.7602504, 38.2038727], [-85.7603303, 38.2038939], [-85.7622287, 38.2043978], [-85.7638763, 38.2048373], [-85.7634363, 38.2053668], [-85.7631929, 38.2058583], [-85.7631591, 38.2059274], [-85.7628725, 38.2060783], [-85.7627316, 38.2063395], [-85.7625718, 38.2064341], [-85.7620914, 38.206397], [-85.7615954, 38.2061701], [-85.7605097, 38.2073668], [-85.7574655, 38.210424], [-85.7624313, 38.2123674], [-85.7622576, 38.2134714], [-85.7619428, 38.2154731], [-85.7617921, 38.2164309], [-85.7619853, 38.2164517], [-85.7625072, 38.2165848], [-85.7626658, 38.216251], [-85.76281, 38.2162827], [-85.7628197, 38.2162049], [-85.7628391, 38.2162071], [-85.7628649, 38.21621], [-85.7630328, 38.2162289], [-85.7639723, 38.2163209], [-85.7641007, 38.2167975], [-85.7642971, 38.2174739], [-85.7646346, 38.2185894], [-85.7659411, 38.2236746], [-85.7649759, 38.2235687], [-85.7650121, 38.2233325], [-85.7640062, 38.2232081], [-85.7639553, 38.2235029], [-85.7632611, 38.2234186], [-85.7635059, 38.2221114], [-85.7610774, 38.2218502], [-85.7613066, 38.2206695], [-85.7629698, 38.2208453], [-85.7632166, 38.2194853], [-85.7629854, 38.2194514], [-85.7629188, 38.2194488]]]]}}