{"type": "Feature", "properties": {"market_key": 364, "university": "University of Iowa", "osm_type": "relation", "osm_id": 1579426, "osm_name": "The University of Iowa"}, "geometry": {"type": "MultiPolygon", "coordinates": [[[[-91.5325302, 41.6758462], [-91.5323116, 41.6758261], [-91.5321208, 41.6758086], [-91.5320062, 41.6757906], [-91.5318396, 41.6758411], [-91.5317746, 41.6759], [-91.5315783, 41.6759463], [-91.5313622, 41.6764709], [-91.5312515, 41.676479], [-91.5311129, 41.676493], [-91.5308628, 41.676517], [-91.529975, 41.6767934], [-91.5302714, 41.6772407], [-91.5309697, 41.6770461], [-91.5312656, 41.6771694], [-91.5314948, 41.6771917], [-91.5314835, 41.6775808], [-91.5318446, 41.6775892], [-91.5319912, 41.6771706], [-91.5322372, 41.6768007], [-91.5322975, 41.6766251], [-91.5324799, 41.6760874], [-91.5324926, 41.6760501], [-91.5325302, 41.6758462]]], [[[-91.5363339, 41.6711996], [-91.5360776, 41.6711913], [-91.5351656, 41.6711189], [-91.5348336, 41.6710832], [-91.5345365, 41.6710625], [-91.5345945, 41.6709739], [-91.5346614, 41.6708717], [-91.5347526, 41.6707871], [-91.5349069, 41.6706383], [-91.5350557, 41.6704445], [-91.5353104, 41.6701593], [-91.535435, 41.6699922], [-91.5355844, 41.6698233], [-91.5356859, 41.6697112], [-91.5359467, 41.6694319], [-91.5360116, 41.669366], [-91.5361948, 41.669155], [-91.5363131, 41.6690098], [-91.5364364, 41.6688856], [-91.5365746, 41.6687144], [-91.5366766, 41.6685871], [-91.5368776, 41.6683737], [-91.5370828, 41.6681732], [-91.5372574, 41.668], [-91.53738, 41.6678861], [-91.5375586, 41.667742], [-91.5377438, 41.6675396], [-91.5378698, 41.6673752], [-91.5379952, 41.6672153], [-91.5381457, 41.6670837], [-91.5382836, 41.6669426], [-91.538362, 41.6668234], [-91.5385062, 41.6666384], [-91.5386034, 41.6665005], [-91.5388041, 41.6661807], [-91.5389201, 41.6659142], [-91.5390016, 41.6657543], [-91.53908, 41.6656132], [-91.5391646, 41.6654345], [-91.5392556, 41.6652589], [-91.539381, 41.6650771], [-91.5394945, 41.664934], [-91.5395253, 41.6648021], [-91.5395835, 41.6646928], [-91.539675, 41.6644978], [-91.5397531, 41.6643462], [-91.5398462, 41.664186], [-91.5399593, 41.6639624], [-91.5400441, 41.6637723], [-91.5401671, 41.6635897], [-91.5402337, 41.6634444], [-91.5403708, 41.6632062], [-91.5405059, 41.6629581], [-91.5406387, 41.6627459], [-91.5407372, 41.6626313], [-91.5411219, 41.6629901], [-91.5415195, 41.6633021], [-91.5411862, 41.6643401], [-91.5410338, 41.6646945], [-91.5405905, 41.6655993], [-91.5405531, 41.6657213], [-91.5404931, 41.6660017], [-91.54044, 41.6663408], [-91.5403747, 41.6667926], [-91.5403604, 41.6669822], [-91.5402387, 41.66779], [-91.5402283, 41.667989], [-91.5401582, 41.668479], [-91.5401363, 41.6686966], [-91.5401252, 41.6690277], [-91.5401431, 41.6692136], [-91.5401641, 41.6693789], [-91.5402023, 41.6695726], [-91.5402399, 41.6697757], [-91.5402634, 41.6700262], [-91.5402592, 41.6712585], [-91.5377664, 41.6712346], [-91.5368591, 41.6712665], [-91.5363339, 41.6711996]]], [[[-91.5404847, 41.6705058], [-91.5416115, 41.6704996], [-91.5421889, 41.6704923], [-91.5444274, 41.6704971], [-91.5444171, 41.671324], [-91.5405878, 41.6713034], [-91.5404835, 41.6712491], [-91.5404847, 41.6705058]]], [[[-91.5410792, 41.6697764], [-91.5410929, 41.6703819], [-91.5404848, 41.6703883], [-91.5404853, 41.6701012], [-91.5404624, 41.6697698], [-91.5410792, 41.6697764]]], [[[-91.5416051, 41.6703931], [-91.5411861, 41.6703912], [-91.5411532, 41.6697173], [-91.5412713, 41.6695849], [-91.5418403, 41.6697255], [-91.5418238, 41.6699673], [-91.5415921, 41.6699583], [-91.5416051, 41.6703931]]], [[[-91.5421894, 41.6703959], [-91.542184, 41.6700176], [-91.542413, 41.6700157], [-91.5424185, 41.670394], [-91.5421894, 41.6703959]]], [[[-91.5446182, 41.671325], [-91.5446097, 41.6704752], [-91.5451446, 41.6704811], [-91.5451307, 41.6713278], [-91.5446182, 41.671325]]], [[[-91.5415662, 41.6631366], [-91.5412672, 41.6629149], [-91.5408487, 41.6625217], [-91.5411014, 41.6622668], [-91.5411411, 41.6622668], [-91.5412386, 41.6621685], [-91.5414531, 41.6619209], [-91.5416145, 41.6617432], [-91.5417836, 41.6614921], [-91.5420002, 41.6614972], [-91.5419015, 41.661809], [-91.5418568, 41.6621263], [-91.5418121, 41.6623879], [-91.5415662, 41.6631366]]], [[[-91.5411323, 41.6661488], [-91.540777, 41.6658245], [-91.5407818, 41.6657606], [-91.5410656, 41.6651502], [-91.541256, 41.6647804], [-91.5413548, 41.6645731], [-91.5414591, 41.6642976], [-91.5417068, 41.6634306], [-91.5420607, 41.6635934], [-91.5424109, 41.6637813], [-91.5428803, 41.6639817], [-91.5433088, 41.6641292], [-91.5437968, 41.6642586], [-91.5442979, 41.6643922], [-91.5446125, 41.6644904], [-91.5445258, 41.6646669], [-91.5438545, 41.6646828], [-91.5434927, 41.6648145], [-91.5433133, 41.6648916], [-91.5430459, 41.6650545], [-91.5420726, 41.6657307], [-91.5424693, 41.6660829], [-91.5417659, 41.6666223], [-91.5411323, 41.6661488]]], [[[-91.5416022, 41.6667289], [-91.5415217, 41.6671359], [-91.5411425, 41.6670936], [-91.5411344, 41.6663455], [-91.5416022, 41.6667289]]], [[[-91.5414811, 41.6577713], [-91.5414825, 41.6577566], [-91.5415003, 41.6576585], [-91.5414385, 41.6574478], [-91.5413905, 41.6574514], [-91.5413491, 41.6572916], [-91.5413203, 41.657287], [-91.5411969, 41.6569969], [-91.541157, 41.6568516], [-91.541055, 41.656724], [-91.5410139, 41.6565964], [-91.5408933, 41.6563258], [-91.5407811, 41.6560048], [-91.5406718, 41.6557102], [-91.5405768, 41.6554759], [-91.5404563, 41.6552447], [-91.5404033, 41.6551264], [-91.5403669, 41.6550452], [-91.5403064, 41.6548337], [-91.540248, 41.6545109], [-91.5399944, 41.6538866], [-91.5399411, 41.6537989], [-91.5398758, 41.6537404], [-91.5403568, 41.6537042], [-91.540374, 41.653746], [-91.5404651, 41.6541563], [-91.5406599, 41.6548841], [-91.5407926, 41.6552501], [-91.5410679, 41.6560506], [-91.5413403, 41.6567383], [-91.5415182, 41.6572826], [-91.5416116, 41.65777], [-91.5414811, 41.6577713]]], [[[-91.5406775, 41.6537404], [-91.5406967, 41.6537341], [-91.5407192, 41.6537331], [-91.5407836, 41.6537321], [-91.5410136, 41.6537346], [-91.541257, 41.6537251], [-91.5417244, 41.6537121], [-91.5434039, 41.6537325], [-91.5433692, 41.6550695], [-91.5445151, 41.6550779], [-91.5445075, 41.6549492], [-91.5448594, 41.6549516], [-91.5448503, 41.6560534], [-91.545438, 41.656055], [-91.5461375, 41.6560542], [-91.5461364, 41.6562811], [-91.5453992, 41.6562848], [-91.5454313, 41.6566016], [-91.5454325, 41.6567249], [-91.545428, 41.6567449], [-91.5454209, 41.6567572], [-91.5454072, 41.6567665], [-91.5453944, 41.6567741], [-91.5453837, 41.6567769], [-91.5453688, 41.6567778], [-91.5438846, 41.6567601], [-91.5436491, 41.6567671], [-91.5434966, 41.6568737], [-91.5434402, 41.657035], [-91.5434797, 41.6572576], [-91.5436195, 41.6577153], [-91.5436491, 41.6579126], [-91.5436308, 41.6580898], [-91.5435814, 41.658172], [-91.5434952, 41.6582121], [-91.5421061, 41.6578873], [-91.5410297, 41.6553032], [-91.5415633, 41.6552927], [-91.5415648, 41.6551257], [-91.5420454, 41.6551883], [-91.542064, 41.6551382], [-91.5414978, 41.6550421], [-91.5409408, 41.6550491], [-91.5406277, 41.6538305], [-91.5406196, 41.653776], [-91.540636, 41.6537612], [-91.5406595, 41.6537462], [-91.5406775, 41.6537404]]], [[[-91.54742, 41.6567974], [-91.547421, 41.6563305], [-91.5471629, 41.656336], [-91.5471064, 41.6555162], [-91.5466826, 41.655537], [-91.5466705, 41.6554364], [-91.5471058, 41.6554135], [-91.5470902, 41.655139], [-91.5475309, 41.655132], [-91.5475327, 41.6551557], [-91.5476153, 41.656218], [-91.5476441, 41.6568], [-91.54742, 41.6567974]]], [[[-91.5348325, 41.6577556], [-91.5348379, 41.6569238], [-91.535484, 41.6569265], [-91.5354916, 41.6571978], [-91.5356679, 41.6573459], [-91.5356995, 41.6575595], [-91.5357058, 41.6577688], [-91.5348325, 41.6577556]]], [[[-91.5364285, 41.6533915], [-91.5364137, 41.6543248], [-91.537953, 41.6543353], [-91.5379567, 41.655459], [-91.5392004, 41.655459], [-91.5390564, 41.6548103], [-91.5383982, 41.6530648], [-91.5367876, 41.6533872], [-91.5364285, 41.6533915]]], [[[-91.5404571, 41.6578275], [-91.5399191, 41.6578428], [-91.5393435, 41.6577629], [-91.5393499, 41.6574208], [-91.5394933, 41.6568709], [-91.5394911, 41.6555951], [-91.5394676, 41.6552945], [-91.5393435, 41.6549252], [-91.5393883, 41.6549025], [-91.5395174, 41.6551495], [-91.5395838, 41.6553205], [-91.5396806, 41.6554253], [-91.5397311, 41.6556718], [-91.5398345, 41.6559593], [-91.5399464, 41.6562262], [-91.5400428, 41.6563337], [-91.5401549, 41.6564457], [-91.5402218, 41.6565846], [-91.5403497, 41.6568772], [-91.5403798, 41.6570949], [-91.5403851, 41.6572427], [-91.5403795, 41.6574946], [-91.5403805, 41.6576601], [-91.54045, 41.6576614], [-91.5404533, 41.6577444], [-91.5404571, 41.6578275]]], [[[-91.5407745, 41.6611548], [-91.5394374, 41.661139], [-91.5393457, 41.660869], [-91.5393118, 41.6606971], [-91.5392963, 41.6604197], [-91.539316, 41.6581279], [-91.5396012, 41.6581379], [-91.5398302, 41.6581778], [-91.5404661, 41.6582083], [-91.5404676, 41.6582716], [-91.5404822, 41.6584607], [-91.5404857, 41.6587099], [-91.5404856, 41.6589673], [-91.5404962, 41.6591404], [-91.5405198, 41.6593128], [-91.5405629, 41.6594892], [-91.5405825, 41.6598144], [-91.5406334, 41.660128], [-91.5406765, 41.6602965], [-91.5407588, 41.6604729], [-91.5407941, 41.6606375], [-91.5407588, 41.6609118], [-91.5407627, 41.6610294], [-91.5407745, 41.6611548]]], [[[-91.5406333, 41.6614347], [-91.5404721, 41.6615554], [-91.5402964, 41.6616995], [-91.5401906, 41.661821], [-91.5400904, 41.6619443], [-91.5399168, 41.6618124], [-91.539773, 41.6616609], [-91.5395998, 41.6614139], [-91.5406638, 41.6613742], [-91.5406333, 41.6614347]]], [[[-91.5378608, 41.6626192], [-91.5393495, 41.6626293], [-91.5393849, 41.6623888], [-91.5378928, 41.6623559], [-91.5378928, 41.6614323], [-91.5394523, 41.6614185], [-91.5395948, 41.6616278], [-91.539789, 41.6618381], [-91.5400146, 41.6620376], [-91.5399868, 41.6620718], [-91.539876, 41.6622531], [-91.53983, 41.6623775], [-91.5397317, 41.66258], [-91.5396378, 41.6627836], [-91.5395414, 41.6630106], [-91.5394827, 41.663163], [-91.5394927, 41.6631652], [-91.5394597, 41.6632362], [-91.5394554, 41.663234], [-91.5394535, 41.6632388], [-91.5393653, 41.6633464], [-91.5392942, 41.6634754], [-91.5392079, 41.6636038], [-91.5391348, 41.663771], [-91.5390548, 41.6639673], [-91.5389447, 41.6641568], [-91.5388513, 41.6642902], [-91.5387063, 41.6644905], [-91.5386275, 41.6646484], [-91.5385087, 41.6648038], [-91.5384874, 41.6648952], [-91.538384, 41.6650269], [-91.5382805, 41.665215], [-91.5381607, 41.665353], [-91.5380077, 41.6655996], [-91.5378709, 41.6657901], [-91.5378259, 41.6659205], [-91.5376911, 41.6660584], [-91.5375782, 41.6661587], [-91.5374841, 41.6662904], [-91.537343, 41.6665193], [-91.5372302, 41.6666698], [-91.5371173, 41.6667952], [-91.536948, 41.666999], [-91.5368069, 41.6671683], [-91.5366031, 41.667347], [-91.5364432, 41.6675132], [-91.5362833, 41.6676825], [-91.5361987, 41.6677954], [-91.5359866, 41.6679556], [-91.535784, 41.6680845], [-91.5354838, 41.6683001], [-91.5353647, 41.6684287], [-91.5351828, 41.668529], [-91.5350668, 41.6686482], [-91.5349007, 41.668783], [-91.5347345, 41.6689147], [-91.5346467, 41.6690401], [-91.5345726, 41.6691271], [-91.5336575, 41.6691094], [-91.5336745, 41.6685017], [-91.533351, 41.6684924], [-91.5331562, 41.6684868], [-91.5331708, 41.66818], [-91.5332259, 41.6681231], [-91.5333203, 41.6680977], [-91.5345303, 41.6681077], [-91.5346438, 41.6680641], [-91.5347006, 41.6679975], [-91.5347314, 41.6671265], [-91.5346762, 41.6669969], [-91.534667, 41.6664893], [-91.5346914, 41.665486], [-91.5347457, 41.6641386], [-91.5353616, 41.6641479], [-91.5353733, 41.6637162], [-91.5374852, 41.6637152], [-91.5374606, 41.6645544], [-91.5375002, 41.6657972], [-91.5377035, 41.6657429], [-91.5378422, 41.6635374], [-91.5378608, 41.6626192]]], [[[-91.5353829, 41.6635159], [-91.5347633, 41.6635061], [-91.5347747, 41.6626078], [-91.5375057, 41.6626162], [-91.5374995, 41.663516], [-91.5353829, 41.6635159]]], [[[-91.5360859, 41.6580156], [-91.5360626, 41.6600343], [-91.535434, 41.6600266], [-91.5354125, 41.6599856], [-91.534832, 41.6599707], [-91.53483, 41.6579999], [-91.5360859, 41.6580156]]], [[[-91.5368205, 41.655444], [-91.5368219, 41.654541], [-91.5376029, 41.6545482], [-91.5375658, 41.6565366], [-91.5363737, 41.6565289], [-91.5363969, 41.6554348], [-91.5368205, 41.655444]]], [[[-91.5370126, 41.6573188], [-91.537027, 41.6567333], [-91.5375802, 41.6567361], [-91.5375653, 41.6573248], [-91.5370126, 41.6573188]]], [[[-91.5339444, 41.6647845], [-91.5343982, 41.6647852], [-91.5343949, 41.6650116], [-91.5340803, 41.6650053], [-91.5340823, 41.6652349], [-91.5343896, 41.6652323], [-91.5343723, 41.6654765], [-91.5339992, 41.6654699], [-91.5339999, 41.6652761], [-91.5339477, 41.6652256], [-91.5339444, 41.6647845]]], [[[-91.5343722, 41.6668347], [-91.5339357, 41.666822], [-91.533941, 41.666589], [-91.5337647, 41.6665901], [-91.5337704, 41.6664816], [-91.5343747, 41.6664868], [-91.5343722, 41.6668347]]], [[[-91.5340187, 41.6523344], [-91.5345467, 41.6523391], [-91.5345193, 41.6532504], [-91.5339568, 41.6532499], [-91.5339601, 41.6528297], [-91.5332571, 41.6528266], [-91.5332103, 41.6525393], [-91.5340216, 41.6525458], [-91.5340187, 41.6523344]]], [[[-91.5283671, 41.6471541], [-91.5290847, 41.6471562], [-91.5290868, 41.6467179], [-91.5283693, 41.646716], [-91.5283671, 41.6471541]]], [[[-91.5335541, 41.6599786], [-91.5335558, 41.6597238], [-91.533178, 41.6597195], [-91.5331759, 41.6599599], [-91.5335541, 41.6599786]]], [[[-91.5436438, 41.657196], [-91.5436929, 41.6574016], [-91.5437839, 41.6575981], [-91.5438281, 41.6578167], [-91.5438035, 41.6582023], [-91.54386, 41.6582666], [-91.5441737, 41.6582968], [-91.5441942, 41.657704], [-91.544303, 41.6577075], [-91.5442869, 41.6583077], [-91.5453299, 41.658408], [-91.5454331, 41.6583933], [-91.54563, 41.6582692], [-91.5457381, 41.6581789], [-91.545813, 41.6580062], [-91.5458183, 41.6575394], [-91.5458847, 41.6574107], [-91.5458718, 41.6569239], [-91.5438048, 41.6569096], [-91.543715, 41.6569415], [-91.5436497, 41.6570015], [-91.5436283, 41.657063], [-91.5436438, 41.657196]]], [[[-91.533691, 41.6679088], [-91.5343153, 41.6679257], [-91.5343451, 41.6679118], [-91.5343542, 41.6676864], [-91.5336977, 41.6676704], [-91.533691, 41.6679088]]], [[[-91.5340978, 41.6646302], [-91.5343263, 41.6646347], [-91.5344001, 41.66461], [-91.5343915, 41.6643357], [-91.534099, 41.6643372], [-91.5340978, 41.6646302]]], [[[-91.5344087, 41.6630858], [-91.5340231, 41.6630776], [-91.5340161, 41.6634912], [-91.5344051, 41.663496], [-91.5344087, 41.6630858]]], [[[-91.5344164, 41.6614524], [-91.5332691, 41.6614475], [-91.5332407, 41.6623379], [-91.5339401, 41.6623463], [-91.5339459, 41.6621009], [-91.5344226, 41.6621056], [-91.5344164, 41.6614524]]], [[[-91.5329586, 41.6614257], [-91.5303077, 41.661404], [-91.530304, 41.6622973], [-91.5308118, 41.662313], [-91.5309291, 41.6623117], [-91.5311903, 41.6623971], [-91.5316408, 41.6624071], [-91.5329438, 41.6623313], [-91.5329586, 41.6614257]]], [[[-91.5297211, 41.6618297], [-91.5300285, 41.6618318], [-91.5300285, 41.6613927], [-91.5297202, 41.6613899], [-91.5297211, 41.6618297]]], [[[-91.5379378, 41.657739], [-91.5379353, 41.65564], [-91.5392527, 41.6556501], [-91.5392348, 41.6577556], [-91.5379378, 41.657739]]], [[[-91.5393491, 41.6611442], [-91.5392904, 41.6609515], [-91.5392252, 41.6607594], [-91.5391945, 41.6605423], [-91.5392255, 41.6580137], [-91.537953, 41.6579833], [-91.5379029, 41.6579855], [-91.5378407, 41.6579923], [-91.537824, 41.6580037], [-91.5377982, 41.6580309], [-91.5378589, 41.6599609], [-91.5378638, 41.6611453], [-91.5393491, 41.6611442]]], [[[-91.5375592, 41.6580251], [-91.5364811, 41.6580159], [-91.5363943, 41.6580686], [-91.5363534, 41.6600367], [-91.5374935, 41.6600441], [-91.5375113, 41.6600096], [-91.5375592, 41.6580251]]], [[[-91.5347113, 41.6602518], [-91.5346997, 41.6602732], [-91.5346929, 41.6602889], [-91.5346909, 41.6603092], [-91.5346925, 41.6603142], [-91.5347209, 41.6603381], [-91.5347078, 41.6612656], [-91.5346956, 41.6623671], [-91.5346962, 41.6623785], [-91.5347022, 41.6623903], [-91.5347139, 41.6624016], [-91.5347265, 41.6624079], [-91.5347441, 41.6624121], [-91.5347661, 41.6624152], [-91.5359803, 41.6624262], [-91.5359971, 41.6624385], [-91.5360135, 41.662447], [-91.5360251, 41.6624503], [-91.5360802, 41.6624506], [-91.5361676, 41.6624511], [-91.5362247, 41.6624514], [-91.5362393, 41.662448], [-91.5362799, 41.6624262], [-91.5371848, 41.6624295], [-91.5372196, 41.6624539], [-91.5372351, 41.6624574], [-91.5373313, 41.6624586], [-91.5373633, 41.6624576], [-91.5374077, 41.6624527], [-91.5374418, 41.6624471], [-91.5374729, 41.6624369], [-91.5375123, 41.6624216], [-91.5375418, 41.6624063], [-91.5375628, 41.6623901], [-91.5375751, 41.6623775], [-91.5375796, 41.6623729], [-91.5375909, 41.6623509], [-91.5375951, 41.6623294], [-91.5376039, 41.6614358], [-91.5376068, 41.6611174], [-91.5376141, 41.660314], [-91.5376143, 41.6602846], [-91.5376103, 41.6602579], [-91.5375986, 41.6602358], [-91.5375718, 41.6602157], [-91.5375538, 41.6602045], [-91.537528, 41.6601949], [-91.5375018, 41.6601877], [-91.5374764, 41.6601838], [-91.537451, 41.6601831], [-91.5367772, 41.66018], [-91.5366559, 41.6601793], [-91.536324, 41.6601766], [-91.5359935, 41.6601731], [-91.535982, 41.660175], [-91.53597, 41.6601814], [-91.5359492, 41.6601959], [-91.5359375, 41.6601984], [-91.5356653, 41.6601953], [-91.5352344, 41.6601905], [-91.5348798, 41.6601865], [-91.5348514, 41.660187], [-91.5348222, 41.66019], [-91.5347895, 41.6601977], [-91.5347625, 41.6602078], [-91.5347428, 41.6602195], [-91.5347231, 41.6602349], [-91.5347113, 41.6602518]]], [[[-91.5519578, 41.6570025], [-91.5519425, 41.6570284], [-91.5519382, 41.6570555], [-91.5519596, 41.6571299], [-91.5520292, 41.6571778], [-91.5521201, 41.6571954], [-91.5522731, 41.657201], [-91.5523726, 41.6572346], [-91.5538308, 41.6583105], [-91.5538501, 41.6583896], [-91.5538372, 41.6584903], [-91.5537891, 41.6585878], [-91.5535815, 41.6587893], [-91.5533697, 41.65893], [-91.5531258, 41.6590618], [-91.5527781, 41.6593456], [-91.5530908, 41.6600591], [-91.5534225, 41.6608744], [-91.5534396, 41.6610519], [-91.5533947, 41.6612213], [-91.5532748, 41.6615186], [-91.5533091, 41.661573], [-91.5536322, 41.6616961], [-91.5539446, 41.6618927], [-91.5542655, 41.661995], [-91.5550508, 41.6621549], [-91.5559752, 41.6623962], [-91.5585193, 41.66309], [-91.5589387, 41.6622508], [-91.5590713, 41.6620957], [-91.5592755, 41.6619703], [-91.5574401, 41.6606397], [-91.5572157, 41.6606432], [-91.5540208, 41.6583496], [-91.5521428, 41.6569999], [-91.5519578, 41.6570025]]], [[[-91.5525788, 41.6592011], [-91.5527929, 41.6591078], [-91.5533757, 41.6587614], [-91.5535116, 41.6586623], [-91.5536421, 41.6585328], [-91.553671, 41.6584721], [-91.5536763, 41.658389], [-91.5536496, 41.6583362], [-91.5535661, 41.6582667], [-91.5523165, 41.6573594], [-91.5522299, 41.6573363], [-91.5519549, 41.6573227], [-91.5518362, 41.6572771], [-91.551757, 41.6572164], [-91.5516575, 41.6570477], [-91.5515535, 41.6570082], [-91.5504261, 41.6570241], [-91.5500696, 41.6570259], [-91.5500465, 41.65933], [-91.5506751, 41.6595589], [-91.551478, 41.6595617], [-91.5523227, 41.6592868], [-91.5525788, 41.6592011]]], [[[-91.559438, 41.6620888], [-91.5596426, 41.6622379], [-91.5614693, 41.66354], [-91.5626417, 41.6642653], [-91.5642394, 41.6651228], [-91.5683539, 41.6672361], [-91.5680982, 41.6674546], [-91.5662508, 41.6684063], [-91.5659602, 41.6685524], [-91.5657889, 41.6686665], [-91.5657404, 41.6687444], [-91.5656343, 41.6687708], [-91.5630776, 41.6677334], [-91.5589981, 41.6660247], [-91.5587769, 41.6659538], [-91.5587523, 41.6659005], [-91.5587449, 41.665817], [-91.5587793, 41.6657353], [-91.5592377, 41.6654268], [-91.5594835, 41.6651945], [-91.5596482, 41.6648539], [-91.5597109, 41.664573], [-91.5597158, 41.6643113], [-91.5596752, 41.6640561], [-91.5595671, 41.6638046], [-91.5593483, 41.66353], [-91.5591099, 41.6633501], [-91.5587253, 41.6631472], [-91.5591235, 41.6623209], [-91.5592144, 41.6622456], [-91.559438, 41.6620888]]], [[[-91.5547187, 41.6622514], [-91.55456, 41.6622232], [-91.5545157, 41.6622185], [-91.5544756, 41.662229], [-91.5544431, 41.6622426], [-91.5544123, 41.6622857], [-91.5542865, 41.6627365], [-91.5542618, 41.6628238], [-91.5541986, 41.6629539], [-91.5540979, 41.66312], [-91.553613, 41.6639491], [-91.5535813, 41.6640403], [-91.5538073, 41.6641872], [-91.5538773, 41.6642498], [-91.5540422, 41.6643467], [-91.554226, 41.6644599], [-91.554414, 41.6646039], [-91.5545694, 41.664721], [-91.5546484, 41.6647781], [-91.5548459, 41.664938], [-91.5549383, 41.6650029], [-91.5551074, 41.6651013], [-91.5552403, 41.6651567], [-91.5556186, 41.6652939], [-91.5558325, 41.6653216], [-91.5562533, 41.6653737], [-91.5568695, 41.6654925], [-91.5571484, 41.665543], [-91.5576281, 41.6656804], [-91.5579501, 41.6657675], [-91.5588605, 41.6652395], [-91.5590595, 41.6651055], [-91.5592513, 41.6648126], [-91.559352, 41.6645078], [-91.559357, 41.6642581], [-91.5592549, 41.6639909], [-91.5590903, 41.6637577], [-91.5587535, 41.6634805], [-91.5583996, 41.6633574], [-91.5572436, 41.6629413], [-91.5556862, 41.6625038], [-91.5556379, 41.6624912], [-91.5547187, 41.6622514]]], [[[-91.5497596, 41.6570276], [-91.5461398, 41.6569907], [-91.5461603, 41.6578369], [-91.5462077, 41.6578623], [-91.5496526, 41.6578903], [-91.5497307, 41.6578639], [-91.5497671, 41.6578248], [-91.5497596, 41.6570276]]], [[[-91.5461178, 41.6579928], [-91.5460727, 41.6581584], [-91.5459461, 41.6583254], [-91.5459069, 41.6584186], [-91.5459144, 41.658594], [-91.545892, 41.65869], [-91.5457561, 41.6587484], [-91.546027, 41.6591847], [-91.5460116, 41.6607854], [-91.5451281, 41.6607961], [-91.5451298, 41.660591], [-91.5456301, 41.660605], [-91.5457529, 41.6605507], [-91.5458182, 41.6604722], [-91.5458057, 41.6592441], [-91.5455251, 41.6588013], [-91.5454897, 41.6587568], [-91.5453854, 41.6586914], [-91.5431654, 41.6584707], [-91.5429838, 41.6584235], [-91.5421357, 41.658398], [-91.5421681, 41.6588742], [-91.5421486, 41.6593224], [-91.5421892, 41.6597792], [-91.542314, 41.6606684], [-91.5423821, 41.6610815], [-91.5433208, 41.6611941], [-91.5435803, 41.6614], [-91.5437359, 41.6615369], [-91.5438154, 41.661698], [-91.5438154, 41.6618628], [-91.5438121, 41.6620566], [-91.5437084, 41.6628223], [-91.5437084, 41.6629664], [-91.5437684, 41.663067], [-91.5438608, 41.6631566], [-91.5442646, 41.6632196], [-91.5456737, 41.6632426], [-91.5464959, 41.6631772], [-91.5470453, 41.6630576], [-91.5471604, 41.6630299], [-91.5487176, 41.6624826], [-91.5489866, 41.6624085], [-91.5490733, 41.6624099], [-91.5492573, 41.662431], [-91.5494449, 41.6624997], [-91.5495723, 41.6626108], [-91.5497157, 41.6627218], [-91.5498625, 41.6628527], [-91.5500572, 41.6630801], [-91.5502549, 41.6632241], [-91.5504306, 41.6633042], [-91.5506444, 41.6633628], [-91.5513619, 41.6634824], [-91.5516741, 41.6635357], [-91.5519467, 41.663517], [-91.553362, 41.6638083], [-91.5539636, 41.6630266], [-91.5540917, 41.6627564], [-91.554202, 41.6622573], [-91.5538582, 41.6621701], [-91.5536847, 41.6620695], [-91.5534739, 41.6618878], [-91.5533474, 41.66182], [-91.5528009, 41.6617037], [-91.5526387, 41.6617025], [-91.5518117, 41.6618757], [-91.5516739, 41.6618842], [-91.5514258, 41.6618696], [-91.5510885, 41.661763], [-91.550996, 41.6617085], [-91.550795, 41.6615607], [-91.5506782, 41.661442], [-91.5506312, 41.6613233], [-91.5504723, 41.6608835], [-91.5499079, 41.6599204], [-91.5498431, 41.6597713], [-91.5497717, 41.6595763], [-91.549775, 41.6593097], [-91.5497492, 41.658107], [-91.5496515, 41.6580836], [-91.5471901, 41.6580527], [-91.5470457, 41.6579935], [-91.5461178, 41.6579928]]], [[[-91.547081, 41.6632973], [-91.5468272, 41.6633573], [-91.5462226, 41.6634574], [-91.5457986, 41.6634619], [-91.5439355, 41.6633968], [-91.5437352, 41.6633224], [-91.5435508, 41.6631874], [-91.5434673, 41.6630736], [-91.5434156, 41.6629432], [-91.5434955, 41.6624107], [-91.5435496, 41.6622069], [-91.5435902, 41.6618497], [-91.5435643, 41.6617221], [-91.5435054, 41.6616358], [-91.5433247, 41.6614917], [-91.5431072, 41.6613999], [-91.5428602, 41.6613448], [-91.5425062, 41.661342], [-91.5424284, 41.6613702], [-91.5423986, 41.6615608], [-91.5422309, 41.6621049], [-91.5422011, 41.6623749], [-91.5422868, 41.6626504], [-91.5423397, 41.6632204], [-91.5424004, 41.6632151], [-91.5424314, 41.66331], [-91.542567, 41.6634629], [-91.5427745, 41.6636127], [-91.5434295, 41.66387], [-91.5439208, 41.6640135], [-91.5450623, 41.6641599], [-91.5452122, 41.6640613], [-91.547081, 41.6632973]]], [[[-91.5531116, 41.6614896], [-91.5530166, 41.661523], [-91.5526571, 41.6614799], [-91.5524466, 41.6614924], [-91.5517928, 41.6616316], [-91.5515655, 41.6616302], [-91.5513103, 41.6615676], [-91.5510998, 41.6614576], [-91.5509676, 41.661331], [-91.5506267, 41.660592], [-91.5501536, 41.6598252], [-91.5501331, 41.6597167], [-91.5502076, 41.6596081], [-91.5503659, 41.6596401], [-91.5511036, 41.6597835], [-91.5513553, 41.6596814], [-91.5515576, 41.6596417], [-91.5516544, 41.6596142], [-91.5518559, 41.6595536], [-91.5520814, 41.659485], [-91.5523787, 41.6594097], [-91.5524608, 41.6593863], [-91.5524989, 41.6593856], [-91.5525102, 41.6593854], [-91.5525528, 41.6593934], [-91.5525962, 41.6594117], [-91.5526338, 41.6594414], [-91.5526668, 41.6594807], [-91.5526794, 41.659501], [-91.5526861, 41.6595118], [-91.5526949, 41.659526], [-91.5528262, 41.65975], [-91.5530574, 41.6603214], [-91.5532904, 41.6608829], [-91.5532902, 41.6610514], [-91.5532213, 41.661233], [-91.5531116, 41.6614896]]], [[[-91.5830811, 41.6571894], [-91.5831038, 41.6575164], [-91.5830195, 41.6577139], [-91.582846, 41.6579429], [-91.5822671, 41.6584118], [-91.5820887, 41.6586432], [-91.5819654, 41.6589509], [-91.5819346, 41.6592513], [-91.5819752, 41.6594585], [-91.5821373, 41.6598147], [-91.5822492, 41.6601224], [-91.5822525, 41.660567], [-91.5822168, 41.6608202], [-91.5819719, 41.6614684], [-91.5817011, 41.6614526], [-91.5801998, 41.6614335], [-91.58025, 41.6606591], [-91.5800505, 41.6606535], [-91.5800539, 41.6614317], [-91.5795103, 41.6614248], [-91.5793676, 41.6614066], [-91.5791568, 41.661317], [-91.578993, 41.6611849], [-91.5784368, 41.6601987], [-91.5783168, 41.6600776], [-91.5781255, 41.6599613], [-91.5779552, 41.659908], [-91.5776358, 41.6598777], [-91.5751434, 41.6598389], [-91.5742949, 41.6597943], [-91.57409, 41.6597423], [-91.5741212, 41.658281], [-91.5741679, 41.6579431], [-91.5741646, 41.65715], [-91.5742423, 41.6570994], [-91.575612, 41.6571433], [-91.5777898, 41.6571762], [-91.5790639, 41.6571751], [-91.5830811, 41.6571894]]], [[[-91.5740843, 41.660009], [-91.5776654, 41.660049], [-91.5779186, 41.6600784], [-91.5780833, 41.6601592], [-91.5782529, 41.6603079], [-91.5788403, 41.6612995], [-91.5790074, 41.6614519], [-91.579381, 41.6615749], [-91.5818881, 41.6616337], [-91.5818389, 41.6619403], [-91.5818856, 41.66246], [-91.5819422, 41.6627042], [-91.5822912, 41.6634497], [-91.5823575, 41.6636315], [-91.5822986, 41.6638225], [-91.582215, 41.6640006], [-91.5820503, 41.664175], [-91.5818365, 41.664287], [-91.5814506, 41.6643715], [-91.5753304, 41.6643495], [-91.5747823, 41.6643256], [-91.5743473, 41.6642228], [-91.5736074, 41.6638812], [-91.5736886, 41.663777], [-91.5738705, 41.6634758], [-91.5739737, 41.6632335], [-91.5740253, 41.6630315], [-91.5740597, 41.6627726], [-91.5740843, 41.660009]]], [[[-91.5379764, 41.6528951], [-91.5379834, 41.6526061], [-91.5370221, 41.6525934], [-91.5370178, 41.6527864], [-91.5367593, 41.6527827], [-91.5364249, 41.652778], [-91.5364207, 41.653124], [-91.5367563, 41.6530921], [-91.5370206, 41.653067], [-91.5379764, 41.6528951]]], [[[-91.5500236, 41.6554757], [-91.5500277, 41.65572], [-91.5496624, 41.6557274], [-91.5495984, 41.6557276], [-91.5495564, 41.6557287], [-91.5495782, 41.656185], [-91.5495486, 41.6561847], [-91.5490936, 41.6561849], [-91.5491245, 41.6568151], [-91.5488876, 41.6568149], [-91.5488687, 41.6562325], [-91.548817, 41.6551641], [-91.5496944, 41.6551733], [-91.5497592, 41.6551933], [-91.5499815, 41.6553391], [-91.5500226, 41.6554141], [-91.5500236, 41.6554757]]], [[[-91.5500889, 41.6568203], [-91.5497111, 41.6568217], [-91.5496983, 41.656545], [-91.5496885, 41.6563358], [-91.5496831, 41.6562199], [-91.5500686, 41.6562233], [-91.5500726, 41.6563418], [-91.5500795, 41.6565453], [-91.5500889, 41.6568203]]], [[[-91.5596643, 41.6572244], [-91.5596667, 41.6569105], [-91.5615732, 41.6568842], [-91.5609425, 41.6554774], [-91.5609367, 41.6554644], [-91.5611031, 41.6554394], [-91.5612739, 41.6554199], [-91.5612777, 41.6554329], [-91.5613925, 41.6558345], [-91.5616682, 41.6562492], [-91.5619287, 41.6562488], [-91.5621239, 41.6562485], [-91.5624576, 41.6561587], [-91.5624766, 41.6554942], [-91.5624774, 41.6554685], [-91.5626286, 41.6554922], [-91.5630266, 41.6555548], [-91.5631903, 41.655586], [-91.5633092, 41.6556086], [-91.5635767, 41.6556658], [-91.5636992, 41.6556941], [-91.5638613, 41.6557339], [-91.56433, 41.6558145], [-91.5643736, 41.6558234], [-91.5651083, 41.6559756], [-91.5691635, 41.6563574], [-91.5691564, 41.6569337], [-91.5721186, 41.6569273], [-91.5723877, 41.6569239], [-91.5728236, 41.6569819], [-91.5731282, 41.6570521], [-91.5736529, 41.6571119], [-91.5737077, 41.6571295], [-91.5737276, 41.6571636], [-91.5737172, 41.6580519], [-91.5736096, 41.662762], [-91.5735728, 41.6629548], [-91.5734917, 41.6632467], [-91.5733491, 41.6635112], [-91.5731672, 41.6637113], [-91.5729829, 41.6638949], [-91.5726511, 41.6641336], [-91.5723586, 41.6642768], [-91.570702, 41.6647451], [-91.57038, 41.6648938], [-91.5700949, 41.6650572], [-91.5698196, 41.6652775], [-91.5696451, 41.6654869], [-91.5694779, 41.6657182], [-91.5687553, 41.6668254], [-91.5685269, 41.6671053], [-91.5652283, 41.6654135], [-91.5635969, 41.6645534], [-91.5629807, 41.6642166], [-91.5623256, 41.6638265], [-91.5616542, 41.6634001], [-91.5597024, 41.6620434], [-91.5576336, 41.660516], [-91.5596389, 41.6605116], [-91.5596643, 41.6572244]]], [[[-91.5821976, 41.6740877], [-91.586597, 41.6765922], [-91.5881334, 41.6773978], [-91.5885629, 41.677568], [-91.5898591, 41.678087], [-91.589866, 41.6780626], [-91.5899304, 41.6779263], [-91.589976, 41.6778492], [-91.5904272, 41.6769874], [-91.5911457, 41.6754888], [-91.5911867, 41.6754149], [-91.5912339, 41.6753298], [-91.5920616, 41.6738377], [-91.5921171, 41.6737381], [-91.5931462, 41.6717791], [-91.5929146, 41.6717748], [-91.5882258, 41.6717478], [-91.5883256, 41.6656456], [-91.5883299, 41.6653831], [-91.5884674, 41.6571687], [-91.5834862, 41.6571431], [-91.5834394, 41.657148], [-91.5834133, 41.65716], [-91.5833898, 41.657178], [-91.5833744, 41.6571961], [-91.5833623, 41.6572246], [-91.5833561, 41.6574586], [-91.583314, 41.6576555], [-91.5832557, 41.6577781], [-91.5831658, 41.6578965], [-91.5830484, 41.6580037], [-91.5827722, 41.6582081], [-91.5826233, 41.6583153], [-91.5824999, 41.6584119], [-91.5823806, 41.6585282], [-91.5822999, 41.6586316], [-91.5822163, 41.6587647], [-91.5821727, 41.6588789], [-91.582141, 41.6589871], [-91.5821142, 41.6591987], [-91.5821271, 41.6593097], [-91.5821489, 41.6594163], [-91.5823267, 41.6598505], [-91.5823739, 41.6599991], [-91.5824074, 41.6601534], [-91.5824237, 41.6602903], [-91.5824249, 41.6605251], [-91.5824002, 41.6606978], [-91.5823592, 41.6608632], [-91.5823048, 41.6610262], [-91.5821982, 41.6612861], [-91.5821439, 41.6614454], [-91.5821182, 41.6615391], [-91.5820929, 41.6616598], [-91.5820688, 41.6618106], [-91.5820594, 41.6619904], [-91.5820608, 41.6621111], [-91.5820689, 41.6622414], [-91.5820856, 41.6623646], [-91.582107, 41.6624778], [-91.5821875, 41.6627534], [-91.5823512, 41.6631199], [-91.5824611, 41.663357], [-91.5824912, 41.6634331], [-91.5825114, 41.6635018], [-91.5825234, 41.6635683], [-91.5825251, 41.6636706], [-91.5825114, 41.6637953], [-91.5824838, 41.663882], [-91.5824222, 41.664014], [-91.5822333, 41.664223], [-91.5821372, 41.6642943], [-91.5820514, 41.6643449], [-91.5819841, 41.6643789], [-91.5818696, 41.664428], [-91.5817905, 41.6644531], [-91.5817143, 41.6644702], [-91.5815961, 41.6644949], [-91.5814894, 41.6645067], [-91.5813748, 41.6645102], [-91.5784431, 41.6644781], [-91.5780589, 41.6644781], [-91.5752147, 41.664468], [-91.5750495, 41.6644666], [-91.5749683, 41.6644651], [-91.5749348, 41.6644636], [-91.5748993, 41.6644701], [-91.574853, 41.6644836], [-91.5748122, 41.6645067], [-91.5747866, 41.6645327], [-91.5747658, 41.6645668], [-91.5747511, 41.6646389], [-91.5747028, 41.6649189], [-91.5746861, 41.6650949], [-91.5746532, 41.665502], [-91.5746076, 41.6661872], [-91.5746029, 41.6662955], [-91.5745781, 41.6663641], [-91.5745714, 41.6663811], [-91.574462, 41.6664882], [-91.5744118, 41.6665154], [-91.5743367, 41.6665424], [-91.5742099, 41.666571], [-91.5740865, 41.666602], [-91.5740524, 41.6665012], [-91.5740792, 41.6665094], [-91.5741167, 41.6665079], [-91.5741543, 41.6665054], [-91.5742012, 41.6664968], [-91.5742502, 41.6664843], [-91.5743132, 41.6664643], [-91.57435, 41.6664501], [-91.5743957, 41.6664262], [-91.5744366, 41.6663957], [-91.5744627, 41.6663631], [-91.5744849, 41.6663245], [-91.5745098, 41.666262], [-91.5745921, 41.6650837], [-91.5746324, 41.6647862], [-91.5746558, 41.6646499], [-91.5746679, 41.6645212], [-91.5746632, 41.6644871], [-91.5746512, 41.6644642], [-91.5746277, 41.6644355], [-91.5745673, 41.6644095], [-91.5744815, 41.6643894], [-91.5741549, 41.6643298], [-91.5740329, 41.6642998], [-91.5739071, 41.6642632], [-91.5737492, 41.6642006], [-91.5736084, 41.6641355], [-91.5735434, 41.6640989], [-91.5734676, 41.6640558], [-91.573412, 41.6640348], [-91.573359, 41.6640308], [-91.5732973, 41.6640383], [-91.573264, 41.6640486], [-91.573021, 41.6642284], [-91.572838, 41.6643414], [-91.572572, 41.6644733], [-91.5723331, 41.6645663], [-91.5721002, 41.6646385], [-91.5715579, 41.6647802], [-91.5711187, 41.6648964], [-91.5709085, 41.6649555], [-91.5707801, 41.6650051], [-91.5706576, 41.6650553], [-91.5705755, 41.6650973], [-91.5704736, 41.6651504], [-91.5703773, 41.6652125], [-91.5703154, 41.6652541], [-91.5702637, 41.6652911], [-91.5702096, 41.665333], [-91.5701256, 41.6654073], [-91.5700351, 41.6655005], [-91.5699749, 41.6655682], [-91.5694443, 41.6663175], [-91.5689609, 41.6670144], [-91.5688656, 41.667126], [-91.5687986, 41.6671991], [-91.5687623, 41.6672367], [-91.5727002, 41.6693414], [-91.5731658, 41.6695844], [-91.5782343, 41.672127], [-91.5782044, 41.6711106], [-91.5781812, 41.6703218], [-91.5799408, 41.6712059], [-91.5808489, 41.6716622], [-91.5829689, 41.6726939], [-91.582462, 41.67361], [-91.5821976, 41.6740877]]]]}}