{"type": "Feature", "properties": {"market_key": 37, "university": "Southern Methodist University", "osm_type": "way", "osm_id": 30894474, "osm_name": "Southern Methodist University"}, "geometry": {"type": "Polygon", "coordinates": [[[-96.7786291, 32.8374777], [-96.7777268, 32.8385974], [-96.7774659, 32.838957], [-96.7772699, 32.8393214], [-96.7770531, 32.8400512], [-96.7770033, 32.840219], [-96.7756507, 32.84263], [-96.7792998, 32.8426658], [-96.779322, 32.8430984], [-96.7793542, 32.8431226], [-96.7794409, 32.8432191], [-96.7794599, 32.843254], [-96.7794482, 32.8437222], [-96.7794376, 32.8438192], [-96.7793968, 32.8438199], [-96.7790858, 32.8438248], [-96.7790719, 32.845176], [-96.7790741, 32.8455636], [-96.7809938, 32.8455562], [-96.7809686, 32.8467327], [-96.7790706, 32.8467361], [-96.7790633, 32.8473642], [-96.7820083, 32.8473523], [-96.7820145, 32.8466391], [-96.7858815, 32.8466334], [-96.786663, 32.8466322], [-96.7868312, 32.8466319], [-96.7868639, 32.8454732], [-96.7869578, 32.8409723], [-96.7869817, 32.8366718], [-96.7817552, 32.836682], [-96.7817413, 32.8375007], [-96.7786291, 32.8374777]]]}}