{"type": "Feature", "properties": {"market_key": 38, "university": "University of North Texas", "osm_type": "relation", "osm_id": 8433308, "osm_name": "University of North Texas"}, "geometry": {"type": "MultiPolygon", "coordinates": [[[[-97.1614884, 33.2018866], [-97.16144, 33.2035129], [-97.1614491, 33.2036692], [-97.1614598, 33.2038532], [-97.1612843, 33.2070469], [-97.1612714, 33.2074098], [-97.1612446, 33.2074748], [-97.161188, 33.2075221], [-97.1611118, 33.2075398], [-97.1587038, 33.2064913], [-97.1580344, 33.2061998], [-97.1573202, 33.2058888], [-97.1564274, 33.2055001], [-97.1564703, 33.205403], [-97.1563656, 33.2053638], [-97.1563022, 33.205474], [-97.156269, 33.2054595], [-97.1551352, 33.2049628], [-97.1549648, 33.2048893], [-97.1546975, 33.204774], [-97.153898, 33.2044679], [-97.1533828, 33.2042682], [-97.15307, 33.204147], [-97.1530772, 33.2037927], [-97.153084, 33.2034599], [-97.1537301, 33.2034596], [-97.1539075, 33.2034105], [-97.153992, 33.2032962], [-97.1541305, 33.2031246], [-97.1541851, 33.202973], [-97.1542135, 33.202499], [-97.154353, 33.2020951], [-97.1546143, 33.2015367], [-97.1547967, 33.2010429], [-97.1547808, 33.2006796], [-97.1559596, 33.1997945], [-97.1567405, 33.1992082], [-97.1570441, 33.199123], [-97.1570666, 33.198199], [-97.1572927, 33.1981988], [-97.1573462, 33.1965198], [-97.1583805, 33.1965198], [-97.158915, 33.1965198], [-97.1614344, 33.1965198], [-97.1614254, 33.1980892], [-97.1628972, 33.1980805], [-97.1635884, 33.2001008], [-97.1639562, 33.201206], [-97.1629579, 33.2018704], [-97.1614884, 33.2018866]]], [[[-97.161392, 33.2094628], [-97.1613828, 33.2103537], [-97.1598882, 33.2103564], [-97.1594207, 33.2103583], [-97.1590661, 33.2103591], [-97.1585797, 33.2103602], [-97.1584227, 33.2103605], [-97.1583257, 33.2103232], [-97.1572779, 33.2103224], [-97.1572774, 33.2103573], [-97.1572714, 33.2107943], [-97.1550284, 33.2107904], [-97.155016, 33.2112717], [-97.1552008, 33.2112746], [-97.1561261, 33.2112778], [-97.1562678, 33.2112794], [-97.1565732, 33.211283], [-97.1567627, 33.2112873], [-97.1570832, 33.2112902], [-97.1570991, 33.2112903], [-97.1574494, 33.2112849], [-97.1574478, 33.2116358], [-97.157446, 33.2116716], [-97.1579384, 33.2116727], [-97.1579364, 33.2118158], [-97.1574453, 33.2118097], [-97.157443, 33.2122333], [-97.1574416, 33.21265], [-97.1574052, 33.2126511], [-97.1568814, 33.2126464], [-97.1567854, 33.2126441], [-97.1566723, 33.2126413], [-97.1562967, 33.2126418], [-97.1557266, 33.2126389], [-97.155209, 33.2126265], [-97.1551519, 33.2126261], [-97.1550048, 33.212625], [-97.1549961, 33.2133165], [-97.1551448, 33.2133182], [-97.1551607, 33.2133183], [-97.1554103, 33.213322], [-97.1554846, 33.2133222], [-97.1554819, 33.2137042], [-97.1554812, 33.2137347], [-97.155479, 33.213823], [-97.1557922, 33.2138249], [-97.1557923, 33.2138414], [-97.1557976, 33.2146773], [-97.1557947, 33.2147087], [-97.1555566, 33.2147085], [-97.1551554, 33.214703], [-97.1551505, 33.2144341], [-97.1551534, 33.2142687], [-97.15495, 33.21427], [-97.1543304, 33.214268], [-97.1543331, 33.2139724], [-97.1540579, 33.2139711], [-97.1540588, 33.213988], [-97.1540553, 33.2140728], [-97.1529893, 33.2140472], [-97.152805, 33.2140378], [-97.1528035, 33.2146277], [-97.1464855, 33.2145958], [-97.1463453, 33.2144352], [-97.1462818, 33.2143619], [-97.1462962, 33.2136476], [-97.1462111, 33.2136173], [-97.1459466, 33.2136101], [-97.1436233, 33.2135936], [-97.1432588, 33.2135716], [-97.1427962, 33.2135201], [-97.1420389, 33.2135163], [-97.1420463, 33.2131953], [-97.1415238, 33.2131886], [-97.1415135, 33.212667], [-97.1415089, 33.212537], [-97.1415124, 33.2112771], [-97.1422147, 33.2112818], [-97.1422079, 33.2116672], [-97.1422059, 33.2118358], [-97.1422249, 33.211836], [-97.1422182, 33.2124069], [-97.1422198, 33.2125475], [-97.1424742, 33.2125508], [-97.1424668, 33.2131352], [-97.1426756, 33.213137], [-97.1428776, 33.2131387], [-97.142885, 33.2127084], [-97.1428881, 33.2126463], [-97.1428926, 33.2125543], [-97.1429381, 33.2125546], [-97.1429364, 33.2125001], [-97.1429441, 33.2118431], [-97.1427218, 33.2118437], [-97.1427306, 33.2112816], [-97.1430152, 33.2112967], [-97.1431146, 33.2113555], [-97.1434133, 33.2115384], [-97.1434953, 33.2115625], [-97.1435669, 33.211566], [-97.1435598, 33.2109458], [-97.1436355, 33.2109442], [-97.1436581, 33.2104724], [-97.1436638, 33.2103526], [-97.1415539, 33.2103237], [-97.1415788, 33.2093512], [-97.1419817, 33.2093505], [-97.1419817, 33.2092419], [-97.1419822, 33.2082454], [-97.1419822, 33.2081829], [-97.1423016, 33.2081872], [-97.1423016, 33.2081391], [-97.1423106, 33.207409], [-97.1423346, 33.207409], [-97.1429787, 33.2074153], [-97.1429853, 33.2068029], [-97.142986, 33.2066622], [-97.1443408, 33.2067059], [-97.1443338, 33.207812], [-97.1444606, 33.2078125], [-97.1452439, 33.2078171], [-97.1453583, 33.2078172], [-97.1453604, 33.2075761], [-97.145969, 33.2075846], [-97.1459774, 33.2070185], [-97.1454123, 33.2070144], [-97.1453659, 33.2070134], [-97.1453731, 33.2067306], [-97.1484764, 33.2067531], [-97.148653, 33.2067974], [-97.1508376, 33.2068418], [-97.1508363, 33.2067276], [-97.1513276, 33.2067386], [-97.1518309, 33.2067382], [-97.1518392, 33.2064908], [-97.1513124, 33.206485], [-97.1512878, 33.2057767], [-97.1508578, 33.2057708], [-97.1508677, 33.2051202], [-97.1508696, 33.2045046], [-97.1508809, 33.2044399], [-97.1508986, 33.2043985], [-97.1509274, 33.2043646], [-97.1509889, 33.2043414], [-97.1510556, 33.2043287], [-97.1511384, 33.204346], [-97.1529175, 33.2051036], [-97.153093, 33.2051838], [-97.1531984, 33.205224], [-97.1534402, 33.205301], [-97.1538278, 33.205441], [-97.154184, 33.2055868], [-97.15566, 33.2062137], [-97.1569216, 33.206767], [-97.157487, 33.2070421], [-97.1587563, 33.2076415], [-97.1592622, 33.2078807], [-97.1602631, 33.2086231], [-97.1605749, 33.208858], [-97.161392, 33.2094628]]]]}}