{"type": "Feature", "properties": {"market_key": 383, "university": "University of Kansas", "osm_type": "relation", "osm_id": 13268982, "osm_name": "University of Kansas"}, "geometry": {"type": "MultiPolygon", "coordinates": [[[[-95.2501746, 38.9634004], [-95.2501814, 38.9631629], [-95.2499261, 38.9632251], [-95.2488244, 38.9632288], [-95.2488241, 38.9640044], [-95.2487677, 38.9640325], [-95.2484429, 38.9642137], [-95.2483781, 38.9642438], [-95.2483222, 38.9642612], [-95.2482756, 38.9642721], [-95.2482211, 38.9642756], [-95.2476373, 38.9642786], [-95.2459794, 38.964286], [-95.2459109, 38.96428], [-95.2458468, 38.9642723], [-95.2457817, 38.9642605], [-95.2457014, 38.9642425], [-95.2454587, 38.9641665], [-95.2452662, 38.9640829], [-95.24517, 38.9642169], [-95.2451535, 38.9642594], [-95.2451448, 38.9643266], [-95.2441431, 38.9643285], [-95.2441255, 38.961074], [-95.2439226, 38.9610723], [-95.243483, 38.9610727], [-95.2434832, 38.9612084], [-95.2434834, 38.9613473], [-95.2427318, 38.961343], [-95.2424894, 38.9613399], [-95.2424773, 38.9614087], [-95.2424612, 38.9614525], [-95.2424424, 38.9614775], [-95.2424384, 38.9615099], [-95.242421, 38.9617038], [-95.2424089, 38.9617278], [-95.2424089, 38.961756], [-95.2423982, 38.9617799], [-95.2423781, 38.961806], [-95.2423418, 38.96183], [-95.2422882, 38.9618477], [-95.241788, 38.9618519], [-95.2417544, 38.9618488], [-95.2417383, 38.9618352], [-95.2417316, 38.961806], [-95.2417619, 38.9608036], [-95.2417553, 38.959952], [-95.2406829, 38.9599571], [-95.2406588, 38.9599467], [-95.240644, 38.95993], [-95.2406413, 38.959905], [-95.2406398, 38.958698], [-95.2411948, 38.958695], [-95.2411904, 38.9582088], [-95.2416831, 38.9582059], [-95.2416795, 38.9579293], [-95.2411513, 38.9579332], [-95.24064, 38.957937], [-95.2406363, 38.9575679], [-95.2418288, 38.9575614], [-95.2418237, 38.9569901], [-95.2411245, 38.9569851], [-95.2407478, 38.9569874], [-95.2406262, 38.9569926], [-95.2406014, 38.9569979], [-95.2405835, 38.9570048], [-95.2405779, 38.9565189], [-95.2407154, 38.9565191], [-95.2412135, 38.9565197], [-95.2413794, 38.9565784], [-95.2418289, 38.9565748], [-95.2418227, 38.955896], [-95.2418171, 38.9552722], [-95.242959, 38.9552702], [-95.2430392, 38.955234], [-95.2430392, 38.9542537], [-95.2430526, 38.9542359], [-95.2430955, 38.9542276], [-95.2432082, 38.9542026], [-95.2433143, 38.9542048], [-95.2436054, 38.9542033], [-95.2442011, 38.9542002], [-95.2448035, 38.9541923], [-95.2454594, 38.9541953], [-95.2454608, 38.9540569], [-95.2460026, 38.9540572], [-95.2460025, 38.9542013], [-95.2465845, 38.9542031], [-95.2472274, 38.9542051], [-95.2472106, 38.9529534], [-95.247224, 38.9529464], [-95.2472289, 38.9514163], [-95.2476623, 38.9514142], [-95.24771, 38.9514062], [-95.2477448, 38.9513867], [-95.2478218, 38.95138], [-95.2478226, 38.9513748], [-95.2479579, 38.9513823], [-95.2480163, 38.9513918], [-95.2481599, 38.9514026], [-95.2481953, 38.9514126], [-95.2488113, 38.9514085], [-95.2489674, 38.9514075], [-95.2489909, 38.9514073], [-95.2494815, 38.9514041], [-95.2494779, 38.9508882], [-95.2499803, 38.9508883], [-95.2500691, 38.9508883], [-95.2500711, 38.9502188], [-95.2500713, 38.9501985], [-95.2500825, 38.9501754], [-95.2500992, 38.9501626], [-95.2501198, 38.9501493], [-95.2501413, 38.9501415], [-95.2503566, 38.950148], [-95.2509519, 38.9501435], [-95.251478, 38.9501377], [-95.2521099, 38.9501315], [-95.2556572, 38.9500956], [-95.255927, 38.9500952], [-95.2561794, 38.9500924], [-95.2583572, 38.9500684], [-95.2585904, 38.9500653], [-95.2591852, 38.9501127], [-95.2606193, 38.9501], [-95.2606305, 38.9491005], [-95.2606198, 38.9489607], [-95.2606063, 38.9488877], [-95.2605929, 38.9487313], [-95.2605916, 38.9485957], [-95.2605929, 38.9482338], [-95.2605943, 38.948168], [-95.2606278, 38.9477978], [-95.2606533, 38.9474108], [-95.2606613, 38.9470197], [-95.2606627, 38.9465879], [-95.2606627, 38.9464304], [-95.260656, 38.946202], [-95.2606291, 38.9457931], [-95.2606251, 38.9455469], [-95.2606224, 38.9453175], [-95.2606265, 38.9449076], [-95.2606332, 38.9448106], [-95.2606573, 38.9446572], [-95.260668, 38.9445748], [-95.2606707, 38.9445227], [-95.2606895, 38.9439177], [-95.2606895, 38.9434692], [-95.2606922, 38.9432595], [-95.2607016, 38.9431823], [-95.2607136, 38.9430979], [-95.2607324, 38.9430457], [-95.2607512, 38.9429936], [-95.2608075, 38.9428924], [-95.2608343, 38.9428621], [-95.2608692, 38.9428423], [-95.2609161, 38.9428267], [-95.2609631, 38.9428192], [-95.26101, 38.9428173], [-95.2618294, 38.9428173], [-95.2623069, 38.9428152], [-95.2624061, 38.942811], [-95.2625805, 38.9427954], [-95.2626797, 38.9427902], [-95.2636292, 38.9427912], [-95.2638357, 38.9427933], [-95.2644392, 38.9428204], [-95.2645787, 38.9428214], [-95.2647276, 38.9428204], [-95.2649757, 38.9428183], [-95.2654357, 38.9427891], [-95.2656865, 38.9427839], [-95.267277, 38.942786], [-95.2683177, 38.9427808], [-95.2685041, 38.9427839], [-95.2689748, 38.9428079], [-95.2691116, 38.9428152], [-95.2692149, 38.9428152], [-95.2694952, 38.9428141], [-95.2695394, 38.9428214], [-95.2695985, 38.9428392], [-95.2696306, 38.9428684], [-95.2696575, 38.9429038], [-95.2696682, 38.9429445], [-95.2696736, 38.9430749], [-95.2696776, 38.9431886], [-95.2697923, 38.9431885], [-95.2698059, 38.9431751], [-95.2698217, 38.943155], [-95.269805, 38.9493101], [-95.2698171, 38.9499025], [-95.2698729, 38.9499578], [-95.2739468, 38.9499468], [-95.2743822, 38.9499456], [-95.2749563, 38.9499441], [-95.2752461, 38.9499396], [-95.2752476, 38.9513098], [-95.2783674, 38.9513076], [-95.2789832, 38.9513026], [-95.2789567, 38.9551349], [-95.2789513, 38.9558034], [-95.2789406, 38.9558576], [-95.2789272, 38.9559181], [-95.2789057, 38.9560996], [-95.278895, 38.9568755], [-95.2788843, 38.9569016], [-95.2788641, 38.9569162], [-95.2788279, 38.9569214], [-95.2775499, 38.9569203], [-95.276772, 38.9569214], [-95.2754336, 38.9569183], [-95.2736365, 38.9569203], [-95.2722686, 38.9569287], [-95.2712319, 38.9569203], [-95.2699498, 38.9569235], [-95.2688246, 38.9569245], [-95.2680052, 38.9569245], [-95.267399, 38.9569256], [-95.2668478, 38.9569266], [-95.2656368, 38.9569266], [-95.264462, 38.9569329], [-95.2633395, 38.9569339], [-95.2625335, 38.9569329], [-95.2623645, 38.9569235], [-95.2620829, 38.9568995], [-95.2617047, 38.9568713], [-95.2616216, 38.9568557], [-95.2614325, 38.9568234], [-95.2613654, 38.9568171], [-95.2611374, 38.9568088], [-95.2607391, 38.9568108], [-95.2601973, 38.9568327], [-95.2600873, 38.956838], [-95.2599438, 38.9568432], [-95.2598178, 38.9568536], [-95.2593243, 38.9569193], [-95.2590949, 38.9569475], [-95.2589031, 38.9569589], [-95.2586953, 38.956961], [-95.2583171, 38.95696], [-95.2582675, 38.9569798], [-95.2582125, 38.9569944], [-95.2581561, 38.9569965], [-95.2574226, 38.9569923], [-95.2573019, 38.9569996], [-95.257094, 38.957009], [-95.2564409, 38.9570079], [-95.2560908, 38.9570069], [-95.2560493, 38.9570017], [-95.2559903, 38.956986], [-95.25595, 38.9569798], [-95.2556215, 38.9569767], [-95.2555718, 38.9569881], [-95.2554954, 38.9570079], [-95.2554565, 38.9570121], [-95.2552406, 38.9569892], [-95.2551829, 38.9569871], [-95.2549965, 38.9569829], [-95.2550156, 38.9582788], [-95.255019, 38.9585047], [-95.2521701, 38.9585009], [-95.2520745, 38.9585008], [-95.2520743, 38.9585609], [-95.2520595, 38.9586692], [-95.2520353, 38.9587422], [-95.2520005, 38.9587902], [-95.2519415, 38.9588246], [-95.2518677, 38.9588444], [-95.2518033, 38.9588496], [-95.2513247, 38.9588394], [-95.251269, 38.9588399], [-95.2511441, 38.9588375], [-95.2511147, 38.9588417], [-95.2510793, 38.9588502], [-95.2510751, 38.9603576], [-95.2510604, 38.9613367], [-95.2510563, 38.9622826], [-95.2510491, 38.9628635], [-95.2510427, 38.96326], [-95.251036, 38.9632973], [-95.2510225, 38.9633225], [-95.2510044, 38.9633432], [-95.2509815, 38.9633581], [-95.2509524, 38.9633727], [-95.2509104, 38.9633879], [-95.2508623, 38.9633945], [-95.2503318, 38.9633995], [-95.2501746, 38.9634004]]], [[[-95.2428602, 38.9639436], [-95.2428569, 38.9639276], [-95.2428474, 38.9639151], [-95.2428309, 38.9639046], [-95.2427977, 38.9638955], [-95.2427746, 38.9638913], [-95.2425987, 38.9638688], [-95.2422532, 38.9638685], [-95.2420155, 38.9638665], [-95.2419365, 38.9638588], [-95.241802, 38.9638424], [-95.241549, 38.9638259], [-95.2406647, 38.9638236], [-95.2406454, 38.9638293], [-95.2406273, 38.9638377], [-95.2406187, 38.9638514], [-95.2406186, 38.9638631], [-95.2406275, 38.9656003], [-95.240644, 38.9656087], [-95.2406634, 38.9656125], [-95.240695, 38.9656125], [-95.2427978, 38.9656116], [-95.2428197, 38.9656071], [-95.2428367, 38.9655967], [-95.2428576, 38.9655756], [-95.2428629, 38.9655524], [-95.2428602, 38.9639436]]], [[[-95.2501104, 38.9634875], [-95.2499541, 38.9635236], [-95.249874, 38.9635605], [-95.2490833, 38.9639557], [-95.2489685, 38.9640142], [-95.248865, 38.9640765], [-95.2487992, 38.9641164], [-95.2487746, 38.9641461], [-95.2487677, 38.9641716], [-95.2487675, 38.9646308], [-95.2487675, 38.9647845], [-95.2487675, 38.9648468], [-95.2498562, 38.964844], [-95.2499635, 38.9653487], [-95.2499659, 38.9655406], [-95.2505312, 38.9655387], [-95.2507329, 38.9652154], [-95.250724, 38.964635], [-95.2511286, 38.9646324], [-95.2511284, 38.9640615], [-95.2511289, 38.9639918], [-95.2502845, 38.9639947], [-95.2502838, 38.9638735], [-95.2501104, 38.9634875]]]]}}