{"type": "Feature", "properties": {"market_key": 395, "university": "Rhode Island College", "osm_type": "way", "osm_id": 43150787, "osm_name": "Rhode Island College"}, "geometry": {"type": "Polygon", "coordinates": [[[-71.4623733, 41.8412871], [-71.4624597, 41.8412696], [-71.4625511, 41.8412442], [-71.4627973, 41.841141], [-71.4628788, 41.8411063], [-71.462952, 41.8410858], [-71.4630637, 41.8410737], [-71.463327, 41.841058], [-71.4648566, 41.8409747], [-71.4641412, 41.8380744], [-71.46701, 41.8376856], [-71.4677308, 41.8384883], [-71.4679447, 41.8399446], [-71.4686327, 41.8396291], [-71.4691249, 41.8426334], [-71.4690085, 41.842937], [-71.4682473, 41.8439273], [-71.4676449, 41.8439698], [-71.4673225, 41.8439988], [-71.4673704, 41.8443199], [-71.4538091, 41.8458225], [-71.4529006, 41.8418683], [-71.4529467, 41.8418292], [-71.4606242, 41.8413631], [-71.4622715, 41.8412981], [-71.4623733, 41.8412871]]]}}