{"type": "Feature", "properties": {"market_key": 404, "university": "The University of Alabama in Huntsville", "osm_type": "relation", "osm_id": 18502556, "osm_name": "University of Alabama in Huntsville"}, "geometry": {"type": "MultiPolygon", "coordinates": [[[[-86.6342224, 34.7271216], [-86.6342224, 34.7274897], [-86.6345738, 34.7274899], [-86.6345733, 34.7271274], [-86.6342224, 34.7271216]]], [[[-86.6358637, 34.7348259], [-86.6388532, 34.734826], [-86.6399327, 34.7347288], [-86.6411098, 34.7345906], [-86.6430226, 34.7343085], [-86.643443, 34.7341184], [-86.6436252, 34.7338248], [-86.6436182, 34.7332432], [-86.6436812, 34.7315561], [-86.6437262, 34.7270634], [-86.6437338, 34.7263044], [-86.6436917, 34.725884], [-86.6443256, 34.72591], [-86.6444331, 34.7259099], [-86.6475821, 34.7259402], [-86.647588, 34.7255705], [-86.6475885, 34.7238315], [-86.6466699, 34.7238391], [-86.6449908, 34.7238862], [-86.6442702, 34.7239101], [-86.6443224, 34.7212548], [-86.6467405, 34.721277], [-86.6468245, 34.7198413], [-86.6483878, 34.7195561], [-86.647122, 34.7181673], [-86.6465676, 34.7181495], [-86.6446753, 34.7180885], [-86.6440811, 34.7180694], [-86.6440736, 34.7178216], [-86.6440456, 34.7171132], [-86.6437933, 34.7164451], [-86.6385454, 34.7178964], [-86.6361098, 34.7185713], [-86.6348039, 34.7189331], [-86.6348708, 34.7203329], [-86.6334591, 34.7203368], [-86.6334574, 34.72114], [-86.6335314, 34.7225823], [-86.6334968, 34.7232318], [-86.6334986, 34.7232628], [-86.6344089, 34.7232622], [-86.6343389, 34.7244094], [-86.6343356, 34.7244751], [-86.634261, 34.7261658], [-86.6355699, 34.7261801], [-86.6355659, 34.7262956], [-86.635527, 34.7274322], [-86.6359776, 34.7275557], [-86.6359773, 34.7275733], [-86.6358902, 34.7331367], [-86.6358637, 34.7348259]]]]}}