{"type": "Feature", "properties": {"market_key": 410, "university": "Winthrop University", "osm_type": "way", "osm_id": 256490835, "osm_name": "Winthrop University"}, "geometry": {"type": "Polygon", "coordinates": [[[-81.0300908, 34.9361509], [-81.0311628, 34.9357564], [-81.0314101, 34.9356655], [-81.032288, 34.9367061], [-81.0331078, 34.9362455], [-81.0339596, 34.9371628], [-81.0340942, 34.9371012], [-81.034362, 34.9372427], [-81.0338509, 34.9381808], [-81.0339211, 34.938356], [-81.0344073, 34.9381713], [-81.0360667, 34.9364911], [-81.0361125, 34.9364723], [-81.0361517, 34.9364564], [-81.0362165, 34.9364415], [-81.0362865, 34.9364367], [-81.0363555, 34.9364423], [-81.036442, 34.9364616], [-81.0365397, 34.9364899], [-81.036689, 34.9365483], [-81.0368815, 34.9366319], [-81.0377166, 34.9372528], [-81.0379847, 34.9374594], [-81.0369806, 34.9382189], [-81.0377124, 34.9388147], [-81.0386784, 34.9396066], [-81.036766, 34.9410188], [-81.0357052, 34.9414445], [-81.0356675, 34.9414596], [-81.0355551, 34.9415006], [-81.035541, 34.9415057], [-81.0353101, 34.94159], [-81.0350268, 34.9416933], [-81.0343298, 34.9419453], [-81.0337307, 34.9421618], [-81.0337197, 34.9421658], [-81.0324318, 34.942636], [-81.0317099, 34.9428885], [-81.0313546, 34.943032], [-81.0312231, 34.9430851], [-81.0309905, 34.943179], [-81.0303539, 34.941979], [-81.0289959, 34.942451], [-81.028885, 34.9422493], [-81.028659, 34.941838], [-81.028454, 34.9419138], [-81.0284394, 34.9419192], [-81.027577, 34.942238], [-81.0273413, 34.9417761], [-81.0267381, 34.9406827], [-81.026062, 34.939426], [-81.0280944, 34.938682], [-81.0279269, 34.9384081], [-81.0284201, 34.9382307], [-81.027767, 34.936983], [-81.0288357, 34.9366028], [-81.0300908, 34.9361509]]]}}