{"type": "Feature", "properties": {"market_key": 414, "university": "Bradley University", "osm_type": "relation", "osm_id": 13111548, "osm_name": "Bradley University"}, "geometry": {"type": "MultiPolygon", "coordinates": [[[[-89.619214, 40.699733], [-89.6165679, 40.6997352], [-89.6156185, 40.6997312], [-89.615432, 40.6997293], [-89.6149111, 40.6997352], [-89.6148389, 40.6997413], [-89.6145739, 40.6997391], [-89.614467, 40.6997393], [-89.6144208, 40.6997413], [-89.6140819, 40.6997256], [-89.6134938, 40.6997246], [-89.6134529, 40.6997221], [-89.6134137, 40.6997105], [-89.6133817, 40.6996923], [-89.6133636, 40.6996678], [-89.6133515, 40.6996348], [-89.6133547, 40.6996013], [-89.6133746, 40.6995447], [-89.6133925, 40.6993181], [-89.6133919, 40.6992558], [-89.6133691, 40.6991543], [-89.6133456, 40.6990727], [-89.6132698, 40.6989185], [-89.6131693, 40.6987725], [-89.6130862, 40.6986527], [-89.6130422, 40.6986054], [-89.6129673, 40.6985421], [-89.6128995, 40.6984947], [-89.6128468, 40.6984599], [-89.6127528, 40.6984085], [-89.6126929, 40.6983793], [-89.6126582, 40.6983406], [-89.6126442, 40.6983071], [-89.6126432, 40.6982902], [-89.6125077, 40.6982911], [-89.6125082, 40.6983422], [-89.6123415, 40.6982802], [-89.6121216, 40.6982165], [-89.6114307, 40.6980097], [-89.611067, 40.6978259], [-89.6108488, 40.6976099], [-89.6107095, 40.6972831], [-89.6119397, 40.6972981], [-89.611947, 40.6963661], [-89.6125369, 40.6963699], [-89.6127383, 40.6963717], [-89.6131187, 40.696379], [-89.6132106, 40.6963811], [-89.6133103, 40.6963837], [-89.6134322, 40.6963809], [-89.6144787, 40.6963849], [-89.61453, 40.6963878], [-89.6145661, 40.6963872], [-89.6147884, 40.6963832], [-89.6148752, 40.6963862], [-89.6149003, 40.6963857], [-89.6149508, 40.6963849], [-89.6151863, 40.6963902], [-89.6154662, 40.6963849], [-89.6156148, 40.6963901], [-89.6158467, 40.6963901], [-89.6159882, 40.6963909], [-89.6160725, 40.6963909], [-89.6162521, 40.6963879], [-89.6171917, 40.6963928], [-89.617322, 40.6963938], [-89.6179754, 40.6963978], [-89.6185457, 40.6963995], [-89.6186403, 40.6964028], [-89.6192914, 40.696398], [-89.6192391, 40.6986503], [-89.619214, 40.699733]]], [[[-89.6181021, 40.696304], [-89.6181088, 40.695921], [-89.6193378, 40.6959236], [-89.6193292, 40.696306], [-89.6181021, 40.696304]]], [[[-89.6178514, 40.6963063], [-89.6178653, 40.6955681], [-89.6170261, 40.6955591], [-89.6170189, 40.6959476], [-89.6168203, 40.6959455], [-89.6168277, 40.6955511], [-89.6161206, 40.6955434], [-89.6161066, 40.6962874], [-89.6178514, 40.6963063]]], [[[-89.6178905, 40.6953738], [-89.6178957, 40.69503], [-89.6161275, 40.6950145], [-89.6161222, 40.695358], [-89.6178905, 40.6953738]]], [[[-89.6152836, 40.695363], [-89.6133434, 40.6953543], [-89.6133509, 40.69499], [-89.6152936, 40.6949986], [-89.6152836, 40.695363]]], [[[-89.6153709, 40.6949461], [-89.6159011, 40.6949478], [-89.615903, 40.6946005], [-89.6153728, 40.6945988], [-89.6153709, 40.6949461]]], [[[-89.6158918, 40.6955405], [-89.6158638, 40.6962961], [-89.6136693, 40.6962834], [-89.6136849, 40.6958906], [-89.6133193, 40.6958885], [-89.6133334, 40.6955288], [-89.6158918, 40.6955405]]], [[[-89.6198447, 40.6979539], [-89.6193146, 40.6979507], [-89.6193132, 40.6980566], [-89.6198447, 40.6980641], [-89.6198447, 40.6979539]]], [[[-89.6131048, 40.6958931], [-89.6125768, 40.6958953], [-89.6125839, 40.6953291], [-89.6131105, 40.6953355], [-89.6131048, 40.6958931]]], [[[-89.613109, 40.6952467], [-89.6131175, 40.6950444], [-89.612814, 40.6950369], [-89.6125924, 40.6950947], [-89.6126107, 40.6951557], [-89.6126107, 40.6952349], [-89.613109, 40.6952467]]], [[[-89.6102698, 40.6958374], [-89.6103768, 40.6960126], [-89.610411, 40.6961051], [-89.6104025, 40.6962543], [-89.6103554, 40.6964474], [-89.6103276, 40.6988175], [-89.6079354, 40.6987704], [-89.6079461, 40.6967524], [-89.6078733, 40.696642], [-89.6102698, 40.6958374]]], [[[-89.6116665, 40.6998866], [-89.6111402, 40.6998809], [-89.6111337, 40.7002824], [-89.6116633, 40.7002833], [-89.6116665, 40.6998866]]], [[[-89.6116619, 40.7010024], [-89.6116638, 40.70088], [-89.6113092, 40.7008768], [-89.6113106, 40.7007901], [-89.6111165, 40.7007883], [-89.6111133, 40.7009974], [-89.6116619, 40.7010024]]], [[[-89.6201209, 40.7103346], [-89.6194861, 40.7096239], [-89.6192361, 40.7093829], [-89.6181876, 40.7087341], [-89.6174684, 40.7084142], [-89.6163309, 40.7079581], [-89.6163151, 40.7104851], [-89.6179874, 40.7104506], [-89.6189788, 40.710421], [-89.6196252, 40.710391], [-89.6199393, 40.7103618], [-89.6201209, 40.7103346]]]]}}