{"type": "Feature", "properties": {"market_key": 418, "university": "University of South Florida", "osm_type": "way", "osm_id": 31675479, "osm_name": "University of South Florida"}, "geometry": {"type": "Polygon", "coordinates": [[[-82.401808, 28.0690072], [-82.40183, 28.0555567], [-82.4018305, 28.0552083], [-82.4018315, 28.0546335], [-82.4018206, 28.0545068], [-82.4019934, 28.054507], [-82.4258585, 28.0545733], [-82.4258424, 28.0644431], [-82.4258413, 28.0651425], [-82.4258362, 28.065547], [-82.4258404, 28.0656769], [-82.4258356, 28.0686503], [-82.4258349, 28.0690377], [-82.424471, 28.069036], [-82.421067, 28.0690316], [-82.4055644, 28.0690119], [-82.4049664, 28.0690112], [-82.401808, 28.0690072]]]}}