{"type": "Feature", "properties": {"market_key": 42, "university": "University of Illinois at Chicago", "osm_type": "relation", "osm_id": 19755400, "osm_name": "University of Illinois Chicago"}, "geometry": {"type": "MultiPolygon", "coordinates": [[[[-87.656824, 41.8752731], [-87.6568136, 41.8752868], [-87.6567909, 41.8752967], [-87.6567611, 41.8753014], [-87.6555594, 41.8752939], [-87.6545869, 41.8753099], [-87.654407, 41.8753076], [-87.6544178, 41.875226], [-87.6544002, 41.875168], [-87.6543654, 41.8751381], [-87.6543211, 41.8751281], [-87.6533635, 41.8751423], [-87.6533246, 41.8751564], [-87.6519947, 41.8751652], [-87.6517119, 41.87517], [-87.6514215, 41.8751756], [-87.6508932, 41.8751866], [-87.6505761, 41.875193], [-87.6499683, 41.8751992], [-87.6497029, 41.8752036], [-87.6495983, 41.8751928], [-87.6495318, 41.8751925], [-87.6495, 41.8751952], [-87.6493953, 41.8751972], [-87.6492917, 41.8751939], [-87.6492355, 41.8751924], [-87.6488718, 41.8751727], [-87.6485912, 41.875151], [-87.6484925, 41.8751416], [-87.6478925, 41.8750841], [-87.6476786, 41.8750525], [-87.647513, 41.8750061], [-87.6472812, 41.8749181], [-87.6472611, 41.8749076], [-87.6472407, 41.874897], [-87.647241, 41.874768], [-87.6472619, 41.8746139], [-87.6472657, 41.8744775], [-87.6472664, 41.8744552], [-87.6472938, 41.874436], [-87.6473326, 41.8744256], [-87.6473589, 41.8744232], [-87.6473944, 41.8744254], [-87.6482766, 41.8745041], [-87.6483905, 41.8745079], [-87.6485348, 41.8745087], [-87.6498659, 41.874486], [-87.6517051, 41.8744519], [-87.6519455, 41.8744458], [-87.652966, 41.8744313], [-87.6540027, 41.8744103], [-87.6549927, 41.8743912], [-87.6565957, 41.8743633], [-87.6566658, 41.874372], [-87.6566855, 41.8743923], [-87.6566937, 41.8744022], [-87.6566978, 41.8744187], [-87.6567009, 41.8744451], [-87.6567116, 41.8747182], [-87.656724, 41.8748256], [-87.6567673, 41.8750114], [-87.656808, 41.8751781], [-87.6568266, 41.8752393], [-87.656824, 41.8752731]]], [[[-87.6570191, 41.8743619], [-87.6596464, 41.8743183], [-87.6596639, 41.8743286], [-87.659673, 41.8743437], [-87.6596825, 41.8744818], [-87.6597106, 41.8745589], [-87.6597122, 41.8746274], [-87.6597456, 41.875225], [-87.657162, 41.8752912], [-87.6571487, 41.8752897], [-87.6571319, 41.8752797], [-87.6571195, 41.8752639], [-87.6571123, 41.8752496], [-87.6571071, 41.8751644], [-87.6570815, 41.8750425], [-87.6570231, 41.8748225], [-87.6570178, 41.8747684], [-87.6570081, 41.8744713], [-87.6569851, 41.8744547], [-87.656983, 41.874407], [-87.6569886, 41.8743837], [-87.6569992, 41.8743705], [-87.6570191, 41.8743619]]], [[[-87.6472702, 41.8742373], [-87.6472556, 41.8742218], [-87.6472494, 41.8742091], [-87.6472448, 41.8741919], [-87.6472402, 41.8739682], [-87.647214, 41.8732955], [-87.6472009, 41.8727047], [-87.6472256, 41.8726818], [-87.6472179, 41.8722418], [-87.6471847, 41.8721088], [-87.6471609, 41.8714698], [-87.6471878, 41.8712656], [-87.6471778, 41.8708779], [-87.6471431, 41.8707093], [-87.6471108, 41.8697494], [-87.6471131, 41.8697379], [-87.6471263, 41.8697197], [-87.6471659, 41.8696977], [-87.6486336, 41.869672], [-87.6508736, 41.8696349], [-87.6509031, 41.8696077], [-87.6510505, 41.8696062], [-87.6510718, 41.8696281], [-87.6510804, 41.8696428], [-87.6510852, 41.8696667], [-87.6510883, 41.8698044], [-87.651049, 41.8698451], [-87.6511011, 41.8717455], [-87.6511093, 41.8719988], [-87.6511345, 41.8725719], [-87.6511438, 41.8726287], [-87.6511622, 41.8726969], [-87.651237, 41.8728724], [-87.6512647, 41.8728816], [-87.651304, 41.8728845], [-87.6513386, 41.8728782], [-87.6513666, 41.8728645], [-87.6513885, 41.8728382], [-87.651431, 41.8728451], [-87.6515273, 41.8729799], [-87.6515997, 41.8730367], [-87.6516484, 41.8730451], [-87.6516746, 41.8730496], [-87.6516693, 41.8730571], [-87.6516689, 41.873072], [-87.651665, 41.8730838], [-87.6516658, 41.873096], [-87.6516705, 41.8731102], [-87.6516749, 41.8731206], [-87.6516825, 41.8731313], [-87.6516924, 41.8731413], [-87.6517048, 41.8731499], [-87.6517211, 41.8731577], [-87.6517378, 41.8731636], [-87.6517538, 41.8731674], [-87.6517745, 41.8731695], [-87.651796, 41.8731689], [-87.6518131, 41.8731654], [-87.6518286, 41.8731585], [-87.6518604, 41.8731351], [-87.6519423, 41.8731016], [-87.6566199, 41.873025], [-87.6566595, 41.8730431], [-87.6566917, 41.874131], [-87.6566757, 41.8741618], [-87.6566606, 41.8741746], [-87.6566324, 41.8741934], [-87.6565749, 41.8742039], [-87.6565297, 41.8742072], [-87.6548707, 41.8742375], [-87.6532392, 41.8742639], [-87.6519213, 41.8742898], [-87.6517161, 41.8742929], [-87.6508883, 41.87431], [-87.6498613, 41.8743291], [-87.6484683, 41.8743522], [-87.6483542, 41.8743489], [-87.6481879, 41.8743324], [-87.6474508, 41.8742685], [-87.6473287, 41.8742619], [-87.6472977, 41.8742507], [-87.6472702, 41.8742373]]], [[[-87.6458356, 41.8704766], [-87.6455698, 41.87048], [-87.6454837, 41.8698075], [-87.6454777, 41.8697612], [-87.6455705, 41.8697551], [-87.6466852, 41.8697174], [-87.6467421, 41.8697258], [-87.6467846, 41.869743], [-87.6468042, 41.8697551], [-87.6468165, 41.8697707], [-87.6468296, 41.8697999], [-87.6468396, 41.8700655], [-87.6468912, 41.8717937], [-87.6468797, 41.8718183], [-87.6468712, 41.8718358], [-87.6468513, 41.8718465], [-87.646805, 41.8718631], [-87.6459392, 41.8718711], [-87.645943, 41.8719657], [-87.64598, 41.8720277], [-87.6468096, 41.8720208], [-87.6468494, 41.8720266], [-87.6468812, 41.8720581], [-87.6468958, 41.8720799], [-87.6468997, 41.8721137], [-87.6468596, 41.8722654], [-87.6468715, 41.8725421], [-87.6469097, 41.8727693], [-87.6469336, 41.8734255], [-87.6469736, 41.8735992], [-87.6469798, 41.8736916], [-87.6469921, 41.8741344], [-87.6469914, 41.8741757], [-87.646986, 41.8742147], [-87.6469734, 41.8742303], [-87.6469459, 41.8742428], [-87.6469139, 41.8742521], [-87.6466934, 41.8742572], [-87.6465809, 41.8742651], [-87.6464662, 41.874269], [-87.646445, 41.8742396], [-87.646381, 41.8741322], [-87.6463, 41.8739162], [-87.6462423, 41.8736873], [-87.6461495, 41.8733151], [-87.6460939, 41.8731571], [-87.6459308, 41.8727829], [-87.6458458, 41.8724957], [-87.6458436, 41.8724039], [-87.6458342, 41.8720155], [-87.6458335, 41.8719849], [-87.6457398, 41.8714817], [-87.6456076, 41.8708765], [-87.6458478, 41.8708731], [-87.6458404, 41.8706321], [-87.6458356, 41.8704766]]], [[[-87.6512274, 41.8699807], [-87.6512243, 41.8698899], [-87.6511713, 41.869784], [-87.6511689, 41.8696289], [-87.6511714, 41.8696145], [-87.6511857, 41.8696016], [-87.651244, 41.8695887], [-87.6517036, 41.8695659], [-87.6517129, 41.8699754], [-87.6512274, 41.8699807]]], [[[-87.6513178, 41.869434], [-87.6512439, 41.8694315], [-87.6511999, 41.8694061], [-87.651179, 41.8693732], [-87.651179, 41.8692453], [-87.6512013, 41.8691954], [-87.6511445, 41.8672257], [-87.6511627, 41.8672058], [-87.6529733, 41.8671707], [-87.6529743, 41.8672769], [-87.6529751, 41.8673195], [-87.6525895, 41.8677741], [-87.6522318, 41.8682055], [-87.6522096, 41.8682319], [-87.6522619, 41.868256], [-87.6520559, 41.8684628], [-87.6520566, 41.8685197], [-87.6519722, 41.8685971], [-87.6520056, 41.8686145], [-87.6515497, 41.8691481], [-87.6514462, 41.8692679], [-87.6513178, 41.869434]]], [[[-87.6509452, 41.8672097], [-87.6509615, 41.8672199], [-87.6509686, 41.8672426], [-87.6510275, 41.8691848], [-87.65106, 41.8692642], [-87.651057, 41.8693831], [-87.6510417, 41.8694088], [-87.6510163, 41.8694294], [-87.6510062, 41.8694383], [-87.6509818, 41.8694429], [-87.6472568, 41.8695057], [-87.6471938, 41.8694996], [-87.647157, 41.8694843], [-87.647143, 41.8694764], [-87.6471196, 41.869458], [-87.6471003, 41.8694239], [-87.6470769, 41.86863], [-87.6470708, 41.8682281], [-87.647084, 41.8681085], [-87.6470698, 41.8674349], [-87.6470708, 41.8673849], [-87.6470881, 41.867341], [-87.6471092, 41.8673113], [-87.6471206, 41.8673045], [-87.6471501, 41.867282], [-87.6472273, 41.8672623], [-87.6493776, 41.8672288], [-87.6509452, 41.8672097]]], [[[-87.6508762, 41.8647759], [-87.6509543, 41.8669478], [-87.6509461, 41.8669655], [-87.6509301, 41.8669812], [-87.6509063, 41.8669895], [-87.6503067, 41.8669978], [-87.6500882, 41.8670046], [-87.6481743, 41.8670326], [-87.6480122, 41.8670338], [-87.6479981, 41.8670263], [-87.6479887, 41.8670157], [-87.6479853, 41.8669499], [-87.6480135, 41.8669379], [-87.6480014, 41.866505], [-87.647982, 41.8664985], [-87.6479739, 41.866491], [-87.6479713, 41.866473], [-87.6479786, 41.866463], [-87.6480028, 41.8664546], [-87.6479941, 41.8662468], [-87.6479746, 41.8662403], [-87.6479672, 41.8662348], [-87.6479646, 41.8662109], [-87.6479679, 41.8662009], [-87.64799, 41.8661954], [-87.6479874, 41.8660411], [-87.6479612, 41.8660236], [-87.6479585, 41.8660094], [-87.6479692, 41.8659921], [-87.6479967, 41.8659692], [-87.6480195, 41.8659432], [-87.6480303, 41.8659162], [-87.6480293, 41.8658889], [-87.6480151, 41.8658622], [-87.6479873, 41.8658405], [-87.6479835, 41.8657666], [-87.6479638, 41.8648917], [-87.6479603, 41.8646506], [-87.6479564, 41.8645533], [-87.6479273, 41.8638244], [-87.6478804, 41.8624331], [-87.6479219, 41.8624327], [-87.6479219, 41.8624138], [-87.6493185, 41.8623925], [-87.6507851, 41.86237], [-87.65081, 41.8623697], [-87.6508104, 41.8623878], [-87.6508358, 41.8634248], [-87.6508762, 41.8647759]]], [[[-87.6478028, 41.8659288], [-87.6478155, 41.8659533], [-87.6478367, 41.8659757], [-87.6478677, 41.8659948], [-87.6478694, 41.866008], [-87.6478695, 41.8660152], [-87.6478438, 41.8660284], [-87.6478544, 41.866294], [-87.6478615, 41.8662992], [-87.6478794, 41.8663215], [-87.64788, 41.8663375], [-87.6479031, 41.8670192], [-87.6478933, 41.8670272], [-87.6478821, 41.8670342], [-87.647405, 41.8670482], [-87.6471027, 41.8670538], [-87.6470947, 41.8670495], [-87.6470602, 41.8670421], [-87.6470377, 41.8670252], [-87.6470325, 41.8670219], [-87.6470089, 41.8669955], [-87.6470045, 41.8665887], [-87.6470467, 41.8665878], [-87.6470546, 41.8665876], [-87.6470567, 41.8666369], [-87.6471437, 41.8666355], [-87.6471428, 41.86662], [-87.6473893, 41.8666154], [-87.6473879, 41.8665814], [-87.6473851, 41.8664366], [-87.6473809, 41.8663415], [-87.6473632, 41.8659358], [-87.6478028, 41.8659288]]], [[[-87.6467916, 41.8659294], [-87.6467967, 41.8663499], [-87.6467856, 41.8664642], [-87.6468028, 41.8669857], [-87.6468008, 41.867011], [-87.6467835, 41.8670288], [-87.6467482, 41.8670491], [-87.6466839, 41.8670591], [-87.6452265, 41.8670713], [-87.645198, 41.8670652], [-87.6451817, 41.8670451], [-87.6451676, 41.8670032], [-87.645144, 41.8659603], [-87.6467916, 41.8659294]]], [[[-87.6452662, 41.867335], [-87.6452755, 41.8673104], [-87.6452885, 41.8673018], [-87.6453262, 41.8672927], [-87.6466079, 41.867273], [-87.6466678, 41.8672798], [-87.6467055, 41.8672972], [-87.6467451, 41.8673247], [-87.6467725, 41.8673479], [-87.6467857, 41.8673827], [-87.6468197, 41.8694793], [-87.6468132, 41.8694951], [-87.6468061, 41.8695065], [-87.6467833, 41.8695182], [-87.6466313, 41.8695231], [-87.6455608, 41.869596], [-87.6455254, 41.8695958], [-87.6454887, 41.8695774], [-87.6454614, 41.8695617], [-87.645449, 41.8695405], [-87.6454332, 41.8690119], [-87.6454206, 41.8688327], [-87.6453361, 41.8683012], [-87.6452964, 41.8680789], [-87.6452662, 41.867335]]], [[[-87.6500986, 41.8759299], [-87.6496191, 41.8759323], [-87.64957, 41.8759325], [-87.649582, 41.8762262], [-87.6495979, 41.876343], [-87.649608, 41.8765887], [-87.6501239, 41.8765772], [-87.6501252, 41.87654], [-87.6501213, 41.8763599], [-87.6500986, 41.8759299]]], [[[-87.6416049, 41.8712888], [-87.6410547, 41.8712969], [-87.6409948, 41.8712978], [-87.6409753, 41.8719393], [-87.6416374, 41.8719284], [-87.6416327, 41.8716807], [-87.6416156, 41.8716795], [-87.6416049, 41.8712888]]], [[[-87.6470335, 41.8747478], [-87.6470093, 41.8746369], [-87.6470044, 41.8744822], [-87.6469959, 41.8744552], [-87.6469742, 41.8744341], [-87.6469383, 41.8744192], [-87.6468712, 41.8744142], [-87.6467505, 41.8744132], [-87.6465608, 41.8743889], [-87.6465731, 41.8744032], [-87.6465863, 41.8744212], [-87.6467057, 41.874549], [-87.6468509, 41.8746699], [-87.6470008, 41.874772], [-87.6470221, 41.8747831], [-87.6470335, 41.8747478]]]]}}