{"type": "Feature", "properties": {"market_key": 451, "university": "University of Louisiana at LaFayette", "osm_type": "relation", "osm_id": 6832047, "osm_name": "University of Louisiana at Lafayette"}, "geometry": {"type": "MultiPolygon", "coordinates": [[[[-92.0246222, 30.2116908], [-92.0246222, 30.2117604], [-92.0246303, 30.2118206], [-92.0246463, 30.2119018], [-92.0246678, 30.2119759], [-92.0247, 30.2120316], [-92.0247402, 30.2120802], [-92.02481, 30.2121289], [-92.0248609, 30.2121753], [-92.0248824, 30.2122054], [-92.0248931, 30.2122355], [-92.0248904, 30.2122633], [-92.0248797, 30.2123097], [-92.0248743, 30.2123676], [-92.024869, 30.2124998], [-92.0247857, 30.2125407], [-92.0243461, 30.2127716], [-92.0238822, 30.2129996], [-92.0234446, 30.2132298], [-92.0230252, 30.2134639], [-92.022637, 30.2136722], [-92.0223049, 30.2138914], [-92.0219657, 30.2141612], [-92.0189994, 30.2171992], [-92.0150996, 30.2143007], [-92.0133104, 30.2129217], [-92.0163582, 30.2099378], [-92.0166235, 30.2097541], [-92.0169323, 30.2095942], [-92.016989, 30.2095791], [-92.0171146, 30.2096001], [-92.0173879, 30.2096515], [-92.0176969, 30.209768], [-92.0179669, 30.2099124], [-92.0182125, 30.2100469], [-92.0183358, 30.2101575], [-92.0183876, 30.210289], [-92.0183894, 30.2104165], [-92.018312, 30.2106447], [-92.0184779, 30.2107792], [-92.0186185, 30.210694], [-92.0192303, 30.2103647], [-92.0193696, 30.2102681], [-92.0195403, 30.210081], [-92.0196235, 30.2099462], [-92.0197035, 30.2097799], [-92.0197173, 30.209635], [-92.0196841, 30.2094079], [-92.0196559, 30.2092119], [-92.0196639, 30.2091119], [-92.0197067, 30.2089981], [-92.0197908, 30.2088953], [-92.0200548, 30.2086663], [-92.0203619, 30.208382], [-92.0205561, 30.2081648], [-92.0206376, 30.2080115], [-92.020919, 30.207461], [-92.0209897, 30.2073543], [-92.021083, 30.2072626], [-92.0211838, 30.2071853], [-92.0213279, 30.2071158], [-92.0214611, 30.2070686], [-92.0216136, 30.2069937], [-92.0217433, 30.2069105], [-92.0218792, 30.2067836], [-92.0220417, 30.2065768], [-92.0222864, 30.2067896], [-92.0223311, 30.2068188], [-92.0223793, 30.2068339], [-92.0224269, 30.2068125], [-92.0230571, 30.2061968], [-92.0233106, 30.2062297], [-92.0233938, 30.2076113], [-92.0234125, 30.2077132], [-92.0234393, 30.207799], [-92.0234662, 30.2078755], [-92.0235145, 30.2079821], [-92.0237183, 30.2083692], [-92.0237532, 30.2084179], [-92.0238068, 30.2084689], [-92.0238524, 30.2085037], [-92.0239302, 30.2085361], [-92.024016, 30.2085593], [-92.0241206, 30.2085871], [-92.0241984, 30.2086149], [-92.0242628, 30.208659], [-92.0243111, 30.2087239], [-92.0246919, 30.2094818], [-92.0247214, 30.2095375], [-92.0247456, 30.2096001], [-92.024759, 30.2096603], [-92.0247617, 30.2097322], [-92.0247563, 30.2097901], [-92.0247322, 30.2098504], [-92.0246866, 30.2099385], [-92.0246614, 30.2099983], [-92.0246544, 30.210015], [-92.0246329, 30.2100845], [-92.0246168, 30.2101564], [-92.0245364, 30.2108262], [-92.0245444, 30.2109259], [-92.0245525, 30.2109653], [-92.0245686, 30.2110024], [-92.0246195, 30.2111137], [-92.024649, 30.2111925], [-92.0246678, 30.2112574], [-92.0246785, 30.2113246], [-92.0246678, 30.2114034], [-92.0246222, 30.2116908]]], [[[-92.0449744, 30.212298], [-92.0448103, 30.2121607], [-92.0446193, 30.2120267], [-92.0444098, 30.2119108], [-92.0442054, 30.2118248], [-92.0440164, 30.2117561], [-92.0439596, 30.2117369], [-92.0433191, 30.2115723], [-92.0430562, 30.2115011], [-92.0427894, 30.2114055], [-92.042499, 30.2112499], [-92.0418751, 30.211588], [-92.0421949, 30.2120284], [-92.0401079, 30.2133447], [-92.0384979, 30.2111477], [-92.0363821, 30.2123952], [-92.0360391, 30.2125553], [-92.0351469, 30.2113338], [-92.0349537, 30.2111415], [-92.0348281, 30.2109564], [-92.0346916, 30.2107586], [-92.0345875, 30.210447], [-92.0345127, 30.2102489], [-92.0343068, 30.2099359], [-92.0340815, 30.2096839], [-92.0336879, 30.2093695], [-92.0294474, 30.210607], [-92.0299722, 30.2112498], [-92.0346617, 30.2171934], [-92.0359057, 30.2164504], [-92.0362639, 30.2171652], [-92.0365299, 30.2180091], [-92.035725, 30.2184636], [-92.0392804, 30.2231842], [-92.039929, 30.2228098], [-92.0443904, 30.2290419], [-92.0476576, 30.2273139], [-92.0441212, 30.2222485], [-92.0475245, 30.2202333], [-92.0469243, 30.2197213], [-92.0459131, 30.2188586], [-92.0452393, 30.2181341], [-92.044315, 30.216708], [-92.0467095, 30.2149784], [-92.0467428, 30.2148953], [-92.0467192, 30.2148145], [-92.0459591, 30.2136254], [-92.0451537, 30.2124861], [-92.0449744, 30.212298]]]]}}