{"type": "Feature", "properties": {"market_key": 454, "university": "Florida Atlantic University", "osm_type": "way", "osm_id": 95431007, "osm_name": "Florida Atlantic University - Boca Raton Campus"}, "geometry": {"type": "Polygon", "coordinates": [[[-80.1084361, 26.3658676], [-80.1084316, 26.3661122], [-80.1083744, 26.3692368], [-80.109737, 26.3692849], [-80.1109815, 26.3693329], [-80.112627, 26.3693894], [-80.1129838, 26.3697463], [-80.1132386, 26.3699073], [-80.1141934, 26.37077], [-80.1142833, 26.3710536], [-80.1143817, 26.3711491], [-80.1142183, 26.3713002], [-80.1142055, 26.371312], [-80.1140483, 26.3714544], [-80.1135167, 26.3719359], [-80.1121908, 26.3731748], [-80.1115222, 26.3737705], [-80.1112242, 26.3740453], [-80.1104239, 26.3747834], [-80.1056196, 26.3792285], [-80.1016203, 26.3829193], [-80.1011915, 26.3833123], [-80.1010787, 26.383416], [-80.0996944, 26.3846893], [-80.1007353, 26.3856049], [-80.0993387, 26.385781], [-80.0991871, 26.3857874], [-80.0982747, 26.3859056], [-80.098182, 26.385912], [-80.0981499, 26.3859104], [-80.0977636, 26.3859421], [-80.0965298, 26.3860863], [-80.0964761, 26.3857595], [-80.0964332, 26.3853655], [-80.0963581, 26.3849618], [-80.096179, 26.3846597], [-80.0961757, 26.3846542], [-80.096004, 26.3844524], [-80.0958056, 26.3843659], [-80.0954569, 26.3843034], [-80.0951672, 26.3842794], [-80.0948882, 26.3841064], [-80.0947847, 26.3838928], [-80.094781, 26.3838853], [-80.0947273, 26.3835201], [-80.094738, 26.3831837], [-80.0946898, 26.3819102], [-80.0946629, 26.3811797], [-80.0946629, 26.3803579], [-80.0946415, 26.3795313], [-80.0946039, 26.3774216], [-80.0946039, 26.3768112], [-80.0945503, 26.3755857], [-80.0945557, 26.3746437], [-80.0944913, 26.3723176], [-80.0944752, 26.371539], [-80.0945288, 26.370621], [-80.0947327, 26.3698136], [-80.094769, 26.3696973], [-80.0953979, 26.3676844], [-80.0958753, 26.3660022], [-80.0962508, 26.364565], [-80.0965834, 26.3636518], [-80.0970704, 26.3625643], [-80.0971817, 26.3626169], [-80.097289, 26.3626676], [-80.0975411, 26.3628503], [-80.0979609, 26.363075], [-80.0980693, 26.3631664], [-80.0985925, 26.3634715], [-80.0991705, 26.3638284], [-80.0996305, 26.3641444], [-80.1000034, 26.3643956], [-80.1002998, 26.3645975], [-80.100741, 26.3648858], [-80.1011098, 26.3650985], [-80.1015805, 26.365328], [-80.1022536, 26.365584], [-80.1027875, 26.3656849], [-80.1031912, 26.3657378], [-80.1034259, 26.3657522], [-80.1045859, 26.3657858], [-80.1056508, 26.3658015], [-80.1059005, 26.3657899], [-80.1063474, 26.3657692], [-80.1065007, 26.3657621], [-80.1075922, 26.3657813], [-80.1081554, 26.365797], [-80.1082326, 26.3658022], [-80.1084361, 26.3658676]]]}}