{"type": "Feature", "properties": {"market_key": 465, "university": "Cleveland State University", "osm_type": "way", "osm_id": 190600105, "osm_name": "Cleveland State University"}, "geometry": {"type": "Polygon", "coordinates": [[[-81.680394, 41.503254], [-81.6803743, 41.5031544], [-81.6802138, 41.502359], [-81.680119, 41.5018879], [-81.6799966, 41.5011779], [-81.6798967, 41.5011903], [-81.6796446, 41.5012216], [-81.6796053, 41.5010334], [-81.6794891, 41.5005131], [-81.6794829, 41.5004831], [-81.6791741, 41.500515], [-81.6787685, 41.500557], [-81.6786618, 41.500568], [-81.6787599, 41.501131], [-81.6787713, 41.5011964], [-81.6786412, 41.5012109], [-81.6783744, 41.5012408], [-81.6780974, 41.5012718], [-81.6775841, 41.5013293], [-81.6773841, 41.5013507], [-81.6767811, 41.5014152], [-81.6759313, 41.5015061], [-81.6756774, 41.5015333], [-81.6756641, 41.5014723], [-81.6755439, 41.500919], [-81.6754414, 41.5002551], [-81.6758401, 41.5002141], [-81.676374, 41.5001599], [-81.6765713, 41.5001369], [-81.6767623, 41.5001144], [-81.6769456, 41.5000924], [-81.6782282, 41.4999494], [-81.67837, 41.4999357], [-81.6785241, 41.4999208], [-81.678503, 41.4998138], [-81.678325, 41.4989122], [-81.6782804, 41.4986861], [-81.6782498, 41.4985311], [-81.6782201, 41.4983765], [-81.6781687, 41.4981106], [-81.6781586, 41.498044], [-81.6781549, 41.4979957], [-81.6781449, 41.4978652], [-81.6780254, 41.4979005], [-81.6776082, 41.4980236], [-81.6775327, 41.4980452], [-81.6769417, 41.4982178], [-81.6767889, 41.4982663], [-81.6755959, 41.4987048], [-81.6753268, 41.4988159], [-81.6750551, 41.4989251], [-81.6748893, 41.4989907], [-81.6748338, 41.4990103], [-81.6747791, 41.4990298], [-81.6746742, 41.499058], [-81.6745752, 41.4990758], [-81.6741174, 41.4991323], [-81.6742159, 41.4997315], [-81.6742756, 41.4997252], [-81.675383, 41.4996083], [-81.6755005, 41.4995959], [-81.6755243, 41.4997188], [-81.6755516, 41.4998928], [-81.6755574, 41.4999563], [-81.6755558, 41.5000211], [-81.6755425, 41.5000856], [-81.6755128, 41.5001657], [-81.675441, 41.5002547], [-81.675319, 41.5002692], [-81.675061, 41.5002975], [-81.674335, 41.500377], [-81.6743544, 41.500489], [-81.674394, 41.5007183], [-81.674466, 41.501135], [-81.674477, 41.5012052], [-81.6745575, 41.5015892], [-81.6745733, 41.5016582], [-81.6744416, 41.5016781], [-81.6734705, 41.501778], [-81.6733451, 41.501189], [-81.6729759, 41.5012325], [-81.6728146, 41.5005554], [-81.6723147, 41.5006141], [-81.6722246, 41.5006248], [-81.6722086, 41.5006266], [-81.6719112, 41.5006614], [-81.6718417, 41.5006695], [-81.6716446, 41.5006926], [-81.6714583, 41.5007144], [-81.6714751, 41.5008037], [-81.6715148, 41.5010147], [-81.6715186, 41.5010924], [-81.6715041, 41.5011975], [-81.6714511, 41.5013145], [-81.6713767, 41.5013954], [-81.6712954, 41.5014588], [-81.6711976, 41.5015185], [-81.6710629, 41.5015631], [-81.6709303, 41.5015863], [-81.6707116, 41.5016078], [-81.6704651, 41.5016397], [-81.6703715, 41.501669], [-81.670272, 41.5017219], [-81.6701991, 41.5017716], [-81.6701351, 41.5018378], [-81.6700931, 41.5018957], [-81.6699169, 41.5023987], [-81.6699133, 41.502768], [-81.6699311, 41.5030715], [-81.6699983, 41.5034076], [-81.6701545, 41.5039348], [-81.6702762, 41.5042836], [-81.6705205, 41.505047], [-81.6706439, 41.5054156], [-81.6709993, 41.5063959], [-81.6711716, 41.5069095], [-81.671267, 41.50719], [-81.6715186, 41.5071206], [-81.6721391, 41.5069444], [-81.6732, 41.506643], [-81.673296, 41.5066169], [-81.6743098, 41.5063285], [-81.6746161, 41.5062413], [-81.6747011, 41.5062177], [-81.675139, 41.5060964], [-81.6757455, 41.5059284], [-81.6758433, 41.5059013], [-81.6759101, 41.5058827], [-81.6766007, 41.5056902], [-81.6763488, 41.5052083], [-81.6757092, 41.5053887], [-81.675556, 41.5054287], [-81.675494, 41.5054449], [-81.6753362, 41.5052063], [-81.6752879, 41.5051189], [-81.6752798, 41.5050997], [-81.6766445, 41.5047364], [-81.6769482, 41.5046371], [-81.6769334, 41.5045915], [-81.6775424, 41.504531], [-81.6775929, 41.5047709], [-81.6768972, 41.5050537], [-81.6769131, 41.5050746], [-81.6771744, 41.5054169], [-81.6772457, 41.5055104], [-81.6783483, 41.5052276], [-81.6784035, 41.5052134], [-81.6794167, 41.5049487], [-81.6795017, 41.5049265], [-81.6794813, 41.5048163], [-81.6794038, 41.5043977], [-81.6793758, 41.5042467], [-81.6793165, 41.5039262], [-81.6792378, 41.503501], [-81.679216, 41.503383], [-81.6793087, 41.5033741], [-81.6802998, 41.5032632], [-81.680394, 41.503254]]]}}