{"type": "Feature", "properties": {"market_key": 48, "university": "University of Illinois at Urbana-Champaign", "osm_type": "relation", "osm_id": 12299045, "osm_name": "University of Illinois Urbana-Champaign"}, "geometry": {"type": "MultiPolygon", "coordinates": [[[[-88.2326103, 40.1109041], [-88.2326244, 40.1114009], [-88.2327933, 40.1113987], [-88.2330158, 40.1113987], [-88.2334252, 40.1113987], [-88.2334467, 40.1113905], [-88.2334462, 40.1113236], [-88.2334396, 40.1109841], [-88.233438, 40.1108985], [-88.2326103, 40.1109041]]], [[[-88.2334032, 40.1065544], [-88.2334008, 40.106309], [-88.232718, 40.1063154], [-88.2327205, 40.1065568], [-88.2334032, 40.1065544]]], [[[-88.2416696, 40.1078067], [-88.2421114, 40.1077984], [-88.2421473, 40.1077963], [-88.242177, 40.1076437], [-88.2423698, 40.1076733], [-88.2421446, 40.1089201], [-88.2416837, 40.10891], [-88.2416685, 40.1079691], [-88.2416691, 40.1079258], [-88.2416694, 40.1078833], [-88.2416697, 40.1078523], [-88.2416696, 40.1078067]]], [[[-88.2183467, 40.1002151], [-88.2183489, 40.1005926], [-88.2179204, 40.1005924], [-88.2179147, 40.1002187], [-88.2183467, 40.1002151]]], [[[-88.2909822, 40.0501373], [-88.28894, 40.0508606], [-88.2885935, 40.050905], [-88.2880425, 40.0506136], [-88.2872464, 40.0502975], [-88.2849343, 40.0484319], [-88.2841092, 40.0489696], [-88.2835702, 40.049008], [-88.2829018, 40.0489348], [-88.2823542, 40.0486484], [-88.2813168, 40.0476975], [-88.2790663, 40.0459677], [-88.2760108, 40.0436055], [-88.275803, 40.0434647], [-88.2755538, 40.0432151], [-88.2752956, 40.0430011], [-88.2740423, 40.0439971], [-88.2735296, 40.0437817], [-88.2702503, 40.0466217], [-88.2696114, 40.0467536], [-88.2684354, 40.0477919], [-88.2669933, 40.0467648], [-88.2669897, 40.0466341], [-88.2687305, 40.0451006], [-88.2687876, 40.0449385], [-88.2687317, 40.0440276], [-88.2684956, 40.0438962], [-88.2670794, 40.0450124], [-88.2668923, 40.0450533], [-88.266757, 40.0450579], [-88.2666777, 40.0450555], [-88.2666766, 40.0447158], [-88.2665731, 40.044712], [-88.2665165, 40.0433303], [-88.2665106, 40.0429484], [-88.2664674, 40.0397838], [-88.2665558, 40.0397103], [-88.2665617, 40.0395005], [-88.2665631, 40.0394472], [-88.2665639, 40.0394134], [-88.2596749, 40.0393087], [-88.2592707, 40.0392984], [-88.2592884, 40.0389402], [-88.2598716, 40.0389314], [-88.2601339, 40.037703], [-88.2603411, 40.0365946], [-88.260514, 40.0358451], [-88.2606199, 40.0356987], [-88.2607652, 40.0355335], [-88.2618452, 40.0345215], [-88.2634688, 40.0333088], [-88.2625493, 40.0326155], [-88.2626236, 40.0325717], [-88.262713, 40.032507], [-88.2627289, 40.032417], [-88.2626888, 40.0315223], [-88.2626871, 40.0314421], [-88.2626806, 40.0300797], [-88.2622291, 40.0296873], [-88.2621802, 40.0296295], [-88.2587015, 40.0268177], [-88.2586987, 40.0267003], [-88.2595796, 40.0261129], [-88.2631252, 40.0289003], [-88.2631854, 40.0289456], [-88.2633832, 40.0290981], [-88.2639581, 40.0286692], [-88.2640692, 40.0286658], [-88.2641312, 40.0287338], [-88.2641616, 40.0288236], [-88.2658384, 40.0301978], [-88.2661921, 40.030185], [-88.2663285, 40.0301843], [-88.2666731, 40.0301604], [-88.2668573, 40.0301879], [-88.2680557, 40.0311253], [-88.2687913, 40.0306025], [-88.2676108, 40.029668], [-88.2678237, 40.0295167], [-88.2690228, 40.0304448], [-88.2694504, 40.0300961], [-88.2724673, 40.0324416], [-88.2725907, 40.0325321], [-88.2727512, 40.0326773], [-88.2745884, 40.0341195], [-88.2748622, 40.0342302], [-88.2757749, 40.0343914], [-88.2759194, 40.0342908], [-88.2761521, 40.034289], [-88.2771632, 40.0349177], [-88.279611, 40.032866], [-88.2797555, 40.0326697], [-88.2797209, 40.0323867], [-88.280524, 40.0323959], [-88.2805279, 40.0318889], [-88.280779, 40.0318383], [-88.2823196, 40.0303292], [-88.2825032, 40.0297623], [-88.2825487, 40.0297467], [-88.2827017, 40.029753], [-88.282844, 40.0297505], [-88.28294, 40.0297948], [-88.2846808, 40.0310049], [-88.2857662, 40.0300412], [-88.2867946, 40.0290994], [-88.2885541, 40.0303005], [-88.2886279, 40.0304156], [-88.2882695, 40.0307931], [-88.2831017, 40.0353135], [-88.2831437, 40.039627], [-88.2831492, 40.0398267], [-88.2832457, 40.0433437], [-88.2832486, 40.0434487], [-88.2832789, 40.0442904], [-88.2892123, 40.0488999], [-88.2909822, 40.0501373]]], [[[-88.238235, 40.0690445], [-88.2381562, 40.0508082], [-88.2370384, 40.0508258], [-88.2370311, 40.0499002], [-88.2380781, 40.0498955], [-88.2380673, 40.0487297], [-88.2373388, 40.0487336], [-88.2373377, 40.0481384], [-88.238056, 40.0481368], [-88.2380888, 40.0397929], [-88.2235111, 40.0398342], [-88.223594, 40.0434156], [-88.2282844, 40.0434078], [-88.2283047, 40.0444555], [-88.2284955, 40.0543284], [-88.2272312, 40.0543569], [-88.2272312, 40.0537887], [-88.2263439, 40.0537934], [-88.2263497, 40.05437], [-88.2093784, 40.0544457], [-88.2093783, 40.0537865], [-88.2079928, 40.0538257], [-88.2079774, 40.0544381], [-88.1902577, 40.0547227], [-88.1903851, 40.0691727], [-88.2093067, 40.0690548], [-88.2095373, 40.0874371], [-88.2097097, 40.0981584], [-88.2097212, 40.0981866], [-88.2097501, 40.0982158], [-88.2098088, 40.0982276], [-88.210228, 40.0982191], [-88.2106618, 40.0982475], [-88.2154404, 40.0981884], [-88.2178134, 40.0981741], [-88.2188766, 40.0980779], [-88.2192448, 40.0980766], [-88.2192528, 40.0983692], [-88.2192658, 40.0988694], [-88.2192761, 40.0991901], [-88.2192758, 40.0994146], [-88.219271, 40.0995711], [-88.2192593, 40.0997197], [-88.2192358, 40.0999164], [-88.21922, 40.1000395], [-88.2192118, 40.1001384], [-88.2192054, 40.1002924], [-88.2192017, 40.1004086], [-88.2192514, 40.1031051], [-88.2192556, 40.1033375], [-88.219281, 40.1046664], [-88.2192955, 40.105484], [-88.2193834, 40.1054834], [-88.2198057, 40.1054786], [-88.2198085, 40.1056321], [-88.2198201, 40.1059315], [-88.2198222, 40.1060457], [-88.2194878, 40.1060479], [-88.2194224, 40.106052], [-88.2193894, 40.1060563], [-88.2193672, 40.1060659], [-88.2193405, 40.1060869], [-88.2193295, 40.1061162], [-88.2193281, 40.1061446], [-88.2193359, 40.10648], [-88.2201996, 40.1064757], [-88.2202001, 40.1065263], [-88.2202942, 40.1065257], [-88.2202948, 40.1065796], [-88.220504, 40.1065782], [-88.2205082, 40.106948], [-88.2205082, 40.107069], [-88.2195696, 40.1070753], [-88.2194394, 40.1070753], [-88.2194062, 40.1070822], [-88.2193844, 40.1070926], [-88.219368, 40.1071096], [-88.2193537, 40.1071267], [-88.2193452, 40.107156], [-88.2193742, 40.1081654], [-88.2193861, 40.1089273], [-88.2193913, 40.1092282], [-88.2194038, 40.1105038], [-88.2195048, 40.1105016], [-88.2204227, 40.1104814], [-88.2204556, 40.1104807], [-88.2204768, 40.1104802], [-88.2206008, 40.1104775], [-88.2206153, 40.1113099], [-88.2206339, 40.112058], [-88.2206565, 40.1121822], [-88.2206946, 40.1122844], [-88.220711, 40.1123967], [-88.2207204, 40.1124659], [-88.2207212, 40.1127169], [-88.2207356, 40.112738], [-88.22236, 40.1127304], [-88.2223709, 40.11323], [-88.222376, 40.1134876], [-88.2223955, 40.1135117], [-88.2224534, 40.113517], [-88.2233768, 40.1135066], [-88.2233745, 40.113185], [-88.2235913, 40.1131828], [-88.2236005, 40.1135073], [-88.2238757, 40.1135063], [-88.2238993, 40.1139975], [-88.2231944, 40.1140078], [-88.2231978, 40.1144358], [-88.2232, 40.1145388], [-88.2225789, 40.1145416], [-88.2224458, 40.1145415], [-88.2223882, 40.1145824], [-88.2224025, 40.1149672], [-88.2224112, 40.1153512], [-88.2224159, 40.1154933], [-88.2224151, 40.1155461], [-88.222417, 40.1157804], [-88.222426, 40.1159573], [-88.2224271, 40.1161291], [-88.2224292, 40.1163391], [-88.2227612, 40.1163395], [-88.2237608, 40.1163165], [-88.2242927, 40.1162821], [-88.2287069, 40.1163007], [-88.2287431, 40.116299], [-88.2287803, 40.116292], [-88.2288211, 40.116274], [-88.2288502, 40.1162571], [-88.2288772, 40.1162243], [-88.2288886, 40.116196], [-88.2288925, 40.1161775], [-88.2288948, 40.1161512], [-88.228883, 40.1153955], [-88.2288763, 40.1148906], [-88.2288734, 40.1146558], [-88.2289087, 40.1146557], [-88.228907, 40.1144121], [-88.2289168, 40.1143936], [-88.228908, 40.1137624], [-88.2288712, 40.113763], [-88.2288827, 40.113673], [-88.2288766, 40.1134108], [-88.2288693, 40.1131983], [-88.2288546, 40.1131804], [-88.2288507, 40.1131725], [-88.228848, 40.1131654], [-88.2288463, 40.1131567], [-88.2288388, 40.1126666], [-88.2301924, 40.1126712], [-88.230295, 40.1126574], [-88.2303542, 40.1126212], [-88.2303668, 40.1125921], [-88.2303038, 40.1111977], [-88.2301439, 40.1112056], [-88.2301429, 40.1111117], [-88.2300857, 40.1111107], [-88.2300783, 40.1110199], [-88.2300734, 40.1109805], [-88.229775, 40.110996], [-88.2295007, 40.1111263], [-88.2294945, 40.1111861], [-88.2293177, 40.111193], [-88.2293253, 40.1115534], [-88.2288535, 40.1115581], [-88.228848, 40.1113718], [-88.2288202, 40.1113458], [-88.2288182, 40.1113324], [-88.2287898, 40.1113327], [-88.2287758, 40.1110856], [-88.2287785, 40.1106644], [-88.228757, 40.1098778], [-88.2288024, 40.1098767], [-88.228934, 40.1098737], [-88.229032, 40.1098714], [-88.2294131, 40.1098635], [-88.2296374, 40.109859], [-88.2298687, 40.1098557], [-88.2298619, 40.1094919], [-88.2301748, 40.1094857], [-88.230172, 40.1093246], [-88.2302858, 40.1093221], [-88.2302808, 40.1091564], [-88.2302803, 40.1091313], [-88.230279, 40.109082], [-88.2302776, 40.1090546], [-88.2302749, 40.1090032], [-88.2303714, 40.1090005], [-88.2304476, 40.1089984], [-88.2304699, 40.1089922], [-88.2310722, 40.1089924], [-88.2311995, 40.1089925], [-88.2311999, 40.1089163], [-88.2311935, 40.1085646], [-88.2304649, 40.1085744], [-88.2302562, 40.1084685], [-88.229486, 40.1084775], [-88.2294741, 40.1080512], [-88.2290213, 40.1080598], [-88.2289917, 40.1080601], [-88.2287462, 40.1080627], [-88.2287316, 40.1074433], [-88.2287119, 40.1067862], [-88.2287001, 40.105866], [-88.2287044, 40.105517], [-88.228718, 40.1054914], [-88.2287395, 40.1054652], [-88.2288264, 40.1054197], [-88.2289889, 40.1054111], [-88.2300807, 40.1053953], [-88.2304864, 40.10539], [-88.2312468, 40.1053853], [-88.2312495, 40.1054766], [-88.2312584, 40.1058842], [-88.2318107, 40.1058762], [-88.2319249, 40.1058736], [-88.2320256, 40.1058722], [-88.2320305, 40.1061839], [-88.2327178, 40.1061761], [-88.2327168, 40.1060076], [-88.2327878, 40.1060062], [-88.2327857, 40.1058864], [-88.2333964, 40.105882], [-88.2333872, 40.105536], [-88.2333858, 40.1052829], [-88.2333856, 40.1052717], [-88.2333668, 40.1042774], [-88.233363, 40.1040783], [-88.2335992, 40.1040766], [-88.2384895, 40.1040491], [-88.2387931, 40.1040507], [-88.2395235, 40.1040463], [-88.2395199, 40.1041388], [-88.2395229, 40.104397], [-88.239535, 40.1053475], [-88.2400156, 40.1053439], [-88.2404837, 40.1053362], [-88.2414401, 40.1053267], [-88.241557, 40.1053117], [-88.2415592, 40.1053614], [-88.24168, 40.1053898], [-88.2419562, 40.1053904], [-88.2419945, 40.1054241], [-88.2419891, 40.1056442], [-88.2419859, 40.1057728], [-88.2420225, 40.1057745], [-88.2420321, 40.1061607], [-88.2424665, 40.1061513], [-88.2426955, 40.1061389], [-88.2431629, 40.1028379], [-88.2445078, 40.0945818], [-88.2432554, 40.0945939], [-88.2432491, 40.090933], [-88.2432338, 40.0906726], [-88.2431866, 40.0898653], [-88.2432022, 40.0886684], [-88.2432008, 40.0870884], [-88.2454862, 40.0870867], [-88.245653, 40.0852495], [-88.2458221, 40.0837203], [-88.2460389, 40.0825875], [-88.2465034, 40.0809036], [-88.2481158, 40.0697264], [-88.2482107, 40.0690684], [-88.238235, 40.0690445]], [[-88.2254397, 40.1103748], [-88.2254784, 40.110351], [-88.2254739, 40.1101307], [-88.2254735, 40.1101087], [-88.2254696, 40.1099178], [-88.2254687, 40.1098746], [-88.225466, 40.1097405], [-88.2254656, 40.109725], [-88.2254632, 40.1096046], [-88.2254617, 40.1095338], [-88.224121, 40.1095468], [-88.2240393, 40.1095475], [-88.2240428, 40.1097672], [-88.2240439, 40.1098347], [-88.2240447, 40.109888], [-88.2240449, 40.1099032], [-88.2240467, 40.1100144], [-88.2240501, 40.110232], [-88.224052, 40.1102896], [-88.2240544, 40.1103045], [-88.2240648, 40.110319], [-88.224077, 40.1103314], [-88.2240863, 40.1103434], [-88.2240923, 40.1103542], [-88.2240954, 40.1103647], [-88.2241151, 40.1103768], [-88.2241299, 40.1103814], [-88.2241577, 40.1103894], [-88.2241765, 40.1103895], [-88.2243579, 40.1103886], [-88.2244183, 40.110388], [-88.2247407, 40.1103849], [-88.2248071, 40.110384], [-88.2251469, 40.1103796], [-88.225191, 40.1103788], [-88.2254397, 40.1103748]], [[-88.2309549, 40.1004843], [-88.2309805, 40.1004593], [-88.2309733, 40.099954], [-88.2331814, 40.099943], [-88.2332782, 40.0999425], [-88.2332626, 40.0982576], [-88.2332123, 40.0982035], [-88.2331178, 40.0981741], [-88.2309661, 40.0981782], [-88.2234442, 40.0982219], [-88.2234927, 40.1005542], [-88.2309549, 40.1004843]], [[-88.2383469, 40.0724971], [-88.2384005, 40.0798775], [-88.2372847, 40.0798857], [-88.2372632, 40.0798036], [-88.2371989, 40.0725053], [-88.2383469, 40.0724971]], [[-88.2239993, 40.1064838], [-88.2242373, 40.1064833], [-88.2244005, 40.1064837], [-88.2243942, 40.1062779], [-88.2242508, 40.1062788], [-88.2242475, 40.106042], [-88.2239858, 40.106045], [-88.2239734, 40.1060513], [-88.223978, 40.1064838], [-88.2239993, 40.1064838]], [[-88.224874, 40.105871], [-88.224866, 40.1054667], [-88.2253873, 40.1054626], [-88.22539, 40.1058666], [-88.224874, 40.105871]], [[-88.2220943, 40.1069361], [-88.2220856, 40.1064871], [-88.221882, 40.1064904], [-88.221871, 40.1060292], [-88.2209008, 40.1060329], [-88.2209257, 40.1069466], [-88.2218312, 40.1069393], [-88.2220943, 40.1069361]], [[-88.2220943, 40.1069361], [-88.2225886, 40.1069333], [-88.2225867, 40.1066365], [-88.2225843, 40.1064846], [-88.223051, 40.1064799], [-88.2230491, 40.1062775], [-88.2230367, 40.1060249], [-88.222264, 40.1060278], [-88.2219032, 40.1060289], [-88.221871, 40.1060292], [-88.221882, 40.1064904], [-88.2220856, 40.1064871], [-88.2220943, 40.1069361]], [[-88.2227424, 40.1005599], [-88.2216556, 40.1005656], [-88.2214627, 40.1005666], [-88.2214565, 40.0999725], [-88.2221214, 40.099965], [-88.2221194, 40.0998783], [-88.2227999, 40.0998604], [-88.2228144, 40.100502], [-88.2228108, 40.1005209], [-88.2227981, 40.1005412], [-88.2227798, 40.1005507], [-88.2227613, 40.1005586], [-88.2227424, 40.1005599]], [[-88.2249517, 40.106936], [-88.2253472, 40.1069338], [-88.2253868, 40.1069344], [-88.2254208, 40.1069296], [-88.2254466, 40.1069153], [-88.2254651, 40.1068976], [-88.2254702, 40.106875], [-88.2254624, 40.1065482], [-88.225458, 40.1062112], [-88.224929, 40.1062137], [-88.2249397, 40.1065531], [-88.2249517, 40.106936]]], [[[-88.2314055, 40.1069119], [-88.2314141, 40.1073919], [-88.2309387, 40.1073928], [-88.2309324, 40.1070736], [-88.2309319, 40.1069161], [-88.2304599, 40.1069204], [-88.2304315, 40.1069297], [-88.2304399, 40.1072244], [-88.2304413, 40.1072511], [-88.2302342, 40.1072531], [-88.2296956, 40.1072595], [-88.2296984, 40.1074808], [-88.2295198, 40.1074863], [-88.2295308, 40.1078947], [-88.2297107, 40.1078905], [-88.2298447, 40.1078873], [-88.2302526, 40.1079213], [-88.2302723, 40.1079011], [-88.2304296, 40.1078974], [-88.2304482, 40.107914], [-88.230484, 40.1079222], [-88.2310433, 40.1078886], [-88.2312055, 40.1078893], [-88.231208, 40.1084837], [-88.2312836, 40.1084826], [-88.2318465, 40.1084742], [-88.2319129, 40.1084732], [-88.2319103, 40.1083139], [-88.2319125, 40.1080449], [-88.2319123, 40.1080171], [-88.2319089, 40.107957], [-88.2319062, 40.1079075], [-88.2319059, 40.1078892], [-88.231933, 40.1078892], [-88.2320037, 40.1078891], [-88.2320691, 40.1078891], [-88.2321317, 40.1078891], [-88.2325236, 40.1079061], [-88.2327922, 40.1079046], [-88.2327792, 40.107239], [-88.2328049, 40.1072387], [-88.2333351, 40.1072342], [-88.2334199, 40.1072335], [-88.2334096, 40.1069695], [-88.2334042, 40.1069334], [-88.2333794, 40.1068943], [-88.2333462, 40.1068729], [-88.2333082, 40.106861], [-88.2332598, 40.1068559], [-88.2332115, 40.1068619], [-88.2331838, 40.1068732], [-88.2331549, 40.1068756], [-88.2324832, 40.1068804], [-88.2319466, 40.1068824], [-88.231939, 40.1065169], [-88.2319305, 40.1061707], [-88.2318524, 40.106171], [-88.2318189, 40.1061711], [-88.2311566, 40.1061738], [-88.2311555, 40.1063267], [-88.2304192, 40.1063396], [-88.2304306, 40.1067516], [-88.2304599, 40.1067696], [-88.2311481, 40.1067605], [-88.231404, 40.1067571], [-88.2314055, 40.1069119]]]]}}