{"type": "Feature", "properties": {"market_key": 483, "university": "Ferris State University", "osm_type": "relation", "osm_id": 17296092, "osm_name": "Ferris State University"}, "geometry": {"type": "MultiPolygon", "coordinates": [[[[-85.4769758, 43.6764157], [-85.47869, 43.6763256], [-85.4787667, 43.6727404], [-85.4819284, 43.6727398], [-85.4818825, 43.6768247], [-85.4834208, 43.6768151], [-85.4834324, 43.6769953], [-85.4836931, 43.677021], [-85.483912, 43.6769895], [-85.4841282, 43.6769139], [-85.484166, 43.6769074], [-85.4844317, 43.6768495], [-85.4888561, 43.6767946], [-85.4935494, 43.6767777], [-85.4935612, 43.6784673], [-85.4901636, 43.678509], [-85.4902383, 43.680539], [-85.4935834, 43.6805808], [-85.4935316, 43.6827555], [-85.4935371, 43.6834874], [-85.49354, 43.6838841], [-85.4935417, 43.6840992], [-85.4935419, 43.6841327], [-85.4937579, 43.684234], [-85.4947574, 43.6842546], [-85.4947746, 43.6849284], [-85.4939835, 43.685517], [-85.4939466, 43.6875363], [-85.4927376, 43.6875887], [-85.4912965, 43.6876359], [-85.491312, 43.6866872], [-85.4881137, 43.6866597], [-85.4880916, 43.6875956], [-85.4852468, 43.6875279], [-85.4852872, 43.6859165], [-85.4852921, 43.6856871], [-85.4838921, 43.6856362], [-85.4834119, 43.6856163], [-85.4836479, 43.6903405], [-85.4817403, 43.690351], [-85.4804201, 43.6903583], [-85.4802349, 43.6903593], [-85.4802463, 43.6915152], [-85.4802451, 43.6924181], [-85.480265, 43.692962], [-85.4802663, 43.6929974], [-85.4796336, 43.6930095], [-85.4774885, 43.6930199], [-85.4774211, 43.6930203], [-85.4773038, 43.6860403], [-85.4743076, 43.6860685], [-85.4742867, 43.6848749], [-85.4758237, 43.6848757], [-85.475807, 43.6841986], [-85.4743045, 43.684218], [-85.4733901, 43.6842468], [-85.4735754, 43.6839892], [-85.4737572, 43.6836682], [-85.473768, 43.6835475], [-85.4737642, 43.6833414], [-85.4737114, 43.6829487], [-85.4736907, 43.6825756], [-85.4736355, 43.6822449], [-85.4736949, 43.6821122], [-85.4738062, 43.6819646], [-85.4739439, 43.6818873], [-85.4741399, 43.6818408], [-85.4743265, 43.681855], [-85.4744518, 43.6819695], [-85.4746598, 43.682126], [-85.4749776, 43.6821915], [-85.4751565, 43.6821815], [-85.4753771, 43.6820964], [-85.4755651, 43.6819643], [-85.4759399, 43.6817242], [-85.4762056, 43.6815852], [-85.4764424, 43.6814507], [-85.4766122, 43.6812029], [-85.4767145, 43.6809427], [-85.4767542, 43.6807019], [-85.4767715, 43.6804983], [-85.4767619, 43.6802672], [-85.4767657, 43.6800677], [-85.4767681, 43.6798601], [-85.4768355, 43.6797441], [-85.4768948, 43.6795848], [-85.4769946, 43.6794371], [-85.4771875, 43.6792326], [-85.4773788, 43.6790732], [-85.4775138, 43.6789563], [-85.4776419, 43.6788219], [-85.4777918, 43.6786003], [-85.4780533, 43.6782732], [-85.4780449, 43.6780004], [-85.4780325, 43.6776276], [-85.4780589, 43.6773767], [-85.4779748, 43.6771843], [-85.4769758, 43.6764157]]]]}}