{"type": "Feature", "properties": {"market_key": 494, "university": "Valparaiso University", "osm_type": "way", "osm_id": 293490494, "osm_name": "Valparaiso University"}, "geometry": {"type": "Polygon", "coordinates": [[[-87.0423328, 41.4665267], [-87.0423312, 41.4666539], [-87.0423312, 41.4666833], [-87.0423319, 41.467732], [-87.042332, 41.4678172], [-87.0424565, 41.467817], [-87.0424995, 41.467818], [-87.0428896, 41.4678163], [-87.0429788, 41.4678162], [-87.0429782, 41.4677418], [-87.0429752, 41.4673765], [-87.0429731, 41.4671269], [-87.0429757, 41.4667403], [-87.0429758, 41.4667182], [-87.0429781, 41.466635], [-87.0430781, 41.4666427], [-87.0431414, 41.4666476], [-87.0434369, 41.4666705], [-87.0437496, 41.4666948], [-87.0441509, 41.4667259], [-87.0450642, 41.4667966], [-87.0450746, 41.4667974], [-87.0450729, 41.4667239], [-87.0450157, 41.4635686], [-87.045033, 41.4635718], [-87.0451047, 41.463585], [-87.0451941, 41.4635908], [-87.0456537, 41.4635932], [-87.045799, 41.4635939], [-87.0459248, 41.4635943], [-87.0459807, 41.4635944], [-87.0465067, 41.4635957], [-87.0465075, 41.4636429], [-87.0465077, 41.463666], [-87.0465124, 41.4639573], [-87.0465224, 41.4645863], [-87.0465585, 41.4668528], [-87.0465593, 41.4669125], [-87.0465995, 41.4669156], [-87.046736, 41.4669267], [-87.0475572, 41.4669935], [-87.0476225, 41.4669988], [-87.0476927, 41.4670045], [-87.0483943, 41.4670615], [-87.048603, 41.4670785], [-87.0486208, 41.4670799], [-87.0486216, 41.4670197], [-87.0486217, 41.4670062], [-87.0486264, 41.4662388], [-87.0492172, 41.466245], [-87.0492441, 41.4659231], [-87.0492528, 41.4658185], [-87.0492516, 41.4648573], [-87.0492561, 41.4636602], [-87.0492575, 41.463598], [-87.0493628, 41.4635988], [-87.0496659, 41.4636012], [-87.0499969, 41.4636038], [-87.050334, 41.4636064], [-87.0509301, 41.4636111], [-87.0515246, 41.4636158], [-87.0515746, 41.4636156], [-87.0524464, 41.4636126], [-87.0525128, 41.4636124], [-87.052512, 41.4635666], [-87.0525047, 41.4631469], [-87.0524982, 41.4627786], [-87.0524969, 41.4627019], [-87.0525907, 41.4627028], [-87.0536697, 41.4627137], [-87.053767, 41.4627147], [-87.0538894, 41.4627149], [-87.0543648, 41.4627157], [-87.0549797, 41.4627168], [-87.05505, 41.4627169], [-87.0550502, 41.462686], [-87.0550547, 41.4621018], [-87.0550552, 41.4620401], [-87.0551132, 41.4620406], [-87.0554546, 41.4620437], [-87.0554514, 41.4616618], [-87.0556406, 41.4614855], [-87.054564, 41.4608102], [-87.0545214, 41.4608417], [-87.0541513, 41.4611156], [-87.052596, 41.4609405], [-87.0525035, 41.4609301], [-87.0525014, 41.4602163], [-87.0524973, 41.4598212], [-87.0525135, 41.4596666], [-87.0525912, 41.4595726], [-87.0526635, 41.4595143], [-87.0527377, 41.459492], [-87.0534369, 41.4594898], [-87.0541669, 41.4594875], [-87.0541669, 41.4594426], [-87.0541668, 41.4589733], [-87.0536263, 41.4589607], [-87.053604, 41.45787], [-87.053384, 41.45787], [-87.0521023, 41.4589492], [-87.0518913, 41.4591269], [-87.0518909, 41.4591752], [-87.0518832, 41.4601289], [-87.0518768, 41.4609239], [-87.0513349, 41.4609186], [-87.0512895, 41.4609181], [-87.0501349, 41.4609123], [-87.0497854, 41.4609106], [-87.048874, 41.4609172], [-87.0488467, 41.461735], [-87.0488429, 41.4618474], [-87.0487473, 41.4618094], [-87.0484558, 41.4616935], [-87.0479287, 41.4614944], [-87.0449649, 41.4604748], [-87.0443438, 41.4602604], [-87.0440376, 41.4602386], [-87.0420504, 41.4606202], [-87.0420394, 41.4605284], [-87.0413728, 41.4606121], [-87.040599, 41.4606504], [-87.0404803, 41.4606503], [-87.0395736, 41.4606497], [-87.0386177, 41.4605873], [-87.0376502, 41.4604396], [-87.036805, 41.4602897], [-87.0367496, 41.460903], [-87.0368896, 41.463173], [-87.0344621, 41.4631496], [-87.0338416, 41.4631509], [-87.0338033, 41.4611385], [-87.0344379, 41.4611449], [-87.0344387, 41.4610811], [-87.0360452, 41.461082], [-87.036044, 41.4610123], [-87.0360412, 41.4608558], [-87.0358835, 41.4608531], [-87.0358764, 41.4607245], [-87.0357209, 41.4606146], [-87.0348614, 41.4605374], [-87.0344383, 41.4603493], [-87.0342155, 41.4606071], [-87.0328039, 41.4599035], [-87.0318822, 41.4599141], [-87.0318296, 41.4601189], [-87.0315447, 41.4602119], [-87.0309469, 41.4602144], [-87.0286413, 41.4602239], [-87.0293223, 41.4613232], [-87.0288974, 41.4622872], [-87.0281116, 41.4627495], [-87.0274772, 41.4636612], [-87.0315827, 41.4635712], [-87.0319946, 41.4635734], [-87.0342424, 41.4635851], [-87.0365332, 41.4636002], [-87.0366188, 41.4635976], [-87.0367085, 41.4648555], [-87.0367049, 41.4652019], [-87.0367009, 41.4655959], [-87.0369281, 41.4657711], [-87.0370536, 41.4657921], [-87.037198, 41.4658195], [-87.0373118, 41.4658496], [-87.0375255, 41.465926], [-87.0376938, 41.4659973], [-87.0378808, 41.4660969], [-87.0380705, 41.4661898], [-87.0382079, 41.4662424], [-87.0383841, 41.4662917], [-87.0385777, 41.4663251], [-87.0388106, 41.4663511], [-87.0389493, 41.4663508], [-87.0390252, 41.4663259], [-87.0396281, 41.4663489], [-87.039739, 41.4663529], [-87.0411694, 41.4664384], [-87.0421122, 41.4665088], [-87.0423328, 41.4665267]]]}}