{"type": "Feature", "properties": {"market_key": 496, "university": "Illinois State University", "osm_type": "relation", "osm_id": 11664205, "osm_name": "Illinois State University"}, "geometry": {"type": "MultiPolygon", "coordinates": [[[[-89.0015567, 40.5172254], [-89.0016152, 40.5168079], [-89.0016109, 40.5166672], [-89.0014436, 40.5099759], [-89.0014361, 40.5099434], [-89.0014285, 40.5099294], [-89.0014138, 40.509911], [-89.0013793, 40.5098951], [-89.00135, 40.5098847], [-88.9980689, 40.5099695], [-88.9976558, 40.5099818], [-88.9973742, 40.5100103], [-88.997114, 40.5100613], [-88.9968967, 40.5101367], [-88.9968859, 40.5101423], [-88.9968538, 40.5101588], [-88.9967144, 40.5102306], [-88.9966232, 40.5100287], [-88.9965937, 40.5098941], [-88.9965776, 40.5092558], [-88.9965239, 40.5092007], [-88.99643, 40.5091885], [-88.9963871, 40.5092048], [-88.9963576, 40.5092333], [-88.9962691, 40.5093006], [-88.9961189, 40.5093014], [-88.9960423, 40.5093018], [-88.9952342, 40.5093337], [-88.9952148, 40.5088971], [-88.9961328, 40.5088734], [-88.9962118, 40.5088739], [-88.9962565, 40.5088775], [-88.9963445, 40.5088958], [-88.9964181, 40.5089214], [-88.9964518, 40.508945], [-88.9965046, 40.5088374], [-88.9965228, 40.5087937], [-88.9965394, 40.5086981], [-88.9965415, 40.508578], [-88.9965236, 40.5080055], [-88.9948923, 40.5080191], [-88.9947805, 40.50802], [-88.9947565, 40.5074529], [-88.9947433, 40.5071366], [-88.9946741, 40.5055783], [-88.9946657, 40.5056051], [-88.9946361, 40.5056164], [-88.9936477, 40.5056333], [-88.9936423, 40.5053297], [-88.9937121, 40.505319], [-88.9937281, 40.5053031], [-88.9937275, 40.5052328], [-88.9940377, 40.5052274], [-88.9940288, 40.5048164], [-88.9940302, 40.5047368], [-88.9938552, 40.5047386], [-88.9938487, 40.5045175], [-88.9930378, 40.5045324], [-88.9930105, 40.5039243], [-88.9930378, 40.5038664], [-88.9927251, 40.5041643], [-88.9922265, 40.5046166], [-88.9917814, 40.5049386], [-88.9912102, 40.5052953], [-88.9909712, 40.5054287], [-88.9902627, 40.5058593], [-88.9900893, 40.5056897], [-88.9892189, 40.5061602], [-88.9892622, 40.5063832], [-88.9892865, 40.5064018], [-88.9888208, 40.5066567], [-88.9886085, 40.5064442], [-88.9876065, 40.5069916], [-88.9877793, 40.5071843], [-88.9878748, 40.5072909], [-88.9870535, 40.5077116], [-88.9871782, 40.5102769], [-88.987223, 40.5111972], [-88.9872275, 40.5112906], [-88.9873819, 40.5112951], [-88.9876243, 40.5112872], [-88.9876418, 40.5118353], [-88.9874104, 40.5118444], [-88.9874197, 40.5123167], [-88.9879633, 40.5123093], [-88.9879707, 40.5125526], [-88.9883409, 40.5125382], [-88.9883607, 40.5130074], [-88.9886472, 40.5130025], [-88.9886759, 40.513497], [-88.9889562, 40.5134959], [-88.9889338, 40.5129975], [-88.9897358, 40.5129837], [-88.989736, 40.5130941], [-88.9897622, 40.5138533], [-88.9897766, 40.5138741], [-88.9898003, 40.5138797], [-88.9942496, 40.5137803], [-88.9942046, 40.5129856], [-88.9941999, 40.5129038], [-88.9951986, 40.5128926], [-88.9951956, 40.5157162], [-88.9952164, 40.5158718], [-88.9952685, 40.5159424], [-88.9953486, 40.5160066], [-88.9955407, 40.5160589], [-88.9960327, 40.5161148], [-88.9960341, 40.516286], [-88.9960384, 40.5168178], [-88.9960423, 40.5173113], [-88.9958593, 40.51731], [-88.9958835, 40.5186762], [-88.995266, 40.5186883], [-88.9953679, 40.5207197], [-88.9970974, 40.5206574], [-88.9971827, 40.5206544], [-88.9975625, 40.5206482], [-88.9972368, 40.5204529], [-88.997401, 40.5198184], [-88.9975371, 40.5193744], [-88.9976898, 40.519376], [-88.9984578, 40.5193585], [-89.0002251, 40.519304], [-89.001572, 40.5192821], [-89.0016838, 40.5192803], [-89.0017027, 40.5200894], [-89.0017137, 40.5206173], [-89.0019541, 40.5206105], [-89.0019876, 40.5234233], [-89.0021574, 40.5275599], [-89.0021619, 40.5277071], [-89.0022051, 40.5291689], [-89.002218, 40.5305419], [-89.0022235, 40.5309672], [-89.0019417, 40.5309637], [-89.0011617, 40.5309728], [-88.9997619, 40.5309871], [-88.999763, 40.5312331], [-88.9997832, 40.5318048], [-89.0002915, 40.5318146], [-89.0010431, 40.5318115], [-89.0022358, 40.531789], [-89.0073225, 40.531763], [-89.0072946, 40.5297433], [-89.0072423, 40.5262948], [-89.0072033, 40.5255572], [-89.0071945, 40.5253486], [-89.0089807, 40.5253201], [-89.016979, 40.5252426], [-89.0212438, 40.5252263], [-89.0210292, 40.5172174], [-89.0064914, 40.5172212], [-89.0015567, 40.5172254]], [[-88.9897245, 40.5116604], [-88.9904025, 40.5116548], [-88.9904531, 40.5116544], [-88.9904993, 40.5116611], [-88.9904958, 40.5117144], [-88.9905169, 40.5117299], [-88.9905529, 40.5117625], [-88.9905957, 40.5129366], [-88.9897928, 40.5129553], [-88.9897245, 40.5116604]], [[-88.9950261, 40.5104651], [-88.9949701, 40.509603], [-88.995773, 40.5095817], [-88.9955633, 40.509753], [-88.9954946, 40.5098053], [-88.9953454, 40.5099245], [-88.995134, 40.5102015], [-88.9950391, 40.5104654], [-88.9950261, 40.5104651]], [[-88.9889012, 40.5125798], [-88.988913, 40.5127839], [-88.9895528, 40.5127643], [-88.9895376, 40.5125628], [-88.9889012, 40.5125798]], [[-88.9888745, 40.5112629], [-88.9888062, 40.5112656], [-88.9886761, 40.5112674], [-88.9885302, 40.5112694], [-88.9882894, 40.5112727], [-88.9879099, 40.5112788], [-88.9879139, 40.5117947], [-88.9883135, 40.5117805], [-88.9883095, 40.5118555], [-88.9883643, 40.5118552], [-88.98888, 40.5118429], [-88.9895096, 40.5118282], [-88.9895443, 40.5118259], [-88.9895162, 40.5112329], [-88.9895016, 40.5111996], [-88.9894803, 40.5111663], [-88.9894263, 40.5111347], [-88.9893971, 40.5111313], [-88.9893566, 40.5111338], [-88.9893173, 40.5111432], [-88.9892701, 40.5111586], [-88.9891903, 40.5111936], [-88.9890981, 40.5112235], [-88.9890217, 40.5112415], [-88.9889565, 40.5112543], [-88.9889093, 40.5112577], [-88.9888745, 40.5112629]]], [[[-89.0089086, 40.5150862], [-89.0075406, 40.5150874], [-89.00753, 40.5144344], [-89.0065644, 40.5144221], [-89.0065343, 40.5133382], [-89.0088912, 40.5133093], [-89.0089086, 40.5150862]]], [[[-88.9955266, 40.5246399], [-88.9955491, 40.5253731], [-88.9965448, 40.525359], [-88.9965894, 40.5253925], [-88.9966202, 40.5254148], [-88.9967077, 40.5254148], [-88.9967077, 40.5254092], [-88.9971096, 40.5254022], [-88.9976713, 40.5253953], [-88.9976494, 40.5246157], [-88.9955266, 40.5246399]]], [[[-88.9938313, 40.503958], [-88.9938251, 40.5037782], [-88.9938152, 40.503593], [-88.9945831, 40.5035736], [-88.994601, 40.5039401], [-88.9938313, 40.503958]]], [[[-88.9874368, 40.5127039], [-88.9874514, 40.5129772], [-88.987963, 40.5129673], [-88.9879593, 40.5126949], [-88.9874368, 40.5127039]]]]}}