{"type": "Feature", "properties": {"market_key": 500, "university": "Wichita State University", "osm_type": "way", "osm_id": 461444397, "osm_name": "Wichita State University"}, "geometry": {"type": "Polygon", "coordinates": [[[-97.298959, 37.7156114], [-97.2988863, 37.7156122], [-97.2966554, 37.715637], [-97.2964927, 37.7156388], [-97.2927911, 37.7156799], [-97.2808325, 37.7156968], [-97.2808338, 37.7161236], [-97.2808663, 37.7164194], [-97.28084, 37.7171602], [-97.2808408, 37.7178245], [-97.2808386, 37.7181575], [-97.2808311, 37.7187386], [-97.2808322, 37.7199473], [-97.2808591, 37.7200921], [-97.2808612, 37.7203026], [-97.2808627, 37.7204837], [-97.2808823, 37.7209908], [-97.2808631, 37.7220507], [-97.2808777, 37.7224347], [-97.2808933, 37.7227651], [-97.2863431, 37.7227463], [-97.2922441, 37.7227046], [-97.2926491, 37.7227016], [-97.2935125, 37.7226952], [-97.2989307, 37.7226551], [-97.2989541, 37.7168336], [-97.298959, 37.7156114]]]}}