{"type": "Feature", "properties": {"market_key": 504, "university": "Old Dominion University", "osm_type": "relation", "osm_id": 9198227, "osm_name": "Old Dominion University"}, "geometry": {"type": "MultiPolygon", "coordinates": [[[[-76.3024908, 36.8821038], [-76.3025138, 36.8825183], [-76.3026057, 36.8825824], [-76.3034875, 36.8825528], [-76.3034616, 36.8820049], [-76.3025378, 36.882034], [-76.3024908, 36.8821038]]], [[[-76.3029798, 36.8883416], [-76.3029812, 36.8883759], [-76.3030196, 36.8885406], [-76.3030866, 36.8887838], [-76.3030577, 36.8887926], [-76.3031662, 36.8891976], [-76.3032248, 36.8893998], [-76.3032805, 36.8895771], [-76.3032988, 36.8896315], [-76.3034812, 36.889997], [-76.3037867, 36.8905306], [-76.3041025, 36.8911074], [-76.3041344, 36.8911054], [-76.304234, 36.891354], [-76.3042176, 36.8913544], [-76.3042432, 36.8914355], [-76.3042614, 36.891545], [-76.3042656, 36.8916315], [-76.3042523, 36.8917636], [-76.3042174, 36.8919148], [-76.3049053, 36.8918961], [-76.3048706, 36.8913318], [-76.304856, 36.8913317], [-76.3048045, 36.8910838], [-76.304812, 36.8910846], [-76.3047869, 36.890597], [-76.3047818, 36.8905106], [-76.3047885, 36.8904592], [-76.3048226, 36.8904029], [-76.3048641, 36.8903691], [-76.304903, 36.8903348], [-76.3050378, 36.8901872], [-76.3052379, 36.8903074], [-76.3052345, 36.8903152], [-76.3052391, 36.8903284], [-76.305252, 36.8903376], [-76.3052646, 36.8903421], [-76.3056906, 36.8903275], [-76.3056723, 36.8900389], [-76.3055173, 36.8899777], [-76.3052919, 36.8898887], [-76.3053574, 36.8898108], [-76.3055662, 36.8895544], [-76.3057371, 36.8893002], [-76.3058028, 36.8891978], [-76.3058391, 36.8891275], [-76.305865, 36.8890627], [-76.3058847, 36.8890113], [-76.3058934, 36.8889609], [-76.3058995, 36.8888765], [-76.3058896, 36.8885644], [-76.3058832, 36.8884443], [-76.3058751, 36.8882796], [-76.3062498, 36.8882675], [-76.3062913, 36.8881734], [-76.3063432, 36.8880829], [-76.3064221, 36.887973], [-76.3063295, 36.8879757], [-76.3063201, 36.8876775], [-76.3063204, 36.8875396], [-76.3067021, 36.8875148], [-76.3080964, 36.8874669], [-76.3080977, 36.8874511], [-76.3119355, 36.8873208], [-76.3119434, 36.8874802], [-76.3119578, 36.88777], [-76.3122989, 36.8877571], [-76.3122887, 36.8875394], [-76.3126253, 36.8875289], [-76.3126226, 36.8874576], [-76.3125648, 36.8874576], [-76.3125515, 36.8873002], [-76.3125791, 36.8872887], [-76.3125888, 36.8872817], [-76.312603, 36.8872585], [-76.3125683, 36.8865519], [-76.3125677, 36.8865319], [-76.3128432, 36.8865577], [-76.3128437, 36.8865658], [-76.3134445, 36.8865442], [-76.3134485, 36.8866704], [-76.3134583, 36.8869793], [-76.3135428, 36.8869759], [-76.3135295, 36.8866715], [-76.3135238, 36.8865413], [-76.3147409, 36.8864972], [-76.3150055, 36.8864827], [-76.3163749, 36.886439], [-76.3163842, 36.8865915], [-76.3164019, 36.8868824], [-76.3162432, 36.8868884], [-76.3162479, 36.8869844], [-76.3162402, 36.8869849], [-76.3162474, 36.8871754], [-76.3169029, 36.8871575], [-76.3169182, 36.8871468], [-76.3169221, 36.8871332], [-76.3168982, 36.8866088], [-76.3168862, 36.886588], [-76.316866, 36.8865808], [-76.3165444, 36.8865906], [-76.3169101, 36.8859228], [-76.3169124, 36.8858904], [-76.3168815, 36.8858709], [-76.3168831, 36.8858385], [-76.3169566, 36.885836], [-76.3174599, 36.8849532], [-76.3173364, 36.8849055], [-76.3173236, 36.884927], [-76.317016, 36.8848224], [-76.3167767, 36.8847291], [-76.316002, 36.8847965], [-76.3147602, 36.884834], [-76.3147534, 36.8847074], [-76.3145433, 36.8847156], [-76.3145484, 36.884817], [-76.3127601, 36.8848744], [-76.3124785, 36.8848852], [-76.3124727, 36.8847196], [-76.3127536, 36.8847111], [-76.3145896, 36.884648], [-76.3145417, 36.883769], [-76.3124238, 36.8838356], [-76.3123902, 36.8831684], [-76.3123412, 36.8831358], [-76.3102696, 36.8832015], [-76.3086356, 36.8832572], [-76.3084618, 36.8832792], [-76.3058401, 36.8833796], [-76.304933, 36.8834129], [-76.3045003, 36.8834245], [-76.304344, 36.88343], [-76.3042429, 36.8834347], [-76.3039969, 36.8834463], [-76.3034233, 36.8834918], [-76.3026791, 36.8835205], [-76.302607, 36.8835865], [-76.3021586, 36.8835916], [-76.3021531, 36.8835523], [-76.3021283, 36.8835278], [-76.3020967, 36.883517], [-76.3020752, 36.8835128], [-76.3020672, 36.8832859], [-76.3021036, 36.8832725], [-76.3021258, 36.8832518], [-76.3021415, 36.8832252], [-76.3021135, 36.8826727], [-76.3015549, 36.8826899], [-76.3015174, 36.882086], [-76.301506, 36.8818987], [-76.3020697, 36.8818869], [-76.3020018, 36.8806157], [-76.2999916, 36.8806866], [-76.3000194, 36.8812482], [-76.3000246, 36.8813929], [-76.2983579, 36.8814492], [-76.2983819, 36.8820072], [-76.2984368, 36.8835958], [-76.2985688, 36.885086], [-76.2984895, 36.8855181], [-76.2984051, 36.8857337], [-76.2983011, 36.8862843], [-76.2982876, 36.8864998], [-76.2982605, 36.8866559], [-76.2986351, 36.8866424], [-76.298611, 36.8867475], [-76.2992131, 36.8867254], [-76.2991956, 36.8864381], [-76.2991825, 36.8862555], [-76.2993629, 36.8862488], [-76.2993666, 36.8864308], [-76.2993824, 36.8867191], [-76.3000011, 36.886699], [-76.3001122, 36.8869793], [-76.3001647, 36.8871174], [-76.3001193, 36.8871176], [-76.3001075, 36.8871346], [-76.3000764, 36.8871608], [-76.3000325, 36.887183], [-76.2999943, 36.8871904], [-76.2999577, 36.887192], [-76.2999171, 36.8871862], [-76.2998809, 36.8871728], [-76.299831, 36.8871462], [-76.2998045, 36.8871378], [-76.299777, 36.8871326], [-76.2997454, 36.8871308], [-76.2981621, 36.8871879], [-76.2981334, 36.8873397], [-76.2984924, 36.887326], [-76.2984132, 36.8877538], [-76.2983886, 36.8878891], [-76.2980491, 36.8878992], [-76.2980013, 36.8879006], [-76.2979473, 36.8882009], [-76.2990524, 36.8881664], [-76.2990657, 36.8881675], [-76.2990599, 36.8880081], [-76.2990175, 36.8879775], [-76.2990359, 36.8877435], [-76.300361, 36.8877141], [-76.300337, 36.8871437], [-76.3005048, 36.8871359], [-76.3004024, 36.8869549], [-76.3002479, 36.8866926], [-76.3002456, 36.886683], [-76.3016161, 36.8866371], [-76.3015989, 36.8863565], [-76.301588, 36.8861776], [-76.3022116, 36.8861546], [-76.3022576, 36.8861126], [-76.3027176, 36.8861043], [-76.3027735, 36.8868786], [-76.3028014, 36.8870655], [-76.3023356, 36.887075], [-76.3020058, 36.8870862], [-76.3020228, 36.8873612], [-76.3023563, 36.8873456], [-76.3028393, 36.8873236], [-76.3028614, 36.8875311], [-76.302927, 36.8876073], [-76.3030313, 36.8878246], [-76.3029322, 36.8879327], [-76.3029603, 36.8881144], [-76.3029747, 36.8882066], [-76.3029798, 36.8883416]], [[-76.308356, 36.8853133], [-76.3083506, 36.8852323], [-76.3080871, 36.8852409], [-76.3080898, 36.8853224], [-76.308356, 36.8853133]], [[-76.3100853, 36.8851771], [-76.3100029, 36.8851787], [-76.3100089, 36.8852623], [-76.31009, 36.8852602], [-76.3100853, 36.8851771]]], [[[-76.3126883, 36.8828829], [-76.3130939, 36.8828742], [-76.3133555, 36.8829317], [-76.3134482, 36.8829391], [-76.3135352, 36.8829398], [-76.3141126, 36.8829215], [-76.3140507, 36.8816194], [-76.3141661, 36.88157], [-76.3142077, 36.8815615], [-76.3141768, 36.8815153], [-76.314154, 36.8814917], [-76.3141271, 36.8814746], [-76.314095, 36.8814563], [-76.3140443, 36.8814426], [-76.3140092, 36.8807838], [-76.3139877, 36.8807633], [-76.3137731, 36.8805069], [-76.3135425, 36.8802388], [-76.3125152, 36.8802687], [-76.3126148, 36.8822944], [-76.3126463, 36.882838], [-76.3126883, 36.8828829]]], [[[-76.2981393, 36.8813072], [-76.2981159, 36.8807536], [-76.2980907, 36.8802696], [-76.2978393, 36.8802812], [-76.2969049, 36.8803245], [-76.2968209, 36.8803284], [-76.2968465, 36.8806297], [-76.2972906, 36.8806199], [-76.2973118, 36.88078], [-76.2973404, 36.8813297], [-76.2981393, 36.8813072]]], [[[-76.3160599, 36.8875886], [-76.3153666, 36.88761], [-76.3153505, 36.8873612], [-76.316135, 36.8873376], [-76.3160599, 36.8875886]]], [[[-76.3159869, 36.8878143], [-76.3158507, 36.8882461], [-76.3150058, 36.8882772], [-76.3149854, 36.8878479], [-76.3159869, 36.8878143]]], [[[-76.3116299, 36.8827167], [-76.3116164, 36.8824405], [-76.3114602, 36.8824464], [-76.3114783, 36.882721], [-76.3116299, 36.8827167]]], [[[-76.3114025, 36.8827248], [-76.3113234, 36.8827269], [-76.3113073, 36.8824507], [-76.3113851, 36.8824491], [-76.3114025, 36.8827248]]]]}}