{"type": "Feature", "properties": {"market_key": 509, "university": "Columbus State University", "osm_type": "way", "osm_id": 542662674, "osm_name": "Columbus State University"}, "geometry": {"type": "Polygon", "coordinates": [[[-84.9412685, 32.4991069], [-84.9384737, 32.4990721], [-84.9361908, 32.4991082], [-84.9356838, 32.4991001], [-84.9353292, 32.4991052], [-84.9349863, 32.4991082], [-84.9347143, 32.4991035], [-84.9345193, 32.4991244], [-84.9343471, 32.4991625], [-84.93395, 32.4992829], [-84.9335874, 32.4994213], [-84.9335195, 32.4994658], [-84.9335073, 32.4995277], [-84.9338123, 32.5001339], [-84.9339657, 32.5003744], [-84.9341222, 32.5005495], [-84.9342967, 32.5006907], [-84.9361685, 32.5017507], [-84.9366821, 32.5020293], [-84.937143, 32.5024248], [-84.9375989, 32.5031185], [-84.9377792, 32.5034987], [-84.9379204, 32.5037782], [-84.9380024, 32.5039541], [-84.9382051, 32.5041935], [-84.9383541, 32.5043429], [-84.9387357, 32.5046332], [-84.9392016, 32.5050597], [-84.9394512, 32.5053759], [-84.9395281, 32.5054457], [-84.9396308, 32.5054754], [-84.9399316, 32.5054865], [-84.9404201, 32.5054893], [-84.941037, 32.5055567], [-84.94162, 32.505616], [-84.9419834, 32.5056907], [-84.9424694, 32.5056738], [-84.9429536, 32.5056725], [-84.9433916, 32.5056554], [-84.9439839, 32.5055764], [-84.9445496, 32.5054551], [-84.9449503, 32.5052983], [-84.9453283, 32.5051058], [-84.9460357, 32.5044983], [-84.9470391, 32.5028904], [-84.9471556, 32.5026598], [-84.9464495, 32.5017089], [-84.9462844, 32.5014534], [-84.9461223, 32.5011937], [-84.9459552, 32.5008169], [-84.94525, 32.499057], [-84.9445592, 32.4981667], [-84.9433447, 32.4988549], [-84.9430028, 32.4990061], [-84.9427054, 32.4990732], [-84.9420515, 32.4990997], [-84.9412685, 32.4991069]]]}}