{"type": "Feature", "properties": {"market_key": 512, "university": "Virginia Commonwealth University", "osm_type": "relation", "osm_id": 13083991, "osm_name": "Virginia Commonwealth University"}, "geometry": {"type": "MultiPolygon", "coordinates": [[[[-77.4508087, 37.5481191], [-77.452996, 37.5494756], [-77.4525444, 37.549949], [-77.4531661, 37.5503191], [-77.4534566, 37.5500132], [-77.4536215, 37.5498387], [-77.4539439, 37.5500237], [-77.4548728, 37.549007], [-77.4551617, 37.5486329], [-77.4552061, 37.54843], [-77.4552106, 37.547111], [-77.455231, 37.546282], [-77.4551712, 37.5459673], [-77.455146, 37.5459552], [-77.4551468, 37.5457849], [-77.4551924, 37.5457807], [-77.4552027, 37.5455338], [-77.4552773, 37.5452911], [-77.4556446, 37.5446317], [-77.4557173, 37.5444346], [-77.4557897, 37.5444377], [-77.4562173, 37.5436449], [-77.4561741, 37.5435324], [-77.4556851, 37.5434573], [-77.4542051, 37.5432848], [-77.4529342, 37.5432616], [-77.4529451, 37.5446043], [-77.4516768, 37.5445958], [-77.4488161, 37.5445765], [-77.4488151, 37.5444795], [-77.4487796, 37.5444496], [-77.448788, 37.5430931], [-77.4469361, 37.5419823], [-77.4454477, 37.5435766], [-77.4462606, 37.5440798], [-77.4470137, 37.5445034], [-77.4487681, 37.5455781], [-77.4491861, 37.5457204], [-77.4517347, 37.5457184], [-77.452925, 37.5457532], [-77.4529074, 37.5472729], [-77.4529018, 37.5479357], [-77.4528583, 37.5479989], [-77.4528073, 37.5480316], [-77.4527347, 37.5480354], [-77.4513977, 37.5475201], [-77.4508087, 37.5481191]]], [[[-77.4505092, 37.5482021], [-77.4488517, 37.54721], [-77.448835, 37.5472115], [-77.4485366, 37.5475901], [-77.448253, 37.547976], [-77.4490932, 37.5484816], [-77.448622, 37.5489669], [-77.4478379, 37.5485046], [-77.4476823, 37.5487015], [-77.4476361, 37.5487672], [-77.4476386, 37.5488078], [-77.4476526, 37.5488347], [-77.447674, 37.5488544], [-77.4477461, 37.5488978], [-77.447501, 37.5491618], [-77.4468771, 37.5498183], [-77.4477556, 37.5503647], [-77.4478857, 37.5504411], [-77.4480505, 37.5502647], [-77.4485342, 37.5497754], [-77.4482758, 37.549617], [-77.4485103, 37.549377], [-77.4487931, 37.549072], [-77.4488882, 37.5491204], [-77.4493135, 37.5486587], [-77.450333, 37.5492489], [-77.450353, 37.5492271], [-77.450674, 37.5488891], [-77.4508889, 37.5490197], [-77.4505728, 37.549361], [-77.4504544, 37.5494796], [-77.4503856, 37.5494397], [-77.4500567, 37.5497969], [-77.4510301, 37.5503605], [-77.4505105, 37.5509187], [-77.4498464, 37.5505302], [-77.4491644, 37.5512319], [-77.4545819, 37.5544201], [-77.4546985, 37.5542969], [-77.4547963, 37.5541923], [-77.4552194, 37.553762], [-77.4535649, 37.5527691], [-77.4537739, 37.5525446], [-77.4538318, 37.5525457], [-77.454434, 37.5518907], [-77.4531365, 37.5511025], [-77.4528567, 37.5514121], [-77.4534321, 37.551761], [-77.4528835, 37.5523483], [-77.4523195, 37.5520137], [-77.4522692, 37.5520061], [-77.4520984, 37.5519042], [-77.4523305, 37.5516506], [-77.4523797, 37.5516487], [-77.4526795, 37.5513451], [-77.4524939, 37.5512365], [-77.4528139, 37.5508974], [-77.4513464, 37.5500242], [-77.4517944, 37.5495459], [-77.4502201, 37.5485748], [-77.4505142, 37.5482569], [-77.4505092, 37.5482021]]]]}}