{"type": "Feature", "properties": {"market_key": 52, "university": "University of Pittsburgh", "osm_type": "relation", "osm_id": 2079309, "osm_name": "University of Pittsburgh"}, "geometry": {"type": "MultiPolygon", "coordinates": [[[[-79.9611569, 40.4384634], [-79.9606151, 40.4388513], [-79.9602155, 40.4385308], [-79.9607787, 40.438147], [-79.9611569, 40.4384634]]], [[[-79.9597746, 40.4401433], [-79.958911, 40.4407588], [-79.9585741, 40.4404951], [-79.9594326, 40.4398696], [-79.9597746, 40.4401433]]], [[[-79.9496253, 40.4467787], [-79.9490233, 40.4468365], [-79.9489338, 40.4459902], [-79.9494374, 40.4459489], [-79.9494829, 40.4463554], [-79.9495788, 40.4463466], [-79.9496253, 40.4467787]]], [[[-79.9492699, 40.4446426], [-79.9490046, 40.4447198], [-79.9489111, 40.4444878], [-79.9493228, 40.4443865], [-79.9493313, 40.4444131], [-79.9493707, 40.4445182], [-79.9492699, 40.4446426]]], [[[-79.9513458, 40.4480069], [-79.9512529, 40.4478491], [-79.951624, 40.4477223], [-79.9517479, 40.4476799], [-79.9518419, 40.4478392], [-79.9513458, 40.4480069]]], [[[-80.02111, 40.4825679], [-80.021065, 40.4826091], [-80.0209786, 40.4826369], [-80.0207792, 40.4826706], [-80.0205837, 40.48279], [-80.0204844, 40.4828165], [-80.0204013, 40.482794], [-80.0203701, 40.482764], [-80.0203446, 40.4827161], [-80.0203341, 40.4826339], [-80.0203371, 40.482537], [-80.0203446, 40.4824617], [-80.0203701, 40.4824103], [-80.0204226, 40.4823761], [-80.0204811, 40.4823556], [-80.0205816, 40.4823339], [-80.0207376, 40.4823099], [-80.0208396, 40.4823008], [-80.0209401, 40.4823008], [-80.0210331, 40.4823099], [-80.0210781, 40.4823499], [-80.0211081, 40.4824103], [-80.0211186, 40.4824674], [-80.0211276, 40.4825176], [-80.02111, 40.4825679]]], [[[-79.9275472, 40.4540326], [-79.9271898, 40.4534715], [-79.9283195, 40.453012], [-79.9286378, 40.4536028], [-79.9275472, 40.4540326]]], [[[-79.9630053, 40.4251498], [-79.9633668, 40.4248103], [-79.9624655, 40.4242189], [-79.9620688, 40.4245745], [-79.9630053, 40.4251498]]], [[[-79.9634375, 40.4372817], [-79.9633576, 40.4372181], [-79.9636264, 40.4370204], [-79.9637045, 40.437084], [-79.9634375, 40.4372817]]], [[[-79.9581281, 40.4360202], [-79.9584505, 40.4363001], [-79.9586045, 40.4364218], [-79.9582691, 40.4366708], [-79.9584905, 40.4368382], [-79.9586941, 40.4369963], [-79.9585292, 40.4371159], [-79.9578576, 40.4365771], [-79.957775, 40.4365135], [-79.9576351, 40.4364285], [-79.9575102, 40.4363143], [-79.9572676, 40.4361242], [-79.9574146, 40.43603], [-79.9581281, 40.4360202]]], [[[-79.9506907, 40.4398353], [-79.950095, 40.4403289], [-79.950154, 40.4403616], [-79.9500698, 40.4404118], [-79.9500481, 40.4403975], [-79.9500086, 40.4404314], [-79.9498089, 40.4404299], [-79.9501114, 40.4400272], [-79.9501436, 40.4391984], [-79.9502562, 40.4391453], [-79.9503474, 40.439227], [-79.9506907, 40.4398353]]], [[[-79.9542672, 40.45733], [-79.9539489, 40.457443], [-79.9537614, 40.4571592], [-79.9540796, 40.4570525], [-79.9542672, 40.45733]]], [[[-79.9561285, 40.4459891], [-79.9564399, 40.446243], [-79.956328, 40.4463232], [-79.9565517, 40.4465027], [-79.9570447, 40.4461587], [-79.9573546, 40.4464103], [-79.9574488, 40.4464603], [-79.9578843, 40.4465501], [-79.9581832, 40.4468114], [-79.9585091, 40.4471502], [-79.9586303, 40.4474376], [-79.9588221, 40.4476134], [-79.9588109, 40.4476736], [-79.9587876, 40.4477986], [-79.9587586, 40.4479539], [-79.9587352, 40.4480794], [-79.9588279, 40.4480106], [-79.9590147, 40.4479683], [-79.95914, 40.4477081], [-79.9595334, 40.4475542], [-79.959649, 40.4474648], [-79.9599213, 40.4472278], [-79.9600519, 40.4466329], [-79.9601482, 40.4461444], [-79.9601939, 40.4459874], [-79.9602213, 40.4458621], [-79.9602617, 40.4457868], [-79.9603368, 40.4456907], [-79.9604314, 40.4456097], [-79.9604977, 40.4455636], [-79.9605755, 40.4455264], [-79.96067, 40.4454907], [-79.9607573, 40.4454644], [-79.9608497, 40.4454539], [-79.9609315, 40.4454468], [-79.9610998, 40.4454452], [-79.961357, 40.4454661], [-79.9613429, 40.4455991], [-79.961225, 40.445947], [-79.9612516, 40.4460649], [-79.9622459, 40.4463324], [-79.9637924, 40.4466857], [-79.9638223, 40.4466054], [-79.9632835, 40.4464744], [-79.9634549, 40.4461132], [-79.9635208, 40.4459757], [-79.9638075, 40.4463031], [-79.9638712, 40.4463607], [-79.9640543, 40.4464211], [-79.9645235, 40.4468493], [-79.9643716, 40.4469581], [-79.9644875, 40.44711], [-79.9641613, 40.4472921], [-79.9641125, 40.447429], [-79.9632453, 40.4480208], [-79.9624766, 40.4480663], [-79.9623506, 40.4487825], [-79.964319, 40.4487938], [-79.9646477, 40.4487882], [-79.9646806, 40.4487749], [-79.9646905, 40.4487562], [-79.9646933, 40.4487269], [-79.9646692, 40.4486831], [-79.9646504, 40.4486249], [-79.964652, 40.4485881], [-79.9646685, 40.4485249], [-79.9646942, 40.4484791], [-79.9655306, 40.447841], [-79.9657977, 40.4470739], [-79.9658071, 40.4468077], [-79.9657707, 40.446496], [-79.9657293, 40.4463852], [-79.9656703, 40.4462439], [-79.9656251, 40.4461721], [-79.9662569, 40.4459537], [-79.9669546, 40.4455603], [-79.9673985, 40.4453607], [-79.968683, 40.4446757], [-79.9687281, 40.4438414], [-79.9683724, 40.4437032], [-79.9677987, 40.4436379], [-79.9673566, 40.4435932], [-79.9671815, 40.4436675], [-79.9664996, 40.4439154], [-79.9663452, 40.4440067], [-79.9658774, 40.4432736], [-79.965779, 40.4430867], [-79.965695, 40.4429793], [-79.9651744, 40.4433723], [-79.9645704, 40.4429857], [-79.9647938, 40.4427975], [-79.964665, 40.4420648], [-79.9645323, 40.4415978], [-79.9642009, 40.4416445], [-79.9634947, 40.4423622], [-79.9622047, 40.4416772], [-79.9613927, 40.4412646], [-79.9602292, 40.4406], [-79.9594795, 40.4411524], [-79.9594081, 40.4412596], [-79.9589785, 40.4416076], [-79.9592557, 40.4418167], [-79.9593621, 40.441738], [-79.9594516, 40.4417801], [-79.9599855, 40.4420605], [-79.9600222, 40.4420217], [-79.960268, 40.4421445], [-79.9609631, 40.4414623], [-79.9610905, 40.4415251], [-79.9611209, 40.4415404], [-79.961477, 40.4417194], [-79.9615398, 40.441753], [-79.9612876, 40.4420364], [-79.9615931, 40.4422049], [-79.9615008, 40.4423096], [-79.9612318, 40.4425927], [-79.9613842, 40.4426826], [-79.9606146, 40.4434758], [-79.9604741, 40.4435446], [-79.9599227, 40.4432579], [-79.9597266, 40.4431473], [-79.9592645, 40.4428911], [-79.9586501, 40.4425559], [-79.9582721, 40.4424155], [-79.9578958, 40.4422977], [-79.9573148, 40.4419044], [-79.9571721, 40.4420151], [-79.9570363, 40.4421149], [-79.9566031, 40.4417856], [-79.9569096, 40.4415702], [-79.9561381, 40.4409525], [-79.9564867, 40.4406956], [-79.9564787, 40.440689], [-79.9563567, 40.4405921], [-79.9561097, 40.4403901], [-79.9558328, 40.4405852], [-79.9557531, 40.4405191], [-79.9560574, 40.4402959], [-79.9559782, 40.4402277], [-79.9558915, 40.4402877], [-79.9557431, 40.4401624], [-79.9558047, 40.4401176], [-79.9557497, 40.4400702], [-79.9554468, 40.440279], [-79.9555729, 40.4403782], [-79.9554803, 40.4404454], [-79.9551295, 40.4407], [-79.9550634, 40.4406516], [-79.9554385, 40.4403749], [-79.9553823, 40.4403347], [-79.9549546, 40.4406402], [-79.954885, 40.4405918], [-79.9553095, 40.4402866], [-79.9556792, 40.4400207], [-79.9556049, 40.4399635], [-79.9558714, 40.4397774], [-79.9555182, 40.4394893], [-79.9553061, 40.4396446], [-79.95503, 40.4394358], [-79.9547072, 40.4396773], [-79.9548544, 40.4397918], [-79.9547678, 40.4398564], [-79.954376, 40.4401484], [-79.9543093, 40.4400969], [-79.954425, 40.4400139], [-79.9543472, 40.4399495], [-79.9546272, 40.4397382], [-79.9544101, 40.4395662], [-79.954131, 40.439776], [-79.9540412, 40.4396917], [-79.9536763, 40.4399558], [-79.9541129, 40.4402014], [-79.9542945, 40.4403301], [-79.9540653, 40.4405591], [-79.9536374, 40.4404968], [-79.9527463, 40.4404996], [-79.9527862, 40.4407751], [-79.9528745, 40.44105], [-79.952812, 40.4411538], [-79.9526942, 40.4413845], [-79.9527669, 40.4414237], [-79.9526422, 40.4416312], [-79.9525553, 40.4417593], [-79.9524625, 40.4417255], [-79.952289, 40.4417203], [-79.9521111, 40.4417041], [-79.9519311, 40.4416427], [-79.9517691, 40.4415142], [-79.9516593, 40.4413925], [-79.9516294, 40.4412139], [-79.9513641, 40.4411029], [-79.9512347, 40.4410264], [-79.9510477, 40.440996], [-79.950509, 40.4411135], [-79.9501517, 40.4417544], [-79.9504094, 40.4418611], [-79.9504578, 40.4417941], [-79.9505722, 40.4418486], [-79.9505193, 40.4419083], [-79.9508135, 40.4420233], [-79.9515013, 40.4422084], [-79.9515451, 40.4420873], [-79.9515815, 40.4420121], [-79.9517156, 40.4420167], [-79.9517309, 40.4420057], [-79.9517369, 40.4419628], [-79.9517576, 40.4419233], [-79.9518936, 40.4418256], [-79.9519401, 40.441825], [-79.9520279, 40.4418352], [-79.9521218, 40.4418444], [-79.9522847, 40.4418533], [-79.9523639, 40.4418613], [-79.9524155, 40.4418638], [-79.9525221, 40.4418778], [-79.9528235, 40.4418204], [-79.9530867, 40.4419624], [-79.9536666, 40.443238], [-79.9534328, 40.4432985], [-79.950857, 40.4439644], [-79.9513417, 40.4450794], [-79.9503922, 40.4451639], [-79.9504676, 40.4456564], [-79.9504658, 40.445679], [-79.9511281, 40.4456284], [-79.9515035, 40.4455835], [-79.9515722, 40.4455816], [-79.9519411, 40.4463841], [-79.9519513, 40.4465853], [-79.9516295, 40.4468058], [-79.95149, 40.4468221], [-79.9517827, 40.4474565], [-79.9521286, 40.4473565], [-79.9523271, 40.4473351], [-79.9524666, 40.4476453], [-79.9530482, 40.447475], [-79.9531441, 40.4473989], [-79.9530337, 40.4473038], [-79.9530791, 40.4472711], [-79.953063, 40.4472403], [-79.9534858, 40.4469595], [-79.9540385, 40.4473568], [-79.9546818, 40.4469078], [-79.9547143, 40.4468697], [-79.9536572, 40.446022], [-79.9544404, 40.4454831], [-79.9542419, 40.4452953], [-79.9538662, 40.4449819], [-79.9545975, 40.4444635], [-79.954832, 40.4442992], [-79.9556262, 40.4437221], [-79.9573477, 40.4425471], [-79.9573906, 40.4425178], [-79.9586365, 40.443237], [-79.957628, 40.4439589], [-79.9572244, 40.4436384], [-79.9567863, 40.4439314], [-79.9562829, 40.4435238], [-79.9558337, 40.443851], [-79.9573627, 40.4450758], [-79.956343, 40.44582], [-79.9562303, 40.445728], [-79.9547555, 40.4445113], [-79.9540147, 40.445029], [-79.9555352, 40.4462323], [-79.9560054, 40.4458942], [-79.9561285, 40.4459891]], [[-79.9568922, 40.4422967], [-79.956503, 40.4425749], [-79.956147, 40.4422841], [-79.956463, 40.4420532], [-79.9568922, 40.4422967]]], [[[-79.9585391, 40.4410335], [-79.9584792, 40.4409879], [-79.9582175, 40.4407886], [-79.9583517, 40.4407047], [-79.9586589, 40.4409398], [-79.9585391, 40.4410335]]]]}}