{"type": "Feature", "properties": {"market_key": 521, "university": "East Carolina University", "osm_type": "relation", "osm_id": 9950699, "osm_name": "East Carolina University"}, "geometry": {"type": "MultiPolygon", "coordinates": [[[[-77.3704664, 35.5996483], [-77.3702509, 35.5987372], [-77.3698573, 35.5971271], [-77.3697628, 35.596755], [-77.3694725, 35.5955388], [-77.3690705, 35.5938763], [-77.3689775, 35.5935369], [-77.3688924, 35.5932823], [-77.3687928, 35.5930259], [-77.3686422, 35.5927192], [-77.3681185, 35.5915433], [-77.3674013, 35.5900088], [-77.3673308, 35.5899132], [-77.3672338, 35.5898821], [-77.3671633, 35.5899036], [-77.3669282, 35.5900422], [-77.3667078, 35.5901474], [-77.366461, 35.5902597], [-77.3661525, 35.5903816], [-77.3658851, 35.59047], [-77.3656617, 35.5905297], [-77.365526, 35.5904834], [-77.3656594, 35.5907921], [-77.3656361, 35.5910979], [-77.3655283, 35.5913539], [-77.3655545, 35.5917023], [-77.3653406, 35.5926762], [-77.3653959, 35.5929913], [-77.3660823, 35.5950544], [-77.366032, 35.5951286], [-77.3659958, 35.5951794], [-77.3653885, 35.5951125], [-77.364821, 35.5953607], [-77.3645225, 35.595323], [-77.3644931, 35.5954505], [-77.3644542, 35.595566], [-77.364394, 35.5956607], [-77.3643011, 35.5957685], [-77.3627047, 35.5979697], [-77.3636431, 35.5982966], [-77.364609, 35.5985905], [-77.365272, 35.5987555], [-77.365955, 35.5988997], [-77.3680162, 35.5992383], [-77.3704664, 35.5996483]]], [[[-77.4079255, 35.6143314], [-77.4067844, 35.6145598], [-77.405737, 35.6141929], [-77.4045364, 35.6138122], [-77.4033186, 35.613556], [-77.4012664, 35.6129399], [-77.4013925, 35.6090077], [-77.4026889, 35.6088556], [-77.4029726, 35.6088292], [-77.4029791, 35.6088663], [-77.4032674, 35.6088401], [-77.4032779, 35.6088898], [-77.4050622, 35.6087185], [-77.4055966, 35.6088994], [-77.409543, 35.6100486], [-77.4096232, 35.6113972], [-77.4098329, 35.611937], [-77.4079255, 35.6143314]]], [[[-77.3602001, 35.6066002], [-77.3604769, 35.6066569], [-77.3610306, 35.6068131], [-77.3692376, 35.61017], [-77.3702395, 35.6105213], [-77.3706173, 35.6105994], [-77.3706743, 35.6105981], [-77.3707345, 35.6105875], [-77.3707817, 35.6105689], [-77.3708371, 35.6105398], [-77.3708697, 35.6105067], [-77.3708859, 35.6104802], [-77.370925, 35.6103823], [-77.3709625, 35.6102088], [-77.3710476, 35.6100519], [-77.371174, 35.6099062], [-77.3713557, 35.6098042], [-77.3715683, 35.6097205], [-77.3717515, 35.6096299], [-77.3719159, 35.6095046], [-77.3719625, 35.6093836], [-77.3719751, 35.6092819], [-77.3719698, 35.6091552], [-77.3708905, 35.608628], [-77.3709787, 35.6082061], [-77.3711089, 35.6080882], [-77.371568, 35.6081663], [-77.3717299, 35.6080911], [-77.3718189, 35.6079406], [-77.372052, 35.6064029], [-77.3712619, 35.6062488], [-77.3714004, 35.605626], [-77.3641443, 35.6043927], [-77.361149, 35.6039483], [-77.3603416, 35.6062048], [-77.3602001, 35.6066002]]], [[[-77.3172742, 35.6273965], [-77.3175669, 35.6312892], [-77.3177073, 35.6341535], [-77.3221023, 35.6351753], [-77.3227426, 35.633966], [-77.3233246, 35.6333384], [-77.324465, 35.6328347], [-77.3257999, 35.6321479], [-77.3252549, 35.631503], [-77.3249933, 35.6310475], [-77.3248252, 35.6304174], [-77.3245466, 35.6273582], [-77.3224326, 35.6273693], [-77.3224531, 35.6260721], [-77.3218398, 35.626068], [-77.3218268, 35.6273725], [-77.3172742, 35.6273965]]], [[[-77.4937472, 35.6353669], [-77.4938786, 35.6351554], [-77.4950159, 35.6340698], [-77.495276, 35.6337646], [-77.4954531, 35.633527], [-77.4956757, 35.6330321], [-77.4973816, 35.628031], [-77.4881119, 35.6256459], [-77.4876666, 35.6259533], [-77.4871758, 35.6255107], [-77.4796012, 35.6252077], [-77.4755001, 35.6250573], [-77.4745667, 35.6325863], [-77.4746203, 35.6326702], [-77.4759024, 35.6339826], [-77.478075, 35.6361451], [-77.4772623, 35.6369364], [-77.4772677, 35.6370236], [-77.4778605, 35.6377059], [-77.478362, 35.6378977], [-77.4855906, 35.6406225], [-77.4856764, 35.6356524], [-77.4933019, 35.6366312], [-77.4937472, 35.6353669]]]]}}