{"type": "Feature", "properties": {"market_key": 524, "university": "Ohio University", "osm_type": "relation", "osm_id": 17131100, "osm_name": "Ohio University"}, "geometry": {"type": "MultiPolygon", "coordinates": [[[[-82.1047971, 39.3280693], [-82.1042803, 39.3283772], [-82.1039524, 39.32809], [-82.1035818, 39.3277654], [-82.103531, 39.32781], [-82.1034868, 39.3282118], [-82.1034843, 39.3282347], [-82.1026801, 39.3281969], [-82.1026817, 39.3281779], [-82.1026904, 39.3280734], [-82.1027032, 39.3279211], [-82.102721, 39.3277047], [-82.1027284, 39.3276162], [-82.1025718, 39.3276057], [-82.1025782, 39.327522], [-82.1025908, 39.3271539], [-82.101284, 39.3270897], [-82.1012647, 39.3274047], [-82.1011684, 39.3274658], [-82.1006241, 39.3274332], [-82.1005538, 39.3280107], [-82.0997705, 39.3279768], [-82.0997475, 39.3283524], [-82.0997071, 39.3286883], [-82.0988365, 39.3286392], [-82.0988, 39.3289582], [-82.0983905, 39.3289769], [-82.0982354, 39.329446], [-82.0982053, 39.3294986], [-82.0981955, 39.329509], [-82.0975555, 39.3292486], [-82.0973212, 39.329165], [-82.0960893, 39.3290952], [-82.0961183, 39.3287232], [-82.0955963, 39.3286945], [-82.095663, 39.3279137], [-82.0956683, 39.3278668], [-82.0956705, 39.3278056], [-82.0956947, 39.3276171], [-82.0957184, 39.3274243], [-82.0952471, 39.3274083], [-82.0951806, 39.327406], [-82.0948959, 39.3273999], [-82.0948405, 39.3278893], [-82.094085, 39.3278647], [-82.0939854, 39.3278614], [-82.0937707, 39.3278185], [-82.0924841, 39.3289794], [-82.0920859, 39.3293386], [-82.0917077, 39.3293106], [-82.0915014, 39.3293065], [-82.0907646, 39.32928], [-82.0900284, 39.3292321], [-82.0899307, 39.3292489], [-82.0897164, 39.3292018], [-82.0887272, 39.329125], [-82.0893362, 39.3277669], [-82.0904045, 39.3252008], [-82.0907561, 39.3233552], [-82.0909662, 39.322789], [-82.091359, 39.3220838], [-82.0916014, 39.3217416], [-82.0921478, 39.3211897], [-82.0956407, 39.3184868], [-82.0963739, 39.3181041], [-82.0972364, 39.3179025], [-82.0978719, 39.317884], [-82.0987041, 39.3180193], [-82.0996911, 39.3183389], [-82.1007355, 39.3187343], [-82.1031315, 39.3196691], [-82.1040017, 39.3200695], [-82.105329, 39.3206988], [-82.1060362, 39.3193809], [-82.1070945, 39.318553], [-82.1073529, 39.3182909], [-82.1076609, 39.3181249], [-82.1085495, 39.3180988], [-82.1093181, 39.318085], [-82.111574, 39.3183238], [-82.1117514, 39.3189292], [-82.1118512, 39.319879], [-82.1116858, 39.3203852], [-82.1122669, 39.3203304], [-82.1129538, 39.3203201], [-82.1136852, 39.3202987], [-82.1149435, 39.3220308], [-82.1133924, 39.3233423], [-82.1116815, 39.3250011], [-82.1124513, 39.3254174], [-82.1121655, 39.3277191], [-82.1099823, 39.3276138], [-82.1098757, 39.328935], [-82.1097736, 39.3289298], [-82.1096807, 39.328925], [-82.1095998, 39.3290112], [-82.1095837, 39.3291634], [-82.1095585, 39.3294366], [-82.1075131, 39.3293133], [-82.1074303, 39.3293034], [-82.1073935, 39.329288], [-82.1073495, 39.3292414], [-82.10741, 39.3284569], [-82.107474, 39.3284642], [-82.1078867, 39.3284884], [-82.1083762, 39.3285076], [-82.1085011, 39.3285114], [-82.1085059, 39.3284221], [-82.1085597, 39.3276936], [-82.1079295, 39.3276047], [-82.1079683, 39.3271009], [-82.1079835, 39.3269031], [-82.1074193, 39.3268772], [-82.1069156, 39.3271061], [-82.1064165, 39.3271965], [-82.1055669, 39.327174], [-82.1055408, 39.3275205], [-82.1055307, 39.3276573], [-82.1055172, 39.3277626], [-82.1051736, 39.3277494], [-82.1049362, 39.3276651], [-82.1046814, 39.3274946], [-82.104402, 39.327662], [-82.1047971, 39.3280693]]]]}}