{"type": "Feature", "properties": {"market_key": 526, "university": "Tulane University", "osm_type": "way", "osm_id": 27892131, "osm_name": "Tulane University"}, "geometry": {"type": "Polygon", "coordinates": [[[-90.1238755, 29.9352818], [-90.123857, 29.935268], [-90.1238516, 29.935264], [-90.1237568, 29.9351931], [-90.1235589, 29.9350519], [-90.1234959, 29.9350069], [-90.1225085, 29.9343071], [-90.1224858, 29.934291], [-90.122447, 29.9342635], [-90.1218443, 29.9352951], [-90.1216097, 29.9356949], [-90.1211136, 29.9365333], [-90.1205272, 29.937546], [-90.1201227, 29.938193], [-90.1200859, 29.9381723], [-90.119716, 29.937965], [-90.119295, 29.9377243], [-90.1192393, 29.9376925], [-90.1189656, 29.9381024], [-90.1189059, 29.9380809], [-90.1182198, 29.9393828], [-90.1177638, 29.9402393], [-90.1172842, 29.9411301], [-90.1169631, 29.9409873], [-90.1167378, 29.9414462], [-90.1170397, 29.9415631], [-90.1164166, 29.9427365], [-90.115964, 29.9435748], [-90.1155183, 29.9444287], [-90.1150678, 29.9452717], [-90.1143296, 29.9467143], [-90.114771, 29.94773], [-90.1148656, 29.9479676], [-90.1148926, 29.9480269], [-90.1149981, 29.948289], [-90.1167366, 29.9456598], [-90.1179401, 29.9439472], [-90.119099, 29.9422138], [-90.1195878, 29.9425198], [-90.1196456, 29.9425541], [-90.1197209, 29.9426009], [-90.1198063, 29.9426579], [-90.1202103, 29.942901], [-90.1209247, 29.9433307], [-90.1212212, 29.9435055], [-90.1215949, 29.9430355], [-90.1220254, 29.9432998], [-90.122941, 29.9421529], [-90.1235722, 29.9413495], [-90.1235031, 29.941309], [-90.1228326, 29.9409102], [-90.1234193, 29.940156], [-90.1234652, 29.940097], [-90.1230795, 29.939867], [-90.1226778, 29.9396275], [-90.1220839, 29.9392919], [-90.121408, 29.9389041], [-90.1238755, 29.9352818]]]}}