{"type": "Feature", "properties": {"market_key": 538, "university": "Yale University", "osm_type": "relation", "osm_id": 3861723, "osm_name": "Yale University"}, "geometry": {"type": "MultiPolygon", "coordinates": [[[[-72.9206421, 41.3159214], [-72.9205051, 41.3158881], [-72.9187683, 41.3152614], [-72.9191775, 41.314741], [-72.9194068, 41.3148318], [-72.9197482, 41.3143782], [-72.9211677, 41.3148086], [-72.9212211, 41.3146965], [-72.9213904, 41.314326], [-72.9213996, 41.3143062], [-72.9215344, 41.3140755], [-72.9223518, 41.3142809], [-72.9226059, 41.3136837], [-72.9225402, 41.3136656], [-72.9226607, 41.313329], [-72.9221891, 41.3132131], [-72.922253, 41.3131455], [-72.9226609, 41.3125885], [-72.9229629, 41.3121735], [-72.9231517, 41.3119006], [-72.9231607, 41.3119027], [-72.9241484, 41.312131], [-72.9242161, 41.311954], [-72.924283, 41.3117791], [-72.9243222, 41.3116766], [-72.9234986, 41.3114346], [-72.9234603, 41.3114233], [-72.9224347, 41.310995], [-72.9225617, 41.3105345], [-72.9225649, 41.3105251], [-72.9225672, 41.3105184], [-72.9225833, 41.3104709], [-72.9226122, 41.310386], [-72.9226959, 41.3102673], [-72.9229039, 41.309973], [-72.9230862, 41.3097149], [-72.923215, 41.3095325], [-72.9232232, 41.3095209], [-72.9232443, 41.3094911], [-72.9233335, 41.3095296], [-72.9239515, 41.3097954], [-72.9244383, 41.3100059], [-72.9245129, 41.3100371], [-72.9245848, 41.3100685], [-72.9254585, 41.3089077], [-72.9266342, 41.3094147], [-72.9263563, 41.3097593], [-72.9267111, 41.3099129], [-72.9269985, 41.3095624], [-72.9270594, 41.3094811], [-72.9270993, 41.3094243], [-72.9271395, 41.309367], [-72.9278557, 41.3083849], [-72.9286209, 41.3073633], [-72.9286695, 41.307288], [-72.9287657, 41.3073271], [-72.9294137, 41.3075909], [-72.9296329, 41.3076801], [-72.9302656, 41.3079296], [-72.9303262, 41.3079529], [-72.9303546, 41.3079639], [-72.9303802, 41.3079738], [-72.9315462, 41.3084568], [-72.931642, 41.3084714], [-72.9317331, 41.3084888], [-72.9330449, 41.3087796], [-72.9334829, 41.3088776], [-72.9335628, 41.3088948], [-72.9335182, 41.3089538], [-72.9333572, 41.3091712], [-72.9328221, 41.3098939], [-72.9325297, 41.3103018], [-72.9319004, 41.3111639], [-72.9318488, 41.3112334], [-72.9318102, 41.3112805], [-72.9317562, 41.3113119], [-72.9317058, 41.3113273], [-72.9315179, 41.3112542], [-72.9310674, 41.3110942], [-72.9308845, 41.3110296], [-72.9307437, 41.3109815], [-72.9306102, 41.3109459], [-72.9303635, 41.3108511], [-72.9301798, 41.3107842], [-72.9301471, 41.3107707], [-72.9301033, 41.3107528], [-72.9300153, 41.3107167], [-72.9299695, 41.3107828], [-72.9293929, 41.3115643], [-72.9294814, 41.3115991], [-72.9298134, 41.3117278], [-72.9298277, 41.3117094], [-72.9298746, 41.3116442], [-72.9299744, 41.3115956], [-72.9300163, 41.3116017], [-72.930113, 41.3115456], [-72.9301924, 41.311621], [-72.9302158, 41.3116433], [-72.9303567, 41.3117602], [-72.9301454, 41.3118909], [-72.9301099, 41.3119117], [-72.9301713, 41.3119709], [-72.9301899, 41.3119974], [-72.9302356, 41.3120554], [-72.9302425, 41.312069], [-72.9302997, 41.312144], [-72.9303079, 41.3121598], [-72.9305192, 41.3120454], [-72.9306164, 41.3121355], [-72.9308215, 41.3120134], [-72.9309014, 41.3120621], [-72.9309203, 41.3120846], [-72.9309072, 41.312098], [-72.9309262, 41.3121167], [-72.9310786, 41.3122668], [-72.9311208, 41.3123084], [-72.9311933, 41.3123798], [-72.9311781, 41.3123862], [-72.9312318, 41.3124476], [-72.9312776, 41.3124566], [-72.9313619, 41.3125463], [-72.9316025, 41.3124196], [-72.9319377, 41.3128104], [-72.9323031, 41.3132176], [-72.9323991, 41.3134538], [-72.9324266, 41.3135569], [-72.9324891, 41.3138078], [-72.9320705, 41.3140191], [-72.9319872, 41.3140599], [-72.9314129, 41.314351], [-72.9304047, 41.3148392], [-72.9300516, 41.3150102], [-72.9290313, 41.3151944], [-72.9289063, 41.315216], [-72.9288153, 41.3148538], [-72.9286924, 41.3143643], [-72.928677, 41.3143033], [-72.9286659, 41.314259], [-72.928471, 41.313483], [-72.9283924, 41.3131701], [-72.9283787, 41.3130743], [-72.9283763, 41.3130214], [-72.9283847, 41.3129708], [-72.9285352, 41.3127071], [-72.9286041, 41.3126212], [-72.9285102, 41.3125928], [-72.9282107, 41.3125201], [-72.9271562, 41.3123956], [-72.9270754, 41.312365], [-72.9255798, 41.3117288], [-72.9250967, 41.3137103], [-72.9267416, 41.3151884], [-72.9269114, 41.3152379], [-72.9289821, 41.3156648], [-72.9290948, 41.3162413], [-72.9286073, 41.3163396], [-72.9284991, 41.3163682], [-72.9275315, 41.3167516], [-72.927402, 41.3164679], [-72.927225, 41.3161904], [-72.92717, 41.3160917], [-72.9270785, 41.3161104], [-72.9256995, 41.3162256], [-72.9257603, 41.3172907], [-72.9251134, 41.3173389], [-72.9250919, 41.3175266], [-72.9246814, 41.3209508], [-72.9258287, 41.3211763], [-72.925777, 41.322335], [-72.9257177, 41.3225726], [-72.925531, 41.3230429], [-72.9246026, 41.3228391], [-72.9245192, 41.3228208], [-72.9232575, 41.3225796], [-72.9232594, 41.3237721], [-72.9232466, 41.3238467], [-72.923132, 41.3245149], [-72.921041, 41.3242957], [-72.9208065, 41.3253268], [-72.9205647, 41.3253057], [-72.9196877, 41.3252296], [-72.9198154, 41.3243837], [-72.9190072, 41.3243358], [-72.9190426, 41.3242323], [-72.9191966, 41.323783], [-72.9194899, 41.3229271], [-72.9195649, 41.3227082], [-72.9208799, 41.3228774], [-72.9214579, 41.3229518], [-72.9216593, 41.3217416], [-72.9207999, 41.321666], [-72.9211356, 41.3200726], [-72.9211605, 41.3199565], [-72.9209678, 41.3199285], [-72.9204051, 41.3198409], [-72.9199092, 41.3197647], [-72.9194489, 41.3196941], [-72.9190191, 41.3196253], [-72.9188883, 41.319606], [-72.9189189, 41.3195409], [-72.9190399, 41.319296], [-72.9190667, 41.3192396], [-72.9200859, 41.3171063], [-72.9202841, 41.3166811], [-72.920394, 41.31645], [-72.920585, 41.3160444], [-72.9206273, 41.3159542], [-72.9206421, 41.3159214]]], [[[-72.9316583, 41.3035919], [-72.9317179, 41.303668], [-72.9324688, 41.3040105], [-72.934212, 41.3047537], [-72.9347868, 41.3040055], [-72.9345487, 41.3038986], [-72.9362002, 41.3032203], [-72.9367086, 41.303052], [-72.9365375, 41.3027615], [-72.9367647, 41.3024328], [-72.9363818, 41.3016407], [-72.9361516, 41.3011754], [-72.9351983, 41.3014538], [-72.934913, 41.3004619], [-72.9343868, 41.3007933], [-72.9332434, 41.3015136], [-72.9330514, 41.3011711], [-72.9328536, 41.3013748], [-72.9327323, 41.3013856], [-72.9325074, 41.3015222], [-72.9327547, 41.3017344], [-72.9324053, 41.3019034], [-72.9321596, 41.3017799], [-72.9319793, 41.3019105], [-72.9325089, 41.3022536], [-72.9325324, 41.302328], [-72.9323659, 41.3025455], [-72.9321159, 41.3028786], [-72.9319177, 41.3027506], [-72.9315746, 41.3026051], [-72.9310536, 41.3033051], [-72.9316207, 41.3035397], [-72.9316583, 41.3035919]]], [[[-72.9212342, 41.3254956], [-72.920943, 41.3263067], [-72.9210922, 41.3263266], [-72.9209555, 41.3267979], [-72.9208254, 41.3271924], [-72.9206882, 41.3283481], [-72.9218951, 41.3284091], [-72.9219204, 41.3281728], [-72.9219358, 41.3280292], [-72.9219668, 41.3278118], [-72.9219801, 41.3277187], [-72.922015, 41.3275295], [-72.9220474, 41.3273793], [-72.9221117, 41.3271285], [-72.9221298, 41.3270652], [-72.9221616, 41.3269698], [-72.9221932, 41.3268831], [-72.9222217, 41.3268117], [-72.9222638, 41.3267146], [-72.9223294, 41.3265632], [-72.9224106, 41.3263756], [-72.9224807, 41.3262139], [-72.9225463, 41.3260624], [-72.9226167, 41.3259001], [-72.9226665, 41.325785], [-72.9243711, 41.3262114], [-72.9244474, 41.3260832], [-72.9246894, 41.325121], [-72.9232472, 41.3248496], [-72.9229058, 41.3256413], [-72.9227303, 41.3256378], [-72.9212342, 41.3254956]]], [[[-72.9983489, 41.2534046], [-72.9986638, 41.2530597], [-72.998809, 41.2528769], [-72.9988563, 41.2527856], [-72.9988124, 41.2526993], [-72.9986942, 41.2526307], [-72.9985254, 41.2525597], [-72.998181, 41.2525089], [-72.9972359, 41.2525105], [-72.9973068, 41.2516537], [-72.992433, 41.251605], [-72.992241, 41.254102], [-72.9913406, 41.2546632], [-72.991214, 41.2547131], [-72.9910616, 41.254716], [-72.9902951, 41.2552756], [-72.9896746, 41.2555923], [-72.9894914, 41.2556578], [-72.9893428, 41.2556937], [-72.9892129, 41.2557091], [-72.9890361, 41.2557071], [-72.9882501, 41.2556357], [-72.9880677, 41.2556341], [-72.9878494, 41.2556516], [-72.9876355, 41.2557001], [-72.9874276, 41.2557827], [-72.9873058, 41.2558718], [-72.9869587, 41.2561364], [-72.9844457, 41.2581247], [-72.9842147, 41.2582899], [-72.9841844, 41.2583075], [-72.9841501, 41.258326], [-72.9840634, 41.2583531], [-72.9839812, 41.2583815], [-72.983954, 41.2583961], [-72.9839362, 41.2584187], [-72.9839224, 41.2584449], [-72.9839139, 41.2584701], [-72.9839108, 41.2584979], [-72.9839183, 41.2585308], [-72.9839511, 41.2586129], [-72.9839768, 41.2587114], [-72.9840004, 41.2587698], [-72.9841197, 41.2589632], [-72.9842803, 41.2592479], [-72.9844199, 41.259476], [-72.9844635, 41.2595293], [-72.9863222, 41.2610578], [-72.9864623, 41.2612269], [-72.9866018, 41.2614484], [-72.9866771, 41.2617046], [-72.9891969, 41.2603553], [-72.9920893, 41.2582684], [-72.9953886, 41.2558428], [-72.9983513, 41.2535215], [-72.9983489, 41.2534046]]], [[[-72.9297134, 41.3005316], [-72.9297041, 41.3004917], [-72.9296301, 41.3001726], [-72.9293779, 41.2990849], [-72.9292956, 41.2987299], [-72.9307414, 41.2985093], [-72.9318621, 41.2983309], [-72.9319777, 41.2989623], [-72.9320361, 41.299187], [-72.9320912, 41.2993546], [-72.932106, 41.2993998], [-72.9321738, 41.2995475], [-72.9321231, 41.2995549], [-72.9311391, 41.2996796], [-72.9312401, 41.3003362], [-72.931119, 41.3003517], [-72.9301692, 41.3004733], [-72.9297441, 41.3005277], [-72.9297134, 41.3005316]]], [[[-72.9311708, 41.303628], [-72.9309466, 41.3039544], [-72.9308232, 41.3039118], [-72.9307613, 41.3039952], [-72.9299494, 41.3035473], [-72.9299913, 41.3034975], [-72.9300335, 41.3034473], [-72.9301278, 41.3033493], [-72.9302128, 41.3033847], [-72.930436, 41.3032032], [-72.9311708, 41.303628]]]]}}