{"type": "Feature", "properties": {"market_key": 541, "university": "University of Texas at Arlington", "osm_type": "way", "osm_id": 445352238, "osm_name": "The University of Texas at Arlington"}, "geometry": {"type": "Polygon", "coordinates": [[[-97.1146868, 32.7343047], [-97.1143851, 32.7343092], [-97.1143891, 32.7344852], [-97.1143676, 32.7348349], [-97.1143703, 32.7353967], [-97.1143623, 32.7354667], [-97.1143328, 32.7355276], [-97.1142845, 32.7355682], [-97.1142121, 32.735593], [-97.1141477, 32.7355998], [-97.1129246, 32.7355817], [-97.1129622, 32.7336459], [-97.1111651, 32.7336414], [-97.108558, 32.733673], [-97.1072759, 32.7336684], [-97.1073456, 32.7311775], [-97.1073456, 32.7309759], [-97.1073456, 32.7309564], [-97.1073192, 32.730812], [-97.1073027, 32.7307217], [-97.1071954, 32.7303833], [-97.1066321, 32.7287091], [-97.1065796, 32.7285321], [-97.1065678, 32.7284924], [-97.1065641, 32.7284502], [-97.1065463, 32.7282442], [-97.1065785, 32.7266241], [-97.106557, 32.7263759], [-97.1064605, 32.7261187], [-97.1063371, 32.7258615], [-97.1059433, 32.7252947], [-97.1057256, 32.7249814], [-97.1067824, 32.7245301], [-97.1078016, 32.7245166], [-97.1078311, 32.7237742], [-97.1087599, 32.7237872], [-97.1089393, 32.7237897], [-97.1089289, 32.7244002], [-97.1094164, 32.7244061], [-97.1094146, 32.7245159], [-97.1105442, 32.7245292], [-97.1105294, 32.7250221], [-97.1110605, 32.7250221], [-97.1110927, 32.7239119], [-97.1110163, 32.7237966], [-97.1101159, 32.7237753], [-97.1101576, 32.7225274], [-97.111058, 32.7225487], [-97.111278, 32.7225561], [-97.1130954, 32.7225799], [-97.1130843, 32.7231804], [-97.1128384, 32.7231771], [-97.1128248, 32.7239107], [-97.1130292, 32.7239435], [-97.1130292, 32.7251845], [-97.1148209, 32.7251935], [-97.1148244, 32.7255272], [-97.1157141, 32.7255365], [-97.1157317, 32.7244259], [-97.1168872, 32.724439], [-97.117596, 32.7244451], [-97.1179008, 32.7244493], [-97.1178946, 32.7252524], [-97.1175733, 32.7252497], [-97.1175801, 32.725927], [-97.1175136, 32.7261001], [-97.1175299, 32.726382], [-97.1175005, 32.7276656], [-97.1174648, 32.7288686], [-97.1174618, 32.7290155], [-97.117454, 32.7292589], [-97.1186431, 32.7295959], [-97.1186744, 32.7296057], [-97.121277, 32.7294085], [-97.1215666, 32.729395], [-97.1218322, 32.7294289], [-97.1235231, 32.7294463], [-97.1237554, 32.7294491], [-97.1237795, 32.7259788], [-97.124037, 32.7260104], [-97.1260808, 32.7260194], [-97.1263437, 32.7260104], [-97.1265529, 32.7259923], [-97.1268372, 32.7259246], [-97.1271698, 32.7258615], [-97.1274649, 32.7258254], [-97.1277545, 32.7258118], [-97.1277653, 32.7250536], [-97.127779, 32.7240968], [-97.1278189, 32.7213078], [-97.1318315, 32.7213168], [-97.1318047, 32.7233072], [-97.1304316, 32.7232846], [-97.130381, 32.7258365], [-97.1277841, 32.7258141], [-97.1277626, 32.7259698], [-97.1277277, 32.7307578], [-97.1237312, 32.7307714], [-97.1234737, 32.730803], [-97.1234576, 32.7315791], [-97.1217679, 32.7315882], [-97.1217518, 32.7321116], [-97.1225511, 32.7321252], [-97.1225512, 32.7326007], [-97.1216778, 32.7325707], [-97.1216622, 32.733461], [-97.1225591, 32.7334697], [-97.1225615, 32.7332463], [-97.1234701, 32.7332522], [-97.1234401, 32.7343915], [-97.1225884, 32.7343958], [-97.1223868, 32.7343969], [-97.1220865, 32.7344154], [-97.1215801, 32.7344074], [-97.1212654, 32.7344024], [-97.1201485, 32.7343852], [-97.1191426, 32.7343689], [-97.1174173, 32.7343408], [-97.1146868, 32.7343047]]]}}