{"type": "Feature", "properties": {"market_key": 549, "university": "North Dakota State University", "osm_type": "way", "osm_id": 163840024, "osm_name": "North Dakota State University"}, "geometry": {"type": "Polygon", "coordinates": [[[-96.838372, 46.8966292], [-96.821175, 46.8904723], [-96.7982645, 46.8904235], [-96.7982199, 46.8904466], [-96.7981958, 46.890482], [-96.7981357, 46.8994871], [-96.7981584, 46.9011732], [-96.7936669, 46.901161], [-96.7936019, 46.9038089], [-96.7964139, 46.9038224], [-96.7981492, 46.9038163], [-96.7981462, 46.9046636], [-96.8363223, 46.904817], [-96.8378769, 46.9031795], [-96.8381075, 46.9029056], [-96.8382859, 46.9026223], [-96.8384354, 46.9023143], [-96.8385656, 46.901952], [-96.8386306, 46.9016044], [-96.8386547, 46.9011811], [-96.8386475, 46.8996657], [-96.8383872, 46.8976808], [-96.838372, 46.8966292]]]}}