{"type": "Feature", "properties": {"market_key": 553, "university": "University of Tennessee", "osm_type": "way", "osm_id": 376167113, "osm_name": "University of Tennessee, Knoxville"}, "geometry": {"type": "Polygon", "coordinates": [[[-83.9435549, 35.9472718], [-83.9435582, 35.9473981], [-83.9432904, 35.9476678], [-83.9432252, 35.9478858], [-83.9432602, 35.9480927], [-83.9433266, 35.9482045], [-83.9434017, 35.9483681], [-83.9434185, 35.9485491], [-83.9433904, 35.9486787], [-83.9433334, 35.9488268], [-83.943221, 35.9489738], [-83.9425186, 35.9495402], [-83.9423973, 35.9496751], [-83.9423195, 35.9497797], [-83.9422524, 35.9499402], [-83.9419562, 35.951441], [-83.9418698, 35.9526479], [-83.9401953, 35.953365], [-83.9389227, 35.9511802], [-83.9388676, 35.9510855], [-83.9388556, 35.9510649], [-83.9366825, 35.9521828], [-83.9367547, 35.952277], [-83.9367968, 35.9524112], [-83.9367914, 35.952522], [-83.9367741, 35.9526368], [-83.9367728, 35.9526452], [-83.9367127, 35.9527789], [-83.93641, 35.9529316], [-83.9359651, 35.9531561], [-83.936219, 35.9534669], [-83.9364931, 35.9539189], [-83.9355762, 35.9542666], [-83.9355044, 35.9542938], [-83.935406, 35.9542285], [-83.9329495, 35.9551846], [-83.9317689, 35.9556441], [-83.9323695, 35.9565199], [-83.9324193, 35.956572], [-83.9324722, 35.9566113], [-83.9328847, 35.9574027], [-83.9326931, 35.9574752], [-83.9319658, 35.9577504], [-83.9318899, 35.9577791], [-83.9306762, 35.9582618], [-83.9302014, 35.9584674], [-83.9291411, 35.9588468], [-83.9290046, 35.9588936], [-83.9289247, 35.9589019], [-83.928786, 35.9589487], [-83.9287222, 35.9589877], [-83.9278825, 35.9593081], [-83.9274269, 35.9594843], [-83.9272711, 35.9595414], [-83.9268505, 35.9597018], [-83.9259443, 35.9600476], [-83.9252258, 35.9603217], [-83.9249458, 35.9598627], [-83.9245988, 35.9592939], [-83.9245274, 35.9591919], [-83.9244089, 35.9590224], [-83.9239332, 35.9583179], [-83.9237205, 35.9580029], [-83.9229799, 35.9569061], [-83.9227728, 35.9565994], [-83.9221622, 35.9559612], [-83.9217511, 35.9555122], [-83.9221557, 35.9550162], [-83.922723, 35.9550855], [-83.9230058, 35.954604], [-83.9231652, 35.9542034], [-83.9235684, 35.9530042], [-83.9239362, 35.9518294], [-83.9242036, 35.9511849], [-83.924403, 35.9508348], [-83.9247911, 35.950166], [-83.9251444, 35.9494113], [-83.9255394, 35.9477449], [-83.9257228, 35.947286], [-83.9259021, 35.94703], [-83.9261644, 35.9468092], [-83.9264964, 35.9466166], [-83.9268962, 35.9464608], [-83.928319, 35.946181], [-83.9293216, 35.945924], [-83.931721, 35.9450671], [-83.9321753, 35.9449403], [-83.9326388, 35.9448359], [-83.9332046, 35.9447677], [-83.9338458, 35.9447581], [-83.9343232, 35.9448238], [-83.9349893, 35.9450539], [-83.9354806, 35.9453052], [-83.9358114, 35.9455239], [-83.9360238, 35.9457793], [-83.9364181, 35.9455968], [-83.9354954, 35.9439661], [-83.9354015, 35.9433602], [-83.9357386, 35.9432848], [-83.9358869, 35.9432516], [-83.9365977, 35.9431583], [-83.937625, 35.9431952], [-83.9383814, 35.9433234], [-83.9390769, 35.9435213], [-83.9397964, 35.9438875], [-83.9403736, 35.9442819], [-83.9423777, 35.9462564], [-83.9435549, 35.9472718]]]}}