{"type": "Feature", "properties": {"market_key": 555, "university": "Cornell University", "osm_type": "relation", "osm_id": 11625564, "osm_name": "Cornell University"}, "geometry": {"type": "MultiPolygon", "coordinates": [[[[-76.2261342, 42.4350944], [-76.2260244, 42.4338212], [-76.2276189, 42.4337729], [-76.2274313, 42.4293302], [-76.2332674, 42.4315636], [-76.2358032, 42.432572], [-76.2358572, 42.4335217], [-76.2358892, 42.4347884], [-76.2360744, 42.4382973], [-76.2360828, 42.4384064], [-76.2360962, 42.4385152], [-76.2361148, 42.4386236], [-76.2361385, 42.4387314], [-76.2361672, 42.4388386], [-76.236201, 42.4389449], [-76.2362398, 42.4390503], [-76.2362835, 42.4391547], [-76.2363321, 42.4392578], [-76.2363855, 42.4393596], [-76.2364437, 42.43946], [-76.2365066, 42.4395589], [-76.2365741, 42.439656], [-76.2366461, 42.4397513], [-76.2367226, 42.4398447], [-76.2368034, 42.4399361], [-76.2368885, 42.4400253], [-76.2369778, 42.4401123], [-76.2370711, 42.4401969], [-76.2371683, 42.4402791], [-76.2372693, 42.4403587], [-76.237374, 42.4404356], [-76.2374823, 42.4405098], [-76.237594, 42.4405812], [-76.237709, 42.4406496], [-76.2378272, 42.440715], [-76.2379483, 42.4407773], [-76.2381926, 42.4408937], [-76.23831, 42.4409541], [-76.2384244, 42.4410174], [-76.2385359, 42.4410837], [-76.2386441, 42.4411529], [-76.238749, 42.4412248], [-76.2388505, 42.4412994], [-76.2389483, 42.4413765], [-76.2390425, 42.4414562], [-76.2391329, 42.4415382], [-76.2392193, 42.4416225], [-76.2393017, 42.441709], [-76.23938, 42.4417976], [-76.239454, 42.4418882], [-76.2395237, 42.4419806], [-76.2362321, 42.4420308], [-76.2363627, 42.4447886], [-76.238124, 42.4447367], [-76.238461, 42.4453647], [-76.2388719, 42.4457799], [-76.2392808, 42.4456772], [-76.2405686, 42.44556], [-76.2412779, 42.4454983], [-76.2422155, 42.446925], [-76.2415666, 42.4469437], [-76.2418909, 42.4474372], [-76.2300899, 42.4477766], [-76.2303237, 42.4529174], [-76.2271784, 42.4529666], [-76.2267873, 42.4450724], [-76.2241728, 42.4451563], [-76.2240372, 42.441369], [-76.2264011, 42.4413187], [-76.2261223, 42.4352514], [-76.2261342, 42.4350944]]], [[[-76.2479041, 42.4478685], [-76.2497291, 42.4478053], [-76.2502108, 42.4477956], [-76.2501653, 42.4472478], [-76.250796, 42.4472278], [-76.2509377, 42.4485823], [-76.2509923, 42.4485809], [-76.2514448, 42.4550159], [-76.2497985, 42.4550587], [-76.2498939, 42.4555496], [-76.2495908, 42.4564643], [-76.2498292, 42.4573842], [-76.2498827, 42.4576884], [-76.2497164, 42.4576984], [-76.249917, 42.4588918], [-76.2498257, 42.4597814], [-76.2500179, 42.4605036], [-76.2499052, 42.4611057], [-76.2496427, 42.461713], [-76.2494161, 42.4622524], [-76.2440613, 42.4624093], [-76.2434366, 42.4511594], [-76.2433088, 42.4498246], [-76.243269, 42.4492518], [-76.2433314, 42.4486774], [-76.2445963, 42.4482524], [-76.2447191, 42.4474204], [-76.2472327, 42.4473408], [-76.2472597, 42.4479258], [-76.2471896, 42.4479261], [-76.2471937, 42.4480633], [-76.247379, 42.4480623], [-76.2473748, 42.4479252], [-76.2472968, 42.4479256], [-76.2472697, 42.4473396], [-76.2478591, 42.4473209], [-76.2479041, 42.4478685]]], [[[-76.2359042, 42.4311203], [-76.238258, 42.4310822], [-76.2382495, 42.4306738], [-76.2382791, 42.4306733], [-76.238278, 42.4306184], [-76.2382484, 42.4306189], [-76.2382421, 42.4303161], [-76.2384493, 42.4303407], [-76.239661, 42.4305439], [-76.240845, 42.4308299], [-76.2415927, 42.4311388], [-76.2470263, 42.4340825], [-76.2475615, 42.4342708], [-76.2476107, 42.4342998], [-76.247632, 42.4343204], [-76.2476482, 42.4343434], [-76.2476589, 42.4343681], [-76.2476632, 42.4343887], [-76.2476601, 42.43443], [-76.2470344, 42.4361787], [-76.2467627, 42.436922], [-76.2466914, 42.4371741], [-76.2453112, 42.4407996], [-76.2452683, 42.4409201], [-76.245231, 42.4410416], [-76.2451992, 42.441164], [-76.2451731, 42.4412871], [-76.2451526, 42.4414108], [-76.2451379, 42.4415349], [-76.2451288, 42.4416594], [-76.2451255, 42.441784], [-76.2452014, 42.4437699], [-76.2452053, 42.4440096], [-76.2451981, 42.4442493], [-76.2451798, 42.4444887], [-76.2451504, 42.4447275], [-76.24511, 42.4449654], [-76.2450586, 42.4452021], [-76.2447126, 42.4471673], [-76.2446984, 42.4472013], [-76.244675, 42.4472323], [-76.2446434, 42.4472591], [-76.2446051, 42.4472806], [-76.2430587, 42.4473284], [-76.2430045, 42.447328], [-76.2429507, 42.4473234], [-76.2428979, 42.4473147], [-76.2428465, 42.4473019], [-76.2427972, 42.4472853], [-76.2427506, 42.4472649], [-76.2426933, 42.4472324], [-76.2426546, 42.4472043], [-76.2426201, 42.4471733], [-76.241297, 42.445217], [-76.2411481, 42.445002], [-76.241009, 42.4447834], [-76.2408801, 42.4445614], [-76.2407614, 42.4443363], [-76.240653, 42.4441084], [-76.2401571, 42.443006], [-76.2401105, 42.442795], [-76.2400799, 42.4426905], [-76.2400447, 42.4425868], [-76.2399601, 42.4423824], [-76.239857, 42.4421827], [-76.2397987, 42.4420848], [-76.239736, 42.4419885], [-76.2395975, 42.4418009], [-76.2394423, 42.4416206], [-76.2393586, 42.4415335], [-76.2392709, 42.4414485], [-76.2391795, 42.4413658], [-76.2390843, 42.4412854], [-76.2389855, 42.4412074], [-76.2388833, 42.441132], [-76.2386687, 42.4409889], [-76.2384751, 42.4408753], [-76.238273, 42.4407702], [-76.2380503, 42.4406643], [-76.2379344, 42.4406047], [-76.2378213, 42.4405422], [-76.2377113, 42.4404767], [-76.2376045, 42.4404085], [-76.2375009, 42.4403375], [-76.2374007, 42.4402639], [-76.2373041, 42.4401878], [-76.2371218, 42.4400283], [-76.2370364, 42.4399451], [-76.236955, 42.4398597], [-76.2368777, 42.4397723], [-76.2368045, 42.4396829], [-76.2367356, 42.4395917], [-76.2366109, 42.4394043], [-76.2365552, 42.4393082], [-76.2365041, 42.4392108], [-76.2364576, 42.4391122], [-76.2364158, 42.4390123], [-76.2363464, 42.4388098], [-76.2362963, 42.4386041], [-76.2362785, 42.4385004], [-76.2362656, 42.4383964], [-76.2360725, 42.4347843], [-76.2360405, 42.4335194], [-76.2359042, 42.4311203]]], [[[-76.2468835, 42.4371701], [-76.2469437, 42.4369604], [-76.2478086, 42.4345422], [-76.2478381, 42.4345134], [-76.247879, 42.4344938], [-76.2479264, 42.4344856], [-76.2479748, 42.4344898], [-76.2479841, 42.4344921], [-76.2493314, 42.4351467], [-76.2501122, 42.4355305], [-76.2514742, 42.4362399], [-76.2530162, 42.4370942], [-76.2527865, 42.4373907], [-76.2552275, 42.4386173], [-76.2551901, 42.4380148], [-76.2569962, 42.4385519], [-76.2594871, 42.4393141], [-76.260692, 42.4396895], [-76.2611748, 42.4399172], [-76.2617577, 42.4402089], [-76.2622172, 42.4405279], [-76.2635789, 42.4415908], [-76.264374, 42.4422372], [-76.2649442, 42.442713], [-76.2683405, 42.4454993], [-76.2680671, 42.4457491], [-76.2676187, 42.4462285], [-76.2674767, 42.4463622], [-76.2674135, 42.4464084], [-76.267344, 42.4464493], [-76.2672688, 42.4464844], [-76.267189, 42.4465133], [-76.2671055, 42.4465356], [-76.2670192, 42.4465512], [-76.2668916, 42.4465647], [-76.266363, 42.4465842], [-76.2580801, 42.4467861], [-76.2579558, 42.4467912], [-76.2577566, 42.4468077], [-76.2575595, 42.4468345], [-76.2573654, 42.4468715], [-76.2571752, 42.4469183], [-76.2569899, 42.4469749], [-76.2564658, 42.4471968], [-76.2560847, 42.4470262], [-76.255956, 42.4469912], [-76.2557723, 42.4469509], [-76.2557752, 42.447001], [-76.2554509, 42.4469442], [-76.244943, 42.4472701], [-76.2449191, 42.4472526], [-76.244904, 42.4472338], [-76.2448947, 42.4472098], [-76.244894, 42.447188], [-76.2452399, 42.4452228], [-76.245292, 42.444982], [-76.245333, 42.44474], [-76.2453628, 42.4444971], [-76.2453814, 42.4442536], [-76.2453887, 42.4440098], [-76.2453847, 42.4437659], [-76.2453588, 42.4431103], [-76.2455625, 42.4431057], [-76.2455555, 42.4429291], [-76.2453518, 42.442932], [-76.2453089, 42.4417845], [-76.2453121, 42.4416645], [-76.2453208, 42.4415446], [-76.245335, 42.4414251], [-76.2453547, 42.4413059], [-76.2453799, 42.4411874], [-76.2454104, 42.4410695], [-76.2454464, 42.4409525], [-76.2454877, 42.4408364], [-76.2468835, 42.4371701]]], [[[-76.2557022, 42.4470789], [-76.2558599, 42.4471117], [-76.2560186, 42.4471537], [-76.2564198, 42.4473355], [-76.2575015, 42.4478081], [-76.2585101, 42.4482543], [-76.2586001, 42.4483002], [-76.2586942, 42.448358], [-76.2587755, 42.448418], [-76.2588576, 42.4484907], [-76.2589132, 42.4485473], [-76.2589605, 42.4486014], [-76.2590066, 42.4486609], [-76.2590495, 42.4487244], [-76.2598135, 42.4500743], [-76.2610568, 42.4524807], [-76.2593539, 42.4525148], [-76.2591257, 42.4522863], [-76.2589084, 42.4520521], [-76.2588039, 42.4519329], [-76.2586807, 42.4517861], [-76.2558109, 42.4484636], [-76.2557022, 42.4470789]]], [[[-76.2558394, 42.4488327], [-76.2584746, 42.4518837], [-76.2590144, 42.4524924], [-76.2560623, 42.4525808], [-76.2558394, 42.4488327]]], [[[-76.2665124, 42.4467159], [-76.2667159, 42.4477347], [-76.2688595, 42.4474982], [-76.2692487, 42.452316], [-76.2612521, 42.4524767], [-76.2599855, 42.4500233], [-76.2592174, 42.4486665], [-76.259156, 42.4485773], [-76.2590869, 42.4484928], [-76.258987, 42.4483906], [-76.2588792, 42.4482996], [-76.2587675, 42.4482234], [-76.258649, 42.4481576], [-76.2575956, 42.4476899], [-76.2566512, 42.4472773], [-76.2570687, 42.4470999], [-76.2571983, 42.4470593], [-76.2572861, 42.4470351], [-76.257465, 42.4469936], [-76.2576474, 42.4469614], [-76.2578324, 42.4469387], [-76.2579723, 42.446928], [-76.2580886, 42.4469232], [-76.2665124, 42.4467159]]], [[[-76.259209, 42.4324448], [-76.2745542, 42.4318498], [-76.2747527, 42.4350272], [-76.2749276, 42.4378262], [-76.2749516, 42.4385568], [-76.2716059, 42.4387345], [-76.2717313, 42.4398703], [-76.2697082, 42.4398858], [-76.2637868, 42.4415249], [-76.2620869, 42.4402319], [-76.2617527, 42.4400202], [-76.2612617, 42.4397628], [-76.2608369, 42.4395621], [-76.2604146, 42.4394352], [-76.2600161, 42.4393008], [-76.2595678, 42.4391663], [-76.2593553, 42.4353411], [-76.259209, 42.4324448]]], [[[-76.2543714, 42.4242012], [-76.2549718, 42.4335426], [-76.2569624, 42.4335143], [-76.2570182, 42.4348076], [-76.2591533, 42.4347787], [-76.2593285, 42.4390915], [-76.255247, 42.4378248], [-76.2552473, 42.4378291], [-76.2551794, 42.4378038], [-76.2551793, 42.4378016], [-76.2543765, 42.4374778], [-76.2523087, 42.4364602], [-76.2506564, 42.4356058], [-76.2493728, 42.4349555], [-76.2496491, 42.4346369], [-76.2491108, 42.4343694], [-76.2488344, 42.434688], [-76.248179, 42.4343623], [-76.2479134, 42.4342804], [-76.2465261, 42.4335263], [-76.2463614, 42.4333166], [-76.2487397, 42.4321634], [-76.2488839, 42.4320859], [-76.2490164, 42.4319976], [-76.2490975, 42.4319332], [-76.2491723, 42.4318649], [-76.2492405, 42.4317928], [-76.2493018, 42.4317174], [-76.24938, 42.4315988], [-76.2494411, 42.4314748], [-76.249472, 42.4313898], [-76.2495031, 42.4312598], [-76.2495135, 42.4311738], [-76.2495159, 42.4310891], [-76.2495052, 42.4309624], [-76.2494885, 42.4308786], [-76.249296, 42.4300944], [-76.2492756, 42.429981], [-76.2492647, 42.429867], [-76.248974, 42.4243562], [-76.2543714, 42.4242012]]], [[[-76.2334055, 42.4313693], [-76.2271648, 42.4289805], [-76.2282095, 42.427334], [-76.2286638, 42.4269475], [-76.2290767, 42.4272369], [-76.2295665, 42.4275479], [-76.2299812, 42.4277455], [-76.2343113, 42.4294458], [-76.2356525, 42.4299192], [-76.2357887, 42.4323171], [-76.2334055, 42.4313693]]], [[[-76.2391458, 42.4296478], [-76.2387721, 42.4215462], [-76.2388506, 42.4215567], [-76.239006, 42.4215836], [-76.2390827, 42.4215998], [-76.2392337, 42.4216378], [-76.239381, 42.4216831], [-76.2394531, 42.4217085], [-76.2395241, 42.4217355], [-76.2396621, 42.4217947], [-76.2417509, 42.4231248], [-76.2432986, 42.4240487], [-76.2433538, 42.4240744], [-76.2434322, 42.4241019], [-76.243494, 42.4241173], [-76.2435791, 42.4241303], [-76.2436874, 42.4241344], [-76.2437952, 42.4241248], [-76.2438991, 42.4241018], [-76.2439585, 42.4240818], [-76.2440147, 42.4240575], [-76.2442085, 42.4239595], [-76.2443546, 42.4238682], [-76.2445252, 42.4237704], [-76.244687, 42.4236646], [-76.2448827, 42.4235214], [-76.244953, 42.4234809], [-76.2450287, 42.4234461], [-76.2451089, 42.4234173], [-76.2451928, 42.4233949], [-76.2453086, 42.4233754], [-76.2454269, 42.4233681], [-76.2455838, 42.4233315], [-76.2456609, 42.4233102], [-76.2457369, 42.423287], [-76.2458855, 42.4232348], [-76.2460288, 42.423175], [-76.2460983, 42.4231424], [-76.2461662, 42.4231081], [-76.2462971, 42.4230342], [-76.2464207, 42.4229538], [-76.2464796, 42.4229113], [-76.2465913, 42.4228219], [-76.2466439, 42.4227751], [-76.2467837, 42.4226405], [-76.2468518, 42.4225892], [-76.2469266, 42.4225432], [-76.2469799, 42.4225159], [-76.2470355, 42.4224914], [-76.247123, 42.42246], [-76.2472143, 42.4224354], [-76.2473404, 42.4224138], [-76.2474694, 42.4224051], [-76.2475665, 42.4224073], [-76.2476945, 42.4224217], [-76.2479112, 42.4224647], [-76.2480352, 42.4224855], [-76.2482855, 42.4225184], [-76.2485382, 42.4225396], [-76.2487921, 42.422549], [-76.2488127, 42.4229362], [-76.2487884, 42.4229893], [-76.2487617, 42.4230763], [-76.248743, 42.4231646], [-76.2487324, 42.4232535], [-76.2490815, 42.4298723], [-76.2490939, 42.4299999], [-76.2491153, 42.4301176], [-76.2493081, 42.4309029], [-76.2493233, 42.4309799], [-76.2493326, 42.4310965], [-76.2493256, 42.4312132], [-76.2493023, 42.4313286], [-76.2492778, 42.4314044], [-76.249228, 42.4315152], [-76.2491631, 42.4316216], [-76.2490836, 42.4317224], [-76.2489904, 42.4318166], [-76.2488846, 42.4319031], [-76.2487672, 42.4319811], [-76.2486396, 42.4320496], [-76.246725, 42.4329779], [-76.2441161, 42.4315626], [-76.2441524, 42.4322685], [-76.2428766, 42.4315953], [-76.2421619, 42.4311246], [-76.2420361, 42.4310828], [-76.2422287, 42.430866], [-76.2416679, 42.4303601], [-76.2416195, 42.4303954], [-76.2413681, 42.4305287], [-76.2411901, 42.4306334], [-76.2410215, 42.4307219], [-76.2408164, 42.4306463], [-76.2403941, 42.4305037], [-76.2399405, 42.4304072], [-76.2400002, 42.4298405], [-76.2391458, 42.4296478]]], [[[-76.2423207, 42.4225832], [-76.2413813, 42.4220462], [-76.2409428, 42.4224311], [-76.2397712, 42.4216851], [-76.2396188, 42.421619], [-76.2394607, 42.4215607], [-76.2392976, 42.4215105], [-76.2391303, 42.4214686], [-76.2389596, 42.4214351], [-76.2387862, 42.4214102], [-76.238611, 42.4213941], [-76.2384347, 42.4213868], [-76.2382581, 42.4213884], [-76.23817, 42.4213924], [-76.2379945, 42.4214072], [-76.2378208, 42.4214307], [-76.2376497, 42.4214629], [-76.2356839, 42.421925], [-76.2355486, 42.4219531], [-76.2354109, 42.4219741], [-76.2352716, 42.421988], [-76.2351314, 42.4219946], [-76.2349421, 42.4219977], [-76.2348236, 42.4220064], [-76.2347062, 42.422021], [-76.2345333, 42.4220542], [-76.2344211, 42.4220836], [-76.2330315, 42.4224883], [-76.2322488, 42.422808], [-76.2318428, 42.4222961], [-76.2313409, 42.4223212], [-76.2312795, 42.4222543], [-76.2312027, 42.4221523], [-76.2311596, 42.4220813], [-76.2311233, 42.4220082], [-76.231094, 42.4219335], [-76.2310633, 42.4218189], [-76.2310519, 42.4217415], [-76.2309707, 42.4209318], [-76.2309896, 42.4208027], [-76.2310143, 42.4206742], [-76.2310446, 42.4205463], [-76.2310806, 42.4204193], [-76.2311223, 42.4202932], [-76.2311696, 42.4201682], [-76.2312224, 42.4200444], [-76.2312806, 42.419922], [-76.2323656, 42.4183071], [-76.2324334, 42.418214], [-76.2325196, 42.4180688], [-76.2325984, 42.4179083], [-76.232615, 42.4178666], [-76.2326326, 42.4178029], [-76.2326415, 42.4177381], [-76.2326425, 42.4176947], [-76.2326326, 42.4176082], [-76.2326149, 42.4175445], [-76.2325982, 42.4175028], [-76.2415564, 42.4172994], [-76.2416739, 42.4192186], [-76.248603, 42.4189903], [-76.2485048, 42.4171412], [-76.2476995, 42.4171596], [-76.2475653, 42.4146322], [-76.2537438, 42.4144313], [-76.2542429, 42.4222012], [-76.2494882, 42.4223928], [-76.2494777, 42.4220392], [-76.2492317, 42.4220473], [-76.2492423, 42.4221868], [-76.2494214, 42.4221804], [-76.249431, 42.4223951], [-76.2489509, 42.4224129], [-76.2488262, 42.4224135], [-76.2485772, 42.4224056], [-76.248453, 42.4223972], [-76.2482062, 42.4223715], [-76.2479621, 42.422334], [-76.2477295, 42.4222883], [-76.2476151, 42.4222744], [-76.247538, 42.4222699], [-76.247422, 42.4222707], [-76.2473067, 42.4222802], [-76.2472309, 42.4222915], [-76.2471195, 42.4223155], [-76.2470121, 42.4223479], [-76.2469097, 42.4223883], [-76.2468449, 42.4224195], [-76.246783, 42.4224539], [-76.2467245, 42.4224913], [-76.2466436, 42.4225529], [-76.2465009, 42.4226895], [-76.2464509, 42.4227338], [-76.2463448, 42.4228183], [-76.2462889, 42.4228585], [-76.2461715, 42.4229344], [-76.2460472, 42.4230041], [-76.2459828, 42.4230365], [-76.2459168, 42.4230672], [-76.2457807, 42.4231235], [-76.2456397, 42.4231726], [-76.2455676, 42.4231944], [-76.2454205, 42.4232324], [-76.2453484, 42.4232352], [-76.2452767, 42.4232417], [-76.2451708, 42.4232584], [-76.2451017, 42.423274], [-76.2450343, 42.4232932], [-76.244937, 42.4233284], [-76.2448452, 42.423371], [-76.2447876, 42.4234032], [-76.2447332, 42.4234384], [-76.2445599, 42.4235667], [-76.2444827, 42.4236188], [-76.2443214, 42.4237171], [-76.2442375, 42.4237632], [-76.2441596, 42.4238148], [-76.2440774, 42.4238625], [-76.2439087, 42.4239465], [-76.2438539, 42.4239685], [-76.2437655, 42.4239906], [-76.2436885, 42.4239984], [-76.2436107, 42.4239964], [-76.2435346, 42.4239846], [-76.2434763, 42.4239683], [-76.2434086, 42.4239399], [-76.2418806, 42.4230278], [-76.2423207, 42.4225832]]], [[[-76.2306212, 42.4175476], [-76.2324049, 42.4175072], [-76.2324361, 42.417575], [-76.2324538, 42.4176416], [-76.232459, 42.4176924], [-76.2324572, 42.4177434], [-76.2324387, 42.4178271], [-76.2324186, 42.4178759], [-76.2323918, 42.4179228], [-76.2323493, 42.4180169], [-76.2322981, 42.4181086], [-76.2322055, 42.4182406], [-76.2311122, 42.4198679], [-76.2310379, 42.420025], [-76.2306964, 42.419955], [-76.2306212, 42.4175476]]], [[[-76.4683588, 42.4559684], [-76.468576, 42.4559687], [-76.4684846, 42.4541668], [-76.4688735, 42.4540995], [-76.470059, 42.4541771], [-76.4706293, 42.4532596], [-76.4703343, 42.4529509], [-76.4701036, 42.4527371], [-76.4697871, 42.4525075], [-76.4694894, 42.4522048], [-76.4691407, 42.4517733], [-76.4687786, 42.4513656], [-76.4684933, 42.4510963], [-76.4680515, 42.4507713], [-76.4677719, 42.450701], [-76.4674402, 42.4506947], [-76.4669959, 42.4508357], [-76.4667285, 42.4510029], [-76.4665564, 42.4512407], [-76.4661615, 42.4510631], [-76.4658832, 42.4507946], [-76.4650203, 42.4499095], [-76.4645638, 42.4511083], [-76.4641524, 42.4516941], [-76.4638351, 42.4519707], [-76.4636696, 42.4520891], [-76.4630741, 42.4524331], [-76.4623886, 42.4526488], [-76.4620356, 42.452698], [-76.461592, 42.4527165], [-76.4612603, 42.4526976], [-76.460872, 42.4526286], [-76.4604461, 42.4525067], [-76.46007, 42.452356], [-76.4600451, 42.4523083], [-76.46015, 42.4521684], [-76.4601944, 42.4520612], [-76.460186, 42.4519596], [-76.460105, 42.4518261], [-76.4596388, 42.451579], [-76.459194, 42.4513385], [-76.4590256, 42.4511864], [-76.4586031, 42.450628], [-76.4584141, 42.450477], [-76.458127, 42.4503219], [-76.4577995, 42.4502642], [-76.4574078, 42.4502724], [-76.4571882, 42.4502171], [-76.4570403, 42.4501172], [-76.4568494, 42.4498763], [-76.4566943, 42.449783], [-76.4568693, 42.4497246], [-76.4566614, 42.4493529], [-76.456614, 42.4493642], [-76.4564288, 42.4490799], [-76.4571709, 42.4487608], [-76.4566766, 42.4481901], [-76.4573777, 42.4479046], [-76.457297, 42.4473389], [-76.4566265, 42.4473381], [-76.4566265, 42.4467365], [-76.4557038, 42.4467523], [-76.4554463, 42.4420812], [-76.4654885, 42.4421445], [-76.4653101, 42.4415085], [-76.4654431, 42.4411407], [-76.4668111, 42.44134], [-76.4678157, 42.4415223], [-76.4685363, 42.4419575], [-76.4688522, 42.4422782], [-76.4692144, 42.4424198], [-76.4700536, 42.4425642], [-76.4703063, 42.4412189], [-76.4707738, 42.4413865], [-76.4711482, 42.4414139], [-76.4723082, 42.4413959], [-76.4735459, 42.44139], [-76.4748133, 42.4413536], [-76.4774877, 42.4412304], [-76.4781534, 42.4415601], [-76.4783874, 42.4416597], [-76.4786089, 42.4417106], [-76.4793585, 42.4417193], [-76.4797336, 42.4417237], [-76.4797426, 42.4419441], [-76.4801618, 42.4420233], [-76.4802926, 42.4421027], [-76.4802858, 42.4419258], [-76.4806148, 42.4420437], [-76.4811296, 42.442035], [-76.4813681, 42.4419247], [-76.4820973, 42.4421631], [-76.482457, 42.4423518], [-76.4827087, 42.4424731], [-76.4828495, 42.4425199], [-76.4832126, 42.4426405], [-76.4832992, 42.4426693], [-76.4832977, 42.4427442], [-76.4838161, 42.4428247], [-76.4838188, 42.4428454], [-76.4840531, 42.4429107], [-76.4842822, 42.4428859], [-76.4843994, 42.4428732], [-76.4843892, 42.4426713], [-76.4849292, 42.4426444], [-76.4851217, 42.4428547], [-76.4853075, 42.442833], [-76.485395, 42.4426306], [-76.4853649, 42.4422622], [-76.4853519, 42.4419562], [-76.4857611, 42.4419486], [-76.4857567, 42.442133], [-76.4858267, 42.4421873], [-76.4860091, 42.4421824], [-76.4860033, 42.4422495], [-76.4867886, 42.4422601], [-76.4868031, 42.4422583], [-76.4870494, 42.4422275], [-76.487347, 42.4422305], [-76.4873581, 42.4424192], [-76.4877225, 42.4424174], [-76.4878268, 42.442778], [-76.4880273, 42.4429034], [-76.4883395, 42.443125], [-76.4888592, 42.4431611], [-76.489002, 42.4427616], [-76.4889916, 42.442365], [-76.4897231, 42.4423493], [-76.4897715, 42.4423759], [-76.4897359, 42.4425611], [-76.4896146, 42.4428443], [-76.4895508, 42.4431009], [-76.4894685, 42.4435581], [-76.4894264, 42.443673], [-76.489349, 42.4442219], [-76.4893066, 42.4445517], [-76.4892674, 42.4446826], [-76.4892145, 42.4447757], [-76.4894566, 42.4450902], [-76.489727, 42.4453887], [-76.4898283, 42.4455454], [-76.4900575, 42.446214], [-76.4920953, 42.4461871], [-76.4925632, 42.4461809], [-76.4926745, 42.4462178], [-76.4927632, 42.446276], [-76.4928373, 42.4471485], [-76.4929188, 42.4472643], [-76.4929817, 42.4472941], [-76.4925885, 42.4485565], [-76.4923954, 42.4491582], [-76.491345, 42.4502348], [-76.4908368, 42.4504708], [-76.4909902, 42.4516581], [-76.4909366, 42.4517948], [-76.49112, 42.4518014], [-76.4911299, 42.4523005], [-76.4906922, 42.452326], [-76.4903218, 42.4522075], [-76.4897338, 42.4521649], [-76.4896408, 42.4525441], [-76.4896786, 42.4526925], [-76.4897929, 42.4528643], [-76.49013, 42.4530302], [-76.4905296, 42.4532905], [-76.4906584, 42.4536388], [-76.4907013, 42.4540188], [-76.4907656, 42.4544304], [-76.4905725, 42.4546679], [-76.4904652, 42.4548737], [-76.4904652, 42.4552061], [-76.4905725, 42.4555544], [-76.4907227, 42.4558552], [-76.4907227, 42.4560452], [-76.4905521, 42.4562091], [-76.4887976, 42.4562648], [-76.488649, 42.4563693], [-76.4877894, 42.4567061], [-76.4872213, 42.4566802], [-76.4873154, 42.4568013], [-76.4874077, 42.4570283], [-76.4873119, 42.4574033], [-76.4870319, 42.4578707], [-76.4864093, 42.4581449], [-76.4863552, 42.4577148], [-76.4861994, 42.4567221], [-76.485432, 42.456827], [-76.4849183, 42.456974], [-76.4844468, 42.4572424], [-76.4844036, 42.4573757], [-76.4845645, 42.4575817], [-76.4847885, 42.4579937], [-76.4848875, 42.4583082], [-76.4831642, 42.4583903], [-76.4828257, 42.4585963], [-76.4820878, 42.4586592], [-76.4818606, 42.458795], [-76.4811643, 42.459009], [-76.478575, 42.4593846], [-76.4787878, 42.4598413], [-76.4788625, 42.4599033], [-76.4789559, 42.4599636], [-76.4789816, 42.4599998], [-76.4789676, 42.4600446], [-76.4788999, 42.4600842], [-76.4787785, 42.4601255], [-76.4785496, 42.4601445], [-76.4782858, 42.4601428], [-76.4781901, 42.460141], [-76.4781223, 42.4601583], [-76.478092, 42.460191], [-76.478085, 42.4602444], [-76.478105, 42.4604365], [-76.478075, 42.4605138], [-76.4779329, 42.4605856], [-76.4779254, 42.4607456], [-76.4775962, 42.4608836], [-76.4770725, 42.4609995], [-76.4765786, 42.4611872], [-76.475972, 42.4612416], [-76.4758316, 42.4612489], [-76.4757258, 42.4606608], [-76.475602, 42.4602759], [-76.4755224, 42.460115], [-76.4753197, 42.4601337], [-76.4750423, 42.4601618], [-76.4739563, 42.4602186], [-76.4736328, 42.4603865], [-76.4735878, 42.4604402], [-76.4699243, 42.4602723], [-76.4694266, 42.4603753], [-76.468687, 42.4603715], [-76.4685272, 42.4607075], [-76.4678343, 42.4607626], [-76.4682354, 42.4587539], [-76.4665894, 42.4587739], [-76.4663993, 42.4589997], [-76.4664529, 42.4602371], [-76.4667668, 42.4613162], [-76.466775, 42.4625876], [-76.4667342, 42.4627905], [-76.4663178, 42.462867], [-76.4661014, 42.4628881], [-76.4657972, 42.4628211], [-76.4634274, 42.4629417], [-76.4617576, 42.4615811], [-76.4602123, 42.4596505], [-76.4607482, 42.4593379], [-76.4614959, 42.4591264], [-76.463795, 42.4590193], [-76.4636712, 42.4588523], [-76.4620128, 42.4589314], [-76.4619056, 42.4583069], [-76.4614101, 42.4586136], [-76.4609042, 42.4588601], [-76.4604477, 42.4589487], [-76.4591504, 42.4594547], [-76.4593885, 42.4601405], [-76.4601717, 42.4613278], [-76.4596353, 42.4613911], [-76.4596031, 42.4620401], [-76.4591417, 42.4620955], [-76.4592487, 42.4623228], [-76.4582938, 42.4629441], [-76.457811, 42.4629837], [-76.4578712, 42.4645967], [-76.4566028, 42.4646306], [-76.4565227, 42.4622333], [-76.4554104, 42.4622401], [-76.4521594, 42.4622598], [-76.449744, 42.4624013], [-76.4496326, 42.4606427], [-76.4519534, 42.4605046], [-76.4521251, 42.4592698], [-76.4520822, 42.4591036], [-76.4522109, 42.4589136], [-76.452178, 42.4587356], [-76.4527147, 42.4584176], [-76.4538693, 42.4580877], [-76.4552271, 42.4578897], [-76.4553328, 42.4579197], [-76.4553897, 42.4591015], [-76.4555767, 42.4591855], [-76.4563329, 42.4592155], [-76.4569102, 42.4592035], [-76.4579429, 42.4591315], [-76.4584497, 42.4590217], [-76.4584388, 42.4588344], [-76.4579288, 42.4548069], [-76.4579998, 42.4547312], [-76.4585577, 42.4546995], [-76.4607486, 42.4562309], [-76.4610038, 42.4564093], [-76.4626561, 42.4553328], [-76.4641416, 42.4557641], [-76.4645518, 42.4558832], [-76.4674977, 42.455811], [-76.4675124, 42.455991], [-76.4683588, 42.4559684]]], [[[-76.4344634, 42.5017673], [-76.4344531, 42.5020871], [-76.4344345, 42.5026669], [-76.43443, 42.5028074], [-76.4343048, 42.5028505], [-76.4341462, 42.5028628], [-76.434046, 42.5028812], [-76.4339792, 42.5029366], [-76.4348725, 42.5034967], [-76.4392885, 42.5034228], [-76.4394221, 42.5035705], [-76.4396091, 42.5035705], [-76.4406492, 42.5035705], [-76.4406323, 42.5031241], [-76.4406023, 42.5023339], [-76.4405741, 42.5015888], [-76.4347556, 42.5017427], [-76.4344634, 42.5017673]]], [[[-76.4675914, 42.4361745], [-76.467353, 42.4320583], [-76.4672695, 42.4306157], [-76.4637357, 42.4306537], [-76.4628492, 42.4306632], [-76.4630008, 42.4316105], [-76.463412, 42.4341803], [-76.4634929, 42.4346858], [-76.463965, 42.4353035], [-76.4645658, 42.4358419], [-76.4658962, 42.4362537], [-76.4675914, 42.4361745]]], [[[-76.4611616, 42.4305924], [-76.4623873, 42.4313978], [-76.4623403, 42.4314324], [-76.462648, 42.4316895], [-76.4627916, 42.4326492], [-76.4624312, 42.4323786], [-76.4622501, 42.4322423], [-76.4620629, 42.4321061], [-76.4618002, 42.4323351], [-76.4615669, 42.4322144], [-76.4613241, 42.4320982], [-76.4610674, 42.4320706], [-76.4609581, 42.4320349], [-76.4608224, 42.432219], [-76.4607102, 42.4323937], [-76.4606111, 42.4325358], [-76.4594723, 42.4320919], [-76.4593902, 42.4320312], [-76.4593559, 42.4319352], [-76.4611616, 42.4305924]]], [[[-76.4865381, 42.4583622], [-76.48685, 42.4583936], [-76.4872469, 42.4584773], [-76.4874426, 42.4589102], [-76.4867366, 42.4589458], [-76.4866345, 42.4586655], [-76.4865381, 42.4583622]]], [[[-76.492053, 42.4405011], [-76.4920088, 42.4393788], [-76.4910421, 42.4393809], [-76.4910509, 42.4402271], [-76.4916139, 42.4402227], [-76.4916315, 42.4405229], [-76.492053, 42.4405011]]]]}}