{"type": "Feature", "properties": {"market_key": 560, "university": "Ball State University", "osm_type": "way", "osm_id": 30811866, "osm_name": "Ball State University"}, "geometry": {"type": "Polygon", "coordinates": [[[-85.4096576, 40.20145], [-85.4102602, 40.2014472], [-85.4102366, 40.2008988], [-85.4109209, 40.2008921], [-85.4109241, 40.2006599], [-85.4114668, 40.2006634], [-85.4114671, 40.2001886], [-85.418934, 40.2001524], [-85.4189795, 40.2001134], [-85.419, 40.1999098], [-85.4190335, 40.1996371], [-85.4190377, 40.198932], [-85.4190308, 40.1982723], [-85.4189838, 40.1977311], [-85.4189646, 40.1977062], [-85.4189335, 40.1976946], [-85.4188866, 40.1976855], [-85.4128829, 40.1977026], [-85.4128844, 40.1975127], [-85.4128725, 40.1961364], [-85.4131642, 40.1961206], [-85.4139684, 40.1960903], [-85.413987, 40.1957541], [-85.4115182, 40.1957565], [-85.4114992, 40.1957047], [-85.4115019, 40.1948206], [-85.4072411, 40.1948193], [-85.4072429, 40.1950999], [-85.4078278, 40.1950933], [-85.4078288, 40.1960356], [-85.4073996, 40.1960451], [-85.4072417, 40.1960465], [-85.4072415, 40.1962063], [-85.4078291, 40.1962042], [-85.4078508, 40.1967492], [-85.4076578, 40.1967368], [-85.4072906, 40.1967386], [-85.4072873, 40.196893], [-85.4078331, 40.1968902], [-85.40783, 40.1971095], [-85.4078424, 40.1971577], [-85.4072483, 40.1971545], [-85.407263, 40.1979845], [-85.4072004, 40.1979848], [-85.4068058, 40.1979858], [-85.4068194, 40.1986528], [-85.4058794, 40.198655], [-85.4058249, 40.1986708], [-85.405774, 40.1986711], [-85.4055802, 40.1986947], [-85.4038951, 40.1986873], [-85.4038957, 40.1988293], [-85.4038967, 40.1990949], [-85.4038968, 40.1997226], [-85.4037263, 40.1997231], [-85.403367, 40.1997228], [-85.4033554, 40.2003897], [-85.4028576, 40.2003779], [-85.4028961, 40.2016879], [-85.402741, 40.2016849], [-85.4023776, 40.201678], [-85.4023803, 40.2021282], [-85.4014367, 40.202124], [-85.4010968, 40.20205], [-85.4010557, 40.2020592], [-85.4010647, 40.2022447], [-85.4010986, 40.2023199], [-85.4010968, 40.2025149], [-85.4010574, 40.2026551], [-85.4010565, 40.202707], [-85.4010497, 40.2039329], [-85.4011086, 40.2039687], [-85.4011455, 40.2041461], [-85.4010501, 40.2042201], [-85.4010467, 40.2053622], [-85.4034257, 40.2054026], [-85.403417, 40.2071645], [-85.4013586, 40.2071329], [-85.4013472, 40.2075093], [-85.4014437, 40.2076042], [-85.4023153, 40.2079202], [-85.4029702, 40.2079328], [-85.4032657, 40.2079329], [-85.4037562, 40.2079223], [-85.4040811, 40.207956], [-85.4042324, 40.2079819], [-85.4045107, 40.2080687], [-85.4046055, 40.2081375], [-85.4046373, 40.2082818], [-85.4046739, 40.2084194], [-85.4045101, 40.2087328], [-85.4099351, 40.2107264], [-85.4096852, 40.2110995], [-85.4097006, 40.2127662], [-85.4097307, 40.2128908], [-85.4097337, 40.2130094], [-85.4097605, 40.2140053], [-85.4097579, 40.2148477], [-85.4152805, 40.2148177], [-85.4153687, 40.2193026], [-85.4154069, 40.2198159], [-85.415441, 40.2224164], [-85.4154577, 40.2236933], [-85.417795, 40.2237179], [-85.4181026, 40.223723], [-85.4180849, 40.2249292], [-85.4180684, 40.2257552], [-85.4181534, 40.2257175], [-85.4182137, 40.2256694], [-85.4182658, 40.2256234], [-85.4183096, 40.2256045], [-85.4185864, 40.2256066], [-85.4187426, 40.2257364], [-85.418802, 40.2257344], [-85.4188425, 40.2257189], [-85.4194922, 40.225718], [-85.4197847, 40.2257163], [-85.420127, 40.2257205], [-85.4201054, 40.2243577], [-85.4208464, 40.2243484], [-85.4215902, 40.2238328], [-85.4219954, 40.2232984], [-85.423462, 40.224457], [-85.4236552, 40.2243308], [-85.4239542, 40.2241058], [-85.4241572, 40.2239948], [-85.4244612, 40.2238898], [-85.424724, 40.2238479], [-85.4245857, 40.2162897], [-85.4203025, 40.2147366], [-85.4202332, 40.2147406], [-85.4202115, 40.2147552], [-85.4201446, 40.2147531], [-85.4198022, 40.2146156], [-85.4194543, 40.2144906], [-85.4189918, 40.2143681], [-85.4176624, 40.2138681], [-85.4176573, 40.2138227], [-85.4152728, 40.2129232], [-85.4151633, 40.2075648], [-85.4101216, 40.2075708], [-85.4101173, 40.2072314], [-85.4100732, 40.2071795], [-85.4098807, 40.2071998], [-85.4098551, 40.205291], [-85.4098294, 40.2051623], [-85.4098343, 40.2048308], [-85.4096917, 40.2047397], [-85.4096862, 40.2043249], [-85.4096576, 40.20145]]]}}