{"type": "Feature", "properties": {"market_key": 562, "university": "SUNY Cortland", "osm_type": "way", "osm_id": 364424731, "osm_name": "State University of New York College at Cortland"}, "geometry": {"type": "Polygon", "coordinates": [[[-76.1873992, 42.6007088], [-76.1881287, 42.6006594], [-76.18962, 42.5997709], [-76.190135, 42.5994916], [-76.1909021, 42.5991678], [-76.1915297, 42.5987373], [-76.1918891, 42.5981687], [-76.1918998, 42.5976001], [-76.1937184, 42.597142], [-76.194346, 42.5969485], [-76.1944265, 42.5967353], [-76.1947108, 42.5958191], [-76.1947323, 42.595361], [-76.1946196, 42.5948003], [-76.1944801, 42.5944685], [-76.1941905, 42.594125], [-76.1943657, 42.5940109], [-76.194484, 42.5939339], [-76.1948395, 42.5937024], [-76.1951185, 42.5935879], [-76.1951292, 42.5930745], [-76.1957163, 42.5929815], [-76.1969862, 42.5927803], [-76.197672, 42.5926717], [-76.1988629, 42.5925611], [-76.1987556, 42.5910485], [-76.2006546, 42.5906852], [-76.2029184, 42.5902034], [-76.2042595, 42.5899131], [-76.2060699, 42.5895646], [-76.2060526, 42.590157], [-76.2078563, 42.5905233], [-76.2087602, 42.5905963], [-76.2090847, 42.5899664], [-76.2093986, 42.5893622], [-76.2098009, 42.588671], [-76.2111742, 42.5860466], [-76.2117857, 42.5847846], [-76.210509, 42.5852507], [-76.2087548, 42.5858787], [-76.2068237, 42.5866054], [-76.2053055, 42.5871228], [-76.204297, 42.5874585], [-76.2027789, 42.5878495], [-76.200499, 42.5882642], [-76.1990292, 42.5884182], [-76.1981118, 42.5884775], [-76.1967868, 42.5885367], [-76.1954565, 42.5885802], [-76.1950166, 42.5885881], [-76.1948825, 42.5886276], [-76.1951131, 42.5888329], [-76.1951131, 42.5889712], [-76.194861, 42.5891647], [-76.1947484, 42.5893069], [-76.1947323, 42.5899111], [-76.1948288, 42.5911986], [-76.1949254, 42.5927507], [-76.1949415, 42.5929244], [-76.1949039, 42.5931416], [-76.1943407, 42.5934299], [-76.1940027, 42.5935918], [-76.1938686, 42.5936787], [-76.193536, 42.5932917], [-76.1928225, 42.5924387], [-76.1926884, 42.5922689], [-76.1920661, 42.5925769], [-76.1920286, 42.5925966], [-76.1922646, 42.5928296], [-76.1923129, 42.592881], [-76.192312, 42.5931541], [-76.1923075, 42.5945752], [-76.1923183, 42.5949898], [-76.1923664, 42.5961638], [-76.1923719, 42.5962969], [-76.1923665, 42.5964588], [-76.1923641, 42.5964823], [-76.1923558, 42.5965655], [-76.1911059, 42.596601], [-76.1904085, 42.5966168], [-76.1899043, 42.5966563], [-76.1884237, 42.5967432], [-76.1877317, 42.5967669], [-76.1871684, 42.5967694], [-76.1871899, 42.597142], [-76.1870401, 42.5971994], [-76.1863695, 42.5972217], [-76.186372, 42.597269], [-76.1859649, 42.5972847], [-76.1859829, 42.5977185], [-76.1859883, 42.5978765], [-76.1861043, 42.597886], [-76.1861814, 42.5978923], [-76.1862297, 42.5984412], [-76.1860741, 42.5985004], [-76.1860365, 42.5985202], [-76.1860795, 42.5990375], [-76.1871899, 42.5989861], [-76.1873025, 42.5990019], [-76.1873508, 42.5996219], [-76.1873963, 42.600643], [-76.1873992, 42.6007088]]]}}