{"type": "Feature", "properties": {"market_key": 567, "university": "University of Kentucky", "osm_type": "relation", "osm_id": 4815526, "osm_name": "University of Kentucky"}, "geometry": {"type": "MultiPolygon", "coordinates": [[[[-84.5113896, 38.0265449], [-84.5120536, 38.0267133], [-84.5123138, 38.0269267], [-84.512244, 38.0271634], [-84.5117793, 38.0273395], [-84.5108513, 38.0271493], [-84.5105637, 38.0279125], [-84.5109042, 38.0282692], [-84.5132103, 38.0288017], [-84.5129786, 38.0294811], [-84.5128094, 38.0301243], [-84.5152329, 38.0306389], [-84.5144192, 38.0320336], [-84.5138533, 38.0331384], [-84.5132538, 38.0343087], [-84.5125892, 38.0358001], [-84.5124395, 38.0361603], [-84.5118805, 38.0371586], [-84.5115316, 38.0377515], [-84.51069, 38.0374152], [-84.511623, 38.0360491], [-84.5117781, 38.0358222], [-84.5119382, 38.0355877], [-84.5111913, 38.0354213], [-84.5110628, 38.0360077], [-84.5106071, 38.0365598], [-84.5105458, 38.0366389], [-84.5104232, 38.0368285], [-84.5095827, 38.0381604], [-84.508561, 38.0379345], [-84.5074709, 38.0376897], [-84.5074135, 38.0376768], [-84.5071696, 38.038464], [-84.5079767, 38.0386219], [-84.5078738, 38.0388693], [-84.5080471, 38.038912], [-84.5079063, 38.0392959], [-84.5075867, 38.0392362], [-84.5075163, 38.0394069], [-84.5089297, 38.0397151], [-84.5089931, 38.0395321], [-84.5091165, 38.0395532], [-84.5090467, 38.0398194], [-84.5097334, 38.039963], [-84.5099733, 38.0397704], [-84.5101317, 38.0397985], [-84.5100327, 38.0400823], [-84.5099614, 38.0405906], [-84.509997, 38.0409992], [-84.5100761, 38.041487], [-84.5102762, 38.0420924], [-84.5090111, 38.0426809], [-84.5081122, 38.0431291], [-84.5073367, 38.0436045], [-84.5069005, 38.0432414], [-84.506164, 38.0436967], [-84.505846, 38.0433702], [-84.506361, 38.0430175], [-84.5065203, 38.042914], [-84.5054032, 38.0419283], [-84.5048338, 38.0423303], [-84.5038591, 38.0414836], [-84.5030306, 38.0420989], [-84.5030125, 38.0421123], [-84.5018685, 38.0429397], [-84.501804, 38.043019], [-84.501279, 38.043396], [-84.5012755, 38.0433975], [-84.5008842, 38.0430491], [-84.5003385, 38.043402], [-84.4998837, 38.0430231], [-84.4997236, 38.0428728], [-84.4996231, 38.0427785], [-84.4995947, 38.0427518], [-84.4993373, 38.0425584], [-84.4988259, 38.0421168], [-84.499367, 38.0417244], [-84.4994525, 38.0417951], [-84.4995697, 38.0418943], [-84.4996024, 38.0419195], [-84.499871, 38.042159], [-84.5004908, 38.0417235], [-84.5000414, 38.04133], [-84.5003157, 38.0411576], [-84.49997, 38.0408504], [-84.4991754, 38.0414358], [-84.499106, 38.041487], [-84.4982057, 38.0406913], [-84.4971052, 38.0397069], [-84.497097, 38.039702], [-84.4971014, 38.0397004], [-84.4977105, 38.0392724], [-84.4977395, 38.0392521], [-84.4985153, 38.0387087], [-84.4985427, 38.0386899], [-84.498615, 38.0386413], [-84.4982309, 38.0382956], [-84.4993753, 38.0374684], [-84.4987538, 38.0369169], [-84.4978018, 38.0360613], [-84.497363, 38.0356669], [-84.4959488, 38.0343854], [-84.4956185, 38.0341117], [-84.496816, 38.0333252], [-84.4976153, 38.0327505], [-84.4968374, 38.032066], [-84.4973256, 38.0316899], [-84.4982, 38.0324716], [-84.4987218, 38.032149], [-84.4983173, 38.0317896], [-84.497484, 38.0310599], [-84.4973766, 38.0309688], [-84.497325, 38.030925], [-84.4980433, 38.0302597], [-84.497634, 38.0299755], [-84.4978379, 38.0298022], [-84.4958983, 38.0288967], [-84.4969702, 38.0275645], [-84.4973032, 38.0271507], [-84.4982861, 38.0259291], [-84.4991909, 38.0246723], [-84.5014996, 38.0217157], [-84.4998269, 38.0210073], [-84.4987511, 38.0205819], [-84.4986182, 38.0197898], [-84.4984839, 38.0192036], [-84.4984357, 38.0189776], [-84.4984633, 38.0186441], [-84.4985339, 38.0179099], [-84.4982391, 38.0177948], [-84.4977595, 38.0176659], [-84.497416, 38.0175715], [-84.4974904, 38.0165166], [-84.4975324, 38.0157534], [-84.4975566, 38.0153677], [-84.4975855, 38.014906], [-84.4976425, 38.0142366], [-84.4953873, 38.0136272], [-84.495427, 38.0132668], [-84.5029878, 38.0143147], [-84.503538, 38.0096954], [-84.5059574, 38.0106041], [-84.5051581, 38.0130513], [-84.5118689, 38.0139515], [-84.5115763, 38.0152153], [-84.5113828, 38.0160117], [-84.5112018, 38.0166099], [-84.5106832, 38.0193784], [-84.5105586, 38.0200143], [-84.5098369, 38.0212981], [-84.5098054, 38.0213541], [-84.5110729, 38.0219174], [-84.5125842, 38.0225105], [-84.5115279, 38.0253524], [-84.5117771, 38.0254078], [-84.5137054, 38.0263252], [-84.5134075, 38.0267861], [-84.5125069, 38.0264132], [-84.5115701, 38.0260253], [-84.5113896, 38.0265449]], [[-84.5066278, 38.0421127], [-84.5061176, 38.0424602], [-84.5067197, 38.0430322], [-84.5069174, 38.0429055], [-84.5068576, 38.0428548], [-84.5069404, 38.0427969], [-84.5070047, 38.0426702], [-84.5068025, 38.0424819], [-84.5068806, 38.0424276], [-84.5068162, 38.0423624], [-84.5068622, 38.0423226], [-84.5066278, 38.0421127]]]]}}