{"type": "Feature", "properties": {"market_key": 568, "university": "University of Virginia", "osm_type": "relation", "osm_id": 4218705, "osm_name": "University of Virginia"}, "geometry": {"type": "MultiPolygon", "coordinates": [[[[-78.5185499, 38.0459477], [-78.5195404, 38.0462287], [-78.5193659, 38.0465704], [-78.5190488, 38.0468918], [-78.5186998, 38.0468236], [-78.5182049, 38.046754], [-78.5185499, 38.0459477]]], [[[-78.4969073, 38.029893], [-78.4969682, 38.0298803], [-78.4978612, 38.0296931], [-78.4980757, 38.0301141], [-78.4972409, 38.0302641], [-78.4969948, 38.0302873], [-78.4965683, 38.0303755], [-78.4965328, 38.0302551], [-78.4958428, 38.0303966], [-78.4958143, 38.0301437], [-78.4958327, 38.0301241], [-78.4958264, 38.0300367], [-78.4958036, 38.0300278], [-78.4957876, 38.030019], [-78.4957791, 38.0300073], [-78.4957439, 38.0298971], [-78.4956829, 38.029764], [-78.4956341, 38.0296815], [-78.4956353, 38.0296554], [-78.4956536, 38.0296374], [-78.4957983, 38.0296061], [-78.4958969, 38.0295767], [-78.4961236, 38.029525], [-78.496368, 38.0294751], [-78.4967534, 38.02939], [-78.496815, 38.0296011], [-78.4969073, 38.029893]]], [[[-78.5170959, 38.0451845], [-78.5160713, 38.0448972], [-78.5164363, 38.0441121], [-78.5170264, 38.0442895], [-78.5175092, 38.0446782], [-78.5173161, 38.0452358], [-78.5170959, 38.0451845]]], [[[-78.5447381, 38.0500731], [-78.5442666, 38.0497131], [-78.543414, 38.0502534], [-78.5433158, 38.050434], [-78.5424424, 38.0507384], [-78.5426484, 38.0511294], [-78.5436548, 38.0508034], [-78.5442657, 38.0503797], [-78.5447381, 38.0500731]]], [[[-78.5461277, 38.0514103], [-78.5461411, 38.0507539], [-78.5469538, 38.0507156], [-78.5473274, 38.0507265], [-78.5487327, 38.0508431], [-78.5502163, 38.0509069], [-78.5502858, 38.0509352], [-78.5503248, 38.0509853], [-78.5504943, 38.0519712], [-78.5497152, 38.0521015], [-78.5497014, 38.0523571], [-78.549482, 38.0524536], [-78.5476672, 38.0518146], [-78.5465866, 38.0514695], [-78.5461277, 38.0514103]]], [[[-78.5235237, 38.0477094], [-78.5239033, 38.04796], [-78.5241718, 38.0481676], [-78.5244612, 38.0484374], [-78.5240645, 38.0494434], [-78.5232116, 38.0492618], [-78.5223798, 38.0490415], [-78.5219668, 38.0489063], [-78.5216452, 38.0487548], [-78.5213552, 38.0485852], [-78.5210873, 38.0484], [-78.5203735, 38.0478459], [-78.5198052, 38.0473777], [-78.5205669, 38.0465285], [-78.5216881, 38.0468707], [-78.522423, 38.0471538], [-78.5231633, 38.0475044], [-78.5233754, 38.0476025], [-78.523393, 38.0476144], [-78.5235237, 38.0477094]]], [[[-78.5271963, 38.0264739], [-78.5236765, 38.0261821], [-78.5233539, 38.0251043], [-78.5235469, 38.0242326], [-78.524556, 38.0232179], [-78.5254126, 38.0232437], [-78.5257844, 38.0232314], [-78.5267291, 38.0222924], [-78.5271739, 38.0225368], [-78.526872, 38.0231556], [-78.5267642, 38.0231915], [-78.5269774, 38.0233891], [-78.5274921, 38.0232605], [-78.5277358, 38.0233876], [-78.5276003, 38.0238677], [-78.5278327, 38.0239347], [-78.5281738, 38.0236022], [-78.5285454, 38.0235195], [-78.529091, 38.0240694], [-78.527589, 38.0255296], [-78.5271963, 38.0264739]]], [[[-78.4985486, 38.0535958], [-78.5005434, 38.0555127], [-78.5000024, 38.0559852], [-78.4997995, 38.0559054], [-78.4996558, 38.0560651], [-78.4991121, 38.0563334], [-78.4987898, 38.0564312], [-78.4983768, 38.0565155], [-78.4981344, 38.0566042], [-78.4980696, 38.0565752], [-78.498002, 38.0564287], [-78.4978301, 38.0563247], [-78.4974413, 38.0562581], [-78.4973652, 38.0561982], [-78.4970862, 38.0553995], [-78.4985486, 38.0535958]]], [[[-78.5021498, 38.0389599], [-78.5014942, 38.0387234], [-78.5017195, 38.0382967], [-78.501403, 38.038191], [-78.5023824, 38.0364062], [-78.5019084, 38.0362354], [-78.5017199, 38.0361765], [-78.5016171, 38.0361293], [-78.5015257, 38.0360587], [-78.5014691, 38.0360003], [-78.5012001, 38.0356651], [-78.500927, 38.0353113], [-78.5007832, 38.0351398], [-78.5006919, 38.0350102], [-78.5003321, 38.0345744], [-78.5002864, 38.0345096], [-78.5002578, 38.0344566], [-78.5002464, 38.0344036], [-78.5002235, 38.0343565], [-78.4996023, 38.0340391], [-78.4995514, 38.034008], [-78.4987388, 38.0335556], [-78.4984604, 38.0334103], [-78.4977684, 38.0332687], [-78.4968862, 38.0329856], [-78.4970739, 38.0325166], [-78.4962639, 38.0323518], [-78.4966041, 38.0317253], [-78.4966287, 38.03168], [-78.4964217, 38.0316411], [-78.4954592, 38.0314603], [-78.4957052, 38.0309949], [-78.495757, 38.0308634], [-78.4959118, 38.0308173], [-78.4968669, 38.0305866], [-78.4972516, 38.0305052], [-78.4974311, 38.0304581], [-78.4979932, 38.0303454], [-78.4995241, 38.0299798], [-78.5003506, 38.029787], [-78.5009986, 38.029639], [-78.5016508, 38.0294795], [-78.5028169, 38.029155], [-78.5028695, 38.0292486], [-78.5039051, 38.0289154], [-78.503896, 38.028908], [-78.5039316, 38.0288609], [-78.5039881, 38.0288897], [-78.5040972, 38.0288549], [-78.505024, 38.0285589], [-78.5051143, 38.0287086], [-78.5055605, 38.0285648], [-78.5055031, 38.0287537], [-78.5054299, 38.0290085], [-78.5054093, 38.0290776], [-78.5053404, 38.0293087], [-78.5052817, 38.0295056], [-78.5052625, 38.0295762], [-78.5052039, 38.029776], [-78.5051378, 38.0299765], [-78.5050486, 38.0302334], [-78.5054037, 38.0303053], [-78.5053203, 38.0305594], [-78.5053149, 38.0305838], [-78.5053039, 38.0305924], [-78.5052841, 38.0305997], [-78.5052515, 38.0306039], [-78.5052078, 38.0305978], [-78.5051684, 38.0305971], [-78.5051292, 38.0306042], [-78.505099, 38.0306184], [-78.5050707, 38.0306345], [-78.5050464, 38.0306613], [-78.5050373, 38.0306818], [-78.5050328, 38.0306925], [-78.5050314, 38.0307308], [-78.5050408, 38.0307662], [-78.5050577, 38.0307886], [-78.5050924, 38.0308183], [-78.5051126, 38.0308306], [-78.5051429, 38.0308455], [-78.5051942, 38.0308541], [-78.5052315, 38.0308483], [-78.5052703, 38.0308356], [-78.5053019, 38.0308173], [-78.5053442, 38.030768], [-78.5053965, 38.0306722], [-78.5054275, 38.0306788], [-78.5054981, 38.0306938], [-78.5058917, 38.0307773], [-78.5058782, 38.0310642], [-78.5061664, 38.0310818], [-78.5063658, 38.0311957], [-78.5063275, 38.0312204], [-78.506293, 38.0312544], [-78.5062666, 38.031315], [-78.5062578, 38.0315384], [-78.5061302, 38.0315282], [-78.5058528, 38.031493], [-78.5058431, 38.0316554], [-78.5058243, 38.0319973], [-78.5063662, 38.0320068], [-78.5067625, 38.0320311], [-78.5071944, 38.0320264], [-78.5072822, 38.0320306], [-78.5073607, 38.0320169], [-78.5076792, 38.031944], [-78.5079139, 38.0319007], [-78.5080352, 38.0318896], [-78.5081828, 38.0318906], [-78.5082525, 38.0318949], [-78.5083417, 38.0319292], [-78.5084289, 38.0319556], [-78.5085107, 38.031991], [-78.5085777, 38.0320295], [-78.508683, 38.0320945], [-78.5087869, 38.0321832], [-78.5088412, 38.0323072], [-78.5088884, 38.032366], [-78.5089863, 38.0325182], [-78.5090238, 38.0325969], [-78.5090711, 38.0327433], [-78.5090854, 38.0328972], [-78.5090802, 38.0329777], [-78.5092069, 38.0326508], [-78.5092673, 38.032557], [-78.509328, 38.0324575], [-78.5094972, 38.0322455], [-78.5096051, 38.0321685], [-78.5098793, 38.0319259], [-78.5100388, 38.0317736], [-78.5105346, 38.0312961], [-78.5098312, 38.0310288], [-78.509734, 38.0309912], [-78.5092135, 38.0307938], [-78.5094524, 38.0304451], [-78.5096301, 38.0302497], [-78.5102568, 38.0304886], [-78.5102412, 38.0305054], [-78.5102664, 38.0305165], [-78.5101322, 38.0306559], [-78.5108189, 38.0309839], [-78.5109332, 38.0308815], [-78.5112693, 38.030646], [-78.5118657, 38.0302136], [-78.5121103, 38.0300505], [-78.5123673, 38.0299037], [-78.5125609, 38.0298141], [-78.5129197, 38.0296268], [-78.513084, 38.0295253], [-78.513821, 38.0290185], [-78.5142038, 38.028794], [-78.5144673, 38.0286862], [-78.5146183, 38.0286466], [-78.5148926, 38.0285917], [-78.5150964, 38.0285739], [-78.5154209, 38.0285701], [-78.5155456, 38.0285862], [-78.5160274, 38.0286541], [-78.5162155, 38.0286678], [-78.5165003, 38.0286401], [-78.5166903, 38.0286065], [-78.5169411, 38.0285875], [-78.5174374, 38.0285771], [-78.5177684, 38.0285856], [-78.5178899, 38.0285832], [-78.5178831, 38.0278607], [-78.5180045, 38.0278611], [-78.5181756, 38.0278617], [-78.5181896, 38.0285632], [-78.5182928, 38.0285584], [-78.5182942, 38.028606], [-78.5185558, 38.0285901], [-78.5187242, 38.0285701], [-78.5190319, 38.0285289], [-78.5191727, 38.0285146], [-78.5193661, 38.0285415], [-78.5197624, 38.0284136], [-78.520193, 38.0284347], [-78.5199978, 38.0261107], [-78.5213309, 38.0262073], [-78.5223793, 38.0263169], [-78.523038, 38.026337], [-78.5237405, 38.0264953], [-78.5244003, 38.0266009], [-78.5273668, 38.0268671], [-78.5274863, 38.0268799], [-78.5274441, 38.0272494], [-78.5274385, 38.0278026], [-78.5274331, 38.0288463], [-78.5273902, 38.0307351], [-78.5273583, 38.0310778], [-78.5273154, 38.0313862], [-78.5268272, 38.034289], [-78.5267199, 38.0350622], [-78.5266073, 38.0359749], [-78.5265641, 38.0369164], [-78.5265268, 38.0381212], [-78.5264461, 38.0418723], [-78.5264088, 38.0425362], [-78.5263227, 38.0432031], [-78.526162, 38.043905], [-78.5259582, 38.0446232], [-78.5256417, 38.0453879], [-78.5254915, 38.0456329], [-78.5253037, 38.0458061], [-78.5250835, 38.0459407], [-78.5248099, 38.0460674], [-78.5244079, 38.046237], [-78.5242359, 38.0463378], [-78.524086, 38.0464821], [-78.523957, 38.0466758], [-78.5238929, 38.0468411], [-78.5238282, 38.0470686], [-78.5236407, 38.0472847], [-78.5227985, 38.0468327], [-78.5222406, 38.0466088], [-78.5215164, 38.0463511], [-78.520803, 38.0461525], [-78.5192795, 38.0457428], [-78.5195045, 38.0444198], [-78.5196482, 38.0441684], [-78.5198193, 38.0435197], [-78.5208375, 38.0437543], [-78.5208053, 38.0439711], [-78.5206409, 38.0445458], [-78.5209891, 38.0445329], [-78.5211116, 38.0445283], [-78.5219295, 38.0441712], [-78.521951, 38.0432671], [-78.5226483, 38.0430728], [-78.5232277, 38.0426724], [-78.523394, 38.0425278], [-78.5234761, 38.0422332], [-78.5236296, 38.0416824], [-78.5236354, 38.0416617], [-78.5237721, 38.0415129], [-78.5238178, 38.0414631], [-78.5241854, 38.0407519], [-78.5242271, 38.0406712], [-78.5251106, 38.038962], [-78.5240914, 38.0380409], [-78.5223747, 38.0381592], [-78.5224633, 38.039333], [-78.5208405, 38.0401027], [-78.5204999, 38.0395949], [-78.5171479, 38.040529], [-78.5168836, 38.0398688], [-78.5162927, 38.038468], [-78.515582, 38.0367835], [-78.5155068, 38.0366051], [-78.5146364, 38.0368357], [-78.513293, 38.0371917], [-78.5093762, 38.0361731], [-78.5091136, 38.0367956], [-78.5078645, 38.0364883], [-78.5074817, 38.037553], [-78.5090759, 38.0379117], [-78.5089347, 38.0384192], [-78.5091983, 38.0384797], [-78.5106459, 38.0388121], [-78.510206, 38.0397036], [-78.5100505, 38.039767], [-78.5092887, 38.0395895], [-78.5091109, 38.0400198], [-78.5086933, 38.0398768], [-78.5081676, 38.040557], [-78.5095883, 38.0413633], [-78.5086294, 38.0425913], [-78.5109737, 38.0436141], [-78.511138, 38.0436858], [-78.5113844, 38.0437933], [-78.5119087, 38.0440486], [-78.5121634, 38.0441234], [-78.512759, 38.0442984], [-78.5129713, 38.0443608], [-78.5142978, 38.0447348], [-78.5145118, 38.0447914], [-78.5150984, 38.0453542], [-78.5154435, 38.0457449], [-78.5155704, 38.0458886], [-78.5137671, 38.0490362], [-78.5132522, 38.0499348], [-78.5135419, 38.0500362], [-78.5139933, 38.0501595], [-78.5144572, 38.0502699], [-78.5145532, 38.0502928], [-78.515093, 38.0504214], [-78.5152861, 38.0505017], [-78.515457, 38.050598], [-78.5159621, 38.0496019], [-78.5153223, 38.0493707], [-78.5146531, 38.0491288], [-78.5153014, 38.0481777], [-78.5165253, 38.0486599], [-78.5160962, 38.0493992], [-78.5161061, 38.0513922], [-78.518563, 38.0530988], [-78.5194489, 38.0541852], [-78.5180917, 38.0546668], [-78.5175384, 38.0547969], [-78.5173935, 38.0547926], [-78.5172272, 38.0547631], [-78.5170457, 38.0547005], [-78.5169276, 38.0546245], [-78.5168249, 38.0545181], [-78.5167659, 38.0543913], [-78.5164923, 38.0543998], [-78.5164655, 38.0545941], [-78.5164011, 38.0547335], [-78.5162777, 38.0548644], [-78.5161176, 38.0549836], [-78.5159513, 38.0550427], [-78.5157681, 38.0550756], [-78.5106459, 38.0556552], [-78.5098458, 38.0557599], [-78.5088757, 38.0559086], [-78.5079047, 38.0560945], [-78.5066816, 38.0562972], [-78.50629, 38.0563352], [-78.5059467, 38.0563479], [-78.5054577, 38.0563386], [-78.5049113, 38.0562972], [-78.5041067, 38.0562677], [-78.503817, 38.0562803], [-78.5034622, 38.0563175], [-78.5032744, 38.0563428], [-78.503184, 38.0563437], [-78.5031242, 38.056326], [-78.5030499, 38.0562803], [-78.5020253, 38.05552], [-78.5019606, 38.0554614], [-78.5016703, 38.0551986], [-78.5009524, 38.0545485], [-78.501054, 38.0544902], [-78.5012011, 38.054399], [-78.504315, 38.0525604], [-78.5033508, 38.0519616], [-78.5044478, 38.0509499], [-78.5053973, 38.0515698], [-78.5058043, 38.0512963], [-78.5066494, 38.0507298], [-78.5077267, 38.0514742], [-78.5082414, 38.0510184], [-78.5083424, 38.0509164], [-78.5089446, 38.0503092], [-78.5086977, 38.0501269], [-78.5065823, 38.0485648], [-78.5056843, 38.0479017], [-78.5048394, 38.0472777], [-78.5046441, 38.0470304], [-78.5044921, 38.0469146], [-78.5041013, 38.046818], [-78.5037787, 38.0476369], [-78.5037228, 38.0477612], [-78.5036132, 38.0480051], [-78.5034254, 38.0483304], [-78.5032162, 38.0486261], [-78.5030388, 38.0488401], [-78.5029923, 38.0488963], [-78.5029472, 38.0489507], [-78.5026368, 38.0492978], [-78.5022989, 38.0496104], [-78.5001638, 38.0515536], [-78.4993806, 38.0507425], [-78.5006091, 38.0498934], [-78.5018959, 38.0488096], [-78.5022291, 38.0485289], [-78.5035756, 38.0467124], [-78.5036719, 38.0458194], [-78.5036767, 38.0457693], [-78.5037526, 38.0450606], [-78.5029265, 38.0444058], [-78.5030231, 38.0438439], [-78.5032323, 38.0438397], [-78.503361, 38.0438186], [-78.5034361, 38.0437974], [-78.5038277, 38.0442579], [-78.5048718, 38.0444724], [-78.5049382, 38.044486], [-78.5051466, 38.0439235], [-78.505289, 38.0433936], [-78.5046343, 38.043272], [-78.5043461, 38.0431038], [-78.5043148, 38.0430811], [-78.5012395, 38.0404304], [-78.501707, 38.0397295], [-78.5021498, 38.0389599]]]]}}