{"type": "Feature", "properties": {"market_key": 578, "university": "Stephen F. Austin State University", "osm_type": "way", "osm_id": 411192739, "osm_name": "Stephen F. Austin State University"}, "geometry": {"type": "Polygon", "coordinates": [[[-94.6521201, 31.6160842], [-94.6512554, 31.6160978], [-94.6512599, 31.6154127], [-94.6507698, 31.6154119], [-94.6507668, 31.6155705], [-94.6495189, 31.6155755], [-94.6495189, 31.6161499], [-94.6456655, 31.6161749], [-94.6454979, 31.6161814], [-94.6451095, 31.6162243], [-94.6448533, 31.6162905], [-94.6445608, 31.6163877], [-94.6413209, 31.6178213], [-94.6409156, 31.6179828], [-94.6407066, 31.6180613], [-94.6405048, 31.6181212], [-94.6402744, 31.618177], [-94.6400659, 31.6182189], [-94.6397397, 31.6182733], [-94.6392587, 31.6183159], [-94.6362968, 31.6185468], [-94.6360457, 31.6185821], [-94.6357747, 31.6186435], [-94.6355562, 31.6187025], [-94.6351558, 31.6188638], [-94.6351616, 31.6193787], [-94.63513, 31.6197934], [-94.6350488, 31.6201634], [-94.63486, 31.6206431], [-94.6346338, 31.6210914], [-94.6339645, 31.6223728], [-94.6367597, 31.6227015], [-94.6365827, 31.6220998], [-94.6377736, 31.6221982], [-94.6378449, 31.6227881], [-94.6390144, 31.6228808], [-94.6385509, 31.6272302], [-94.6425752, 31.6275933], [-94.6426355, 31.6278156], [-94.6431179, 31.6289732], [-94.6433882, 31.6303791], [-94.6433456, 31.6319119], [-94.6468938, 31.6318299], [-94.6478888, 31.6318127], [-94.6478977, 31.6313937], [-94.6479303, 31.6306308], [-94.6479798, 31.6279575], [-94.6455812, 31.6279069], [-94.6455257, 31.6267455], [-94.6479948, 31.6267652], [-94.6479814, 31.6263451], [-94.6479401, 31.6229734], [-94.6499211, 31.6229579], [-94.6518523, 31.622911], [-94.6518603, 31.623395], [-94.6516705, 31.6233964], [-94.6516778, 31.6237157], [-94.6518807, 31.6237115], [-94.6518809, 31.6237414], [-94.6518839, 31.6241042], [-94.6516235, 31.6241101], [-94.6516233, 31.6242569], [-94.6522118, 31.6242569], [-94.6522335, 31.6237362], [-94.6522481, 31.6233861], [-94.6519494, 31.6233901], [-94.6519486, 31.6229046], [-94.6522704, 31.6228976], [-94.6523876, 31.6211787], [-94.6525124, 31.6194987], [-94.6525696, 31.6184185], [-94.6526478, 31.6174279], [-94.6521918, 31.6174193], [-94.6522007, 31.6169246], [-94.6504627, 31.6169132], [-94.6504551, 31.6164917], [-94.652109, 31.6164898], [-94.6521201, 31.6160842]]]}}