{"type": "Feature", "properties": {"market_key": 580, "university": "Texas A&M University Corpus Christi", "osm_type": "way", "osm_id": 172952227, "osm_name": "Texas A&M University-Corpus Christi"}, "geometry": {"type": "Polygon", "coordinates": [[[-97.327814, 27.7170141], [-97.3164707, 27.7127038], [-97.3169686, 27.7116859], [-97.3189819, 27.7107095], [-97.3200875, 27.7097539], [-97.3228636, 27.7077328], [-97.3239861, 27.7076341], [-97.3249433, 27.7084479], [-97.3254034, 27.7086759], [-97.3259591, 27.7087092], [-97.3269576, 27.7094598], [-97.3269482, 27.709785], [-97.3266279, 27.7101519], [-97.326562, 27.7104688], [-97.3266613, 27.7108365], [-97.327054, 27.7114605], [-97.327559, 27.7115391], [-97.3283813, 27.7116914], [-97.3288044, 27.7118333], [-97.3292059, 27.7120178], [-97.3295805, 27.7122423], [-97.329923, 27.7125039], [-97.3302289, 27.7127989], [-97.3304198, 27.7132048], [-97.3303067, 27.7135884], [-97.3299619, 27.7143908], [-97.3298232, 27.7146974], [-97.3296379, 27.7152312], [-97.3297138, 27.7157421], [-97.3300692, 27.7169855], [-97.3303682, 27.7179095], [-97.327814, 27.7170141]]]}}