{"type": "Feature", "properties": {"market_key": 590, "university": "University of Florida", "osm_type": "relation", "osm_id": 18432136, "osm_name": "University of Florida"}, "geometry": {"type": "MultiPolygon", "coordinates": [[[[-82.3726457, 29.6448208], [-82.3726708, 29.6448212], [-82.3744172, 29.6448249], [-82.3744137, 29.6415792], [-82.3745533, 29.6408454], [-82.3745634, 29.6388141], [-82.3726869, 29.6388118], [-82.3726805, 29.6392574], [-82.3726747, 29.6415475], [-82.3726697, 29.6423005], [-82.3726656, 29.642933], [-82.3726457, 29.6448208]]], [[[-82.3523483, 29.651972], [-82.3527816, 29.6519804], [-82.3533203, 29.6519973], [-82.3557659, 29.6520035], [-82.3557694, 29.6518767], [-82.3557698, 29.6517515], [-82.3557722, 29.6510656], [-82.3557725, 29.6509826], [-82.355663, 29.6509826], [-82.3557049, 29.6505317], [-82.3557089, 29.6504893], [-82.3557105, 29.6504718], [-82.3556775, 29.6504861], [-82.3556223, 29.6505059], [-82.3553063, 29.6506167], [-82.3550144, 29.6507254], [-82.3547955, 29.6507965], [-82.3544745, 29.6509024], [-82.3541725, 29.6510049], [-82.3539447, 29.6510821], [-82.3537822, 29.6511356], [-82.3536217, 29.651193], [-82.3533178, 29.6513027], [-82.3529015, 29.6514461], [-82.3523318, 29.6516501], [-82.3522873, 29.6516893], [-82.3522766, 29.6517152], [-82.3522689, 29.6517488], [-82.3522645, 29.6518028], [-82.3522664, 29.6518833], [-82.3522753, 29.6519253], [-82.3522937, 29.6519512], [-82.3523115, 29.6519661], [-82.3523483, 29.651972]]], [[[-82.3391734, 29.6450297], [-82.339115, 29.6449954], [-82.3371689, 29.6449737], [-82.3371884, 29.6474703], [-82.3376162, 29.6474814], [-82.3381859, 29.6474757], [-82.3383737, 29.6474772], [-82.3384649, 29.6474442], [-82.3386863, 29.6473477], [-82.3388375, 29.6472969], [-82.3389467, 29.6472743], [-82.3390537, 29.6472605], [-82.3391731, 29.6472582], [-82.33919, 29.6472428], [-82.3391757, 29.6467793], [-82.3391757, 29.6467549], [-82.3391728, 29.6467255], [-82.3391669, 29.6459775], [-82.3391735, 29.6450527], [-82.3391734, 29.6450297]]], [[[-82.361646, 29.6305063], [-82.3616409, 29.628442], [-82.3616446, 29.6261027], [-82.3611253, 29.626145], [-82.3587546, 29.6263379], [-82.3569954, 29.6264811], [-82.3571261, 29.6266199], [-82.3572985, 29.6267788], [-82.3576865, 29.6270429], [-82.3583476, 29.6273784], [-82.3595384, 29.6279531], [-82.3602495, 29.6283076], [-82.3604586, 29.6284417], [-82.3607537, 29.6286763], [-82.3610429, 29.6289818], [-82.3613187, 29.629384], [-82.361464, 29.6296766], [-82.3615322, 29.6298687], [-82.3615856, 29.6300736], [-82.3616138, 29.6302309], [-82.3616345, 29.630392], [-82.361646, 29.6305063]]], [[[-82.3587257, 29.6376311], [-82.3573021, 29.6376137], [-82.3557653, 29.6376063], [-82.3557431, 29.6352406], [-82.3556478, 29.6352739], [-82.3555066, 29.6353233], [-82.3553243, 29.635387], [-82.3552215, 29.6354229], [-82.3552215, 29.635705], [-82.3545161, 29.6359673], [-82.3543493, 29.6354742], [-82.3505043, 29.6368529], [-82.3504672, 29.6369046], [-82.3504462, 29.636985], [-82.3505633, 29.6377421], [-82.3505315, 29.6378337], [-82.3504908, 29.637844], [-82.3502498, 29.6378525], [-82.3501954, 29.6374452], [-82.3501455, 29.6371454], [-82.3501273, 29.6370922], [-82.3500998, 29.6370513], [-82.3500737, 29.6370373], [-82.3500351, 29.6370198], [-82.3499884, 29.6370123], [-82.3499417, 29.6370116], [-82.349914, 29.6370212], [-82.3498411, 29.6370467], [-82.3495467, 29.637143], [-82.3492681, 29.6372345], [-82.3489325, 29.6373432], [-82.3486175, 29.6374532], [-82.3482915, 29.6375612], [-82.3477723, 29.6377325], [-82.3475285, 29.6378137], [-82.3474755, 29.6378392], [-82.3473108, 29.6379018], [-82.3471961, 29.6379478], [-82.3471478, 29.6379802], [-82.3471241, 29.6380091], [-82.3471114, 29.6380352], [-82.3468676, 29.6381226], [-82.346479, 29.6382553], [-82.3462851, 29.63832], [-82.3462313, 29.6383379], [-82.3461996, 29.6383599], [-82.3461536, 29.6383349], [-82.3459825, 29.638387], [-82.3459471, 29.6383794], [-82.345923, 29.638379], [-82.3458784, 29.6383874], [-82.3457221, 29.6384404], [-82.345264, 29.6386034], [-82.3442397, 29.6389589], [-82.3441433, 29.6390555], [-82.3438758, 29.6391499], [-82.3437477, 29.6391459], [-82.3435525, 29.6392172], [-82.3435376, 29.6392252], [-82.3435343, 29.6392395], [-82.3435443, 29.639264], [-82.3433053, 29.639358], [-82.3432891, 29.6393464], [-82.341955, 29.6398296], [-82.3416321, 29.6399697], [-82.34094, 29.6404052], [-82.3404347, 29.6408611], [-82.3402495, 29.6410732], [-82.3400592, 29.6413036], [-82.3398889, 29.6415597], [-82.3397667, 29.6417889], [-82.3396553, 29.6420388], [-82.3395829, 29.6422961], [-82.3395479, 29.6424827], [-82.3395176, 29.6427997], [-82.3394893, 29.6430852], [-82.3394782, 29.6435782], [-82.3394885, 29.6437634], [-82.3394944, 29.6446345], [-82.3395272, 29.6446728], [-82.3394727, 29.6450061], [-82.3394493, 29.6450505], [-82.339445, 29.6450762], [-82.3394419, 29.6452023], [-82.3394611, 29.647251], [-82.339456, 29.6480457], [-82.3394562, 29.6481697], [-82.3394565, 29.6482885], [-82.3394596, 29.6497846], [-82.3394596, 29.6503726], [-82.3394596, 29.6517813], [-82.3394604, 29.6518751], [-82.339462, 29.6518859], [-82.3394638, 29.6518937], [-82.3394692, 29.6519029], [-82.3394752, 29.6519104], [-82.3394843, 29.6519185], [-82.3394972, 29.6519251], [-82.3395104, 29.6519293], [-82.3395282, 29.6519316], [-82.3395419, 29.6519324], [-82.3395553, 29.6519331], [-82.3403096, 29.6519338], [-82.340442, 29.6519513], [-82.3405606, 29.6519669], [-82.3414312, 29.6519681], [-82.3441593, 29.6519717], [-82.3449281, 29.6519708], [-82.3462016, 29.6519692], [-82.3463708, 29.651969], [-82.346434, 29.6519689], [-82.3464696, 29.6519691], [-82.3471992, 29.6519763], [-82.3493506, 29.6519657], [-82.3508132, 29.6519766], [-82.3508966, 29.651976], [-82.3508994, 29.6519799], [-82.350918, 29.6519994], [-82.3518626, 29.6520032], [-82.3519455, 29.6520032], [-82.3519788, 29.6520006], [-82.3520162, 29.651993], [-82.3520377, 29.6519825], [-82.3520535, 29.6519707], [-82.352071, 29.6519489], [-82.3520868, 29.6519266], [-82.3520967, 29.6519073], [-82.3521032, 29.651887], [-82.3521064, 29.6518693], [-82.3521078, 29.6518493], [-82.3521074, 29.651795], [-82.3521096, 29.6517583], [-82.3521189, 29.6517228], [-82.3521323, 29.6516949], [-82.3521463, 29.651667], [-82.3521639, 29.6516411], [-82.3521794, 29.6516227], [-82.3521846, 29.6516152], [-82.3521865, 29.6516053], [-82.3521855, 29.6515953], [-82.3521697, 29.6515687], [-82.3522714, 29.6515328], [-82.3524589, 29.6514796], [-82.3526413, 29.651431], [-82.3527894, 29.6513626], [-82.353268, 29.651188], [-82.3535042, 29.6511033], [-82.3539621, 29.6509161], [-82.3542832, 29.6508215], [-82.3546044, 29.6506991], [-82.3549154, 29.6505843], [-82.355183, 29.6504976], [-82.3553145, 29.6504486], [-82.3555821, 29.6503881], [-82.3556094, 29.6503765], [-82.3556297, 29.6503602], [-82.3559236, 29.6502409], [-82.3559723, 29.6502329], [-82.3560398, 29.6502336], [-82.3564822, 29.6502483], [-82.357048, 29.6502713], [-82.3580132, 29.6502866], [-82.3594569, 29.6502832], [-82.3598324, 29.6502926], [-82.3599153, 29.6502946], [-82.3603903, 29.6503058], [-82.3607564, 29.6503094], [-82.3610016, 29.6503292], [-82.3613546, 29.6503392], [-82.3613734, 29.6503397], [-82.3613, 29.6484373], [-82.3612931, 29.6476632], [-82.3626615, 29.64767], [-82.3626674, 29.6448899], [-82.364207, 29.6448821], [-82.3642086, 29.6480764], [-82.3641777, 29.648883], [-82.3641835, 29.6503385], [-82.3648796, 29.6503461], [-82.3656238, 29.6503525], [-82.367163, 29.6503352], [-82.3698263, 29.6503184], [-82.3705311, 29.6502897], [-82.3710683, 29.6502791], [-82.3710579, 29.6499874], [-82.3713587, 29.6499833], [-82.3713661, 29.6502732], [-82.3720769, 29.6502778], [-82.3721789, 29.6502257], [-82.3722736, 29.6448146], [-82.3722977, 29.6423656], [-82.372276, 29.6423116], [-82.3722742, 29.6422876], [-82.3722738, 29.6421179], [-82.3722973, 29.642103], [-82.3723028, 29.6420907], [-82.3723031, 29.6414762], [-82.3723131, 29.6397347], [-82.3723135, 29.6388113], [-82.372324, 29.6372125], [-82.3723356, 29.6354414], [-82.3705803, 29.6354279], [-82.3705768, 29.6348029], [-82.3705612, 29.6333349], [-82.372358, 29.6333329], [-82.3723605, 29.6323976], [-82.372366, 29.6303064], [-82.3707031, 29.6303062], [-82.3695987, 29.6303064], [-82.3680909, 29.6303053], [-82.3663367, 29.6303055], [-82.3645725, 29.631155], [-82.3645701, 29.6333867], [-82.363375, 29.6334013], [-82.3621114, 29.6334102], [-82.3620737, 29.6323209], [-82.3615543, 29.6325698], [-82.3602811, 29.6331684], [-82.360282, 29.6339433], [-82.3602747, 29.6368394], [-82.3590289, 29.6368301], [-82.3590289, 29.6356068], [-82.3590289, 29.6342392], [-82.3590258, 29.6337623], [-82.3587147, 29.633895], [-82.3587257, 29.6376311]]], [[[-82.3535833, 29.6353359], [-82.3524873, 29.6352154], [-82.3519447, 29.6351518], [-82.3514254, 29.6350929], [-82.3514164, 29.6350918], [-82.3512541, 29.6350716], [-82.3510919, 29.6350515], [-82.3505165, 29.6349873], [-82.3500227, 29.6349299], [-82.3496782, 29.6348899], [-82.3492399, 29.6348407], [-82.3489952, 29.6348132], [-82.3487267, 29.6347852], [-82.3485369, 29.6347722], [-82.3484925, 29.6347713], [-82.3482911, 29.634765], [-82.3480659, 29.6347655], [-82.3478478, 29.6347717], [-82.3476836, 29.6347848], [-82.3475676, 29.6347949], [-82.3474861, 29.6348016], [-82.3472797, 29.6348272], [-82.3471659, 29.6348441], [-82.3469961, 29.6348706], [-82.3468269, 29.6349068], [-82.3467282, 29.6349246], [-82.3464824, 29.6349868], [-82.3461583, 29.6350707], [-82.3459331, 29.6351267], [-82.3458854, 29.6351465], [-82.3456856, 29.6351966], [-82.3456474, 29.6352073], [-82.3446614, 29.6354674], [-82.3445413, 29.6354983], [-82.3432704, 29.6358444], [-82.3432488, 29.6358642], [-82.3430571, 29.637614], [-82.343103, 29.6378274], [-82.3431375, 29.6381725], [-82.3432281, 29.6385737], [-82.3433044, 29.6387702], [-82.3433407, 29.6388801], [-82.3433507, 29.6389223], [-82.3433577, 29.6389472], [-82.3433667, 29.6389621], [-82.343377, 29.6389692], [-82.3433909, 29.6389746], [-82.3434311, 29.6389723], [-82.3434612, 29.6389627], [-82.343479, 29.6389643], [-82.343493, 29.6389659], [-82.3437858, 29.638865], [-82.3440568, 29.6387708], [-82.3443127, 29.6386793], [-82.3446818, 29.6385526], [-82.3450242, 29.6384301], [-82.3452916, 29.6383354], [-82.3453292, 29.6383223], [-82.3453806, 29.638297], [-82.345579, 29.6382008], [-82.3457502, 29.6381182], [-82.3458017, 29.6380914], [-82.3459699, 29.6380357], [-82.3460606, 29.6379926], [-82.3460884, 29.6379915], [-82.3461163, 29.6379815], [-82.3461647, 29.638001], [-82.3462651, 29.6379652], [-82.3465483, 29.6378653], [-82.3465858, 29.6378537], [-82.3466251, 29.6378474], [-82.3467086, 29.637839], [-82.3467352, 29.6378311], [-82.3470577, 29.6377196], [-82.3474164, 29.6375997], [-82.3478151, 29.6374667], [-82.3480995, 29.6373731], [-82.3483082, 29.6373032], [-82.3485266, 29.6372301], [-82.3486168, 29.6371996], [-82.3488031, 29.6371338], [-82.349128, 29.637026], [-82.3494904, 29.6368977], [-82.349874, 29.6367642], [-82.3499442, 29.63674], [-82.3499617, 29.6367284], [-82.3499672, 29.6367189], [-82.3499647, 29.6367053], [-82.3499496, 29.6366737], [-82.3501267, 29.6366359], [-82.350255, 29.6365965], [-82.3503037, 29.6365603], [-82.3503166, 29.6365157], [-82.3503324, 29.6365011], [-82.3503554, 29.6364953], [-82.3505281, 29.636482], [-82.3505674, 29.6364768], [-82.3507702, 29.6364035], [-82.3509316, 29.636381], [-82.3512642, 29.6362572], [-82.3514031, 29.6362079], [-82.3515771, 29.6361461], [-82.3517431, 29.6360815], [-82.3527442, 29.6357025], [-82.353307, 29.6354825], [-82.3535995, 29.6353789], [-82.3535833, 29.6353359]]], [[[-82.3550606, 29.6275417], [-82.3551323, 29.6276387], [-82.3551323, 29.6277564], [-82.3551164, 29.6279434], [-82.3550526, 29.6280126], [-82.3549172, 29.6281234], [-82.3547897, 29.6282273], [-82.3545507, 29.6282204], [-82.3543595, 29.6281026], [-82.3541842, 29.6279226], [-82.353993, 29.627701], [-82.3538257, 29.6274794], [-82.353754, 29.6273339], [-82.3535947, 29.6270708], [-82.3534194, 29.6269738], [-82.3531486, 29.6269461], [-82.3529096, 29.6269877], [-82.3526706, 29.6270015], [-82.3525112, 29.6268561], [-82.3523519, 29.6266622], [-82.3521129, 29.6265583], [-82.3517942, 29.6265583], [-82.3511091, 29.6267799], [-82.350878, 29.6270362], [-82.3507585, 29.6272439], [-82.3509577, 29.6274101], [-82.351133, 29.6275071], [-82.3511489, 29.6276733], [-82.3510374, 29.6278326], [-82.3509019, 29.6279849], [-82.3504399, 29.6283104], [-82.3500017, 29.6284904], [-82.3493166, 29.6287397], [-82.3487987, 29.6288782], [-82.3485677, 29.6289059], [-82.3484004, 29.6288367], [-82.3483048, 29.628622], [-82.3482331, 29.6283796], [-82.3481136, 29.6282965], [-82.3479304, 29.628345], [-82.3476993, 29.6284281], [-82.3473567, 29.6284627], [-82.3471257, 29.6284489], [-82.3470381, 29.6282758], [-82.3468787, 29.6280057], [-82.3466716, 29.6279918], [-82.3464326, 29.6280265], [-82.3460741, 29.6282273], [-82.345867, 29.6284143], [-82.3455722, 29.6284904], [-82.3453332, 29.6283935], [-82.3450305, 29.6284281], [-82.3448791, 29.6284143], [-82.3447904, 29.6283305], [-82.3446959, 29.6282411], [-82.3442975, 29.6280542], [-82.3439868, 29.6279711], [-82.3436044, 29.6278464], [-82.3433415, 29.6278118], [-82.3430627, 29.6278256], [-82.3428396, 29.6277633], [-82.342744, 29.6276179], [-82.3427042, 29.6275793], [-82.3422158, 29.6276171], [-82.3426458, 29.6284397], [-82.3425463, 29.6284394], [-82.3422454, 29.6303572], [-82.3424521, 29.6303481], [-82.3422304, 29.6324497], [-82.3421437, 29.6332722], [-82.3433822, 29.6332836], [-82.3435123, 29.6332842], [-82.3441016, 29.6332874], [-82.3447845, 29.6332912], [-82.3446275, 29.6347196], [-82.344574, 29.6351673], [-82.3445725, 29.6351827], [-82.344934, 29.6350821], [-82.3451949, 29.6350131], [-82.3455387, 29.634924], [-82.3458046, 29.6348502], [-82.3461028, 29.6347714], [-82.3465492, 29.6346588], [-82.3468155, 29.6345974], [-82.3470408, 29.6345573], [-82.3473792, 29.6345125], [-82.3477381, 29.6344792], [-82.3480927, 29.6344664], [-82.3484026, 29.6344676], [-82.3485331, 29.6344727], [-82.3488183, 29.6344934], [-82.3495756, 29.6345789], [-82.3508356, 29.6347156], [-82.3511825, 29.634761], [-82.3513652, 29.6347849], [-82.351401, 29.6347896], [-82.3524531, 29.634911], [-82.3531371, 29.634986], [-82.3533781, 29.6350135], [-82.3537146, 29.6350337], [-82.3538418, 29.6350308], [-82.3540571, 29.6350157], [-82.3541449, 29.6349996], [-82.3541442, 29.6346679], [-82.354143, 29.634132], [-82.3548551, 29.6341377], [-82.3548455, 29.6336807], [-82.3549704, 29.6336802], [-82.3553596, 29.6336788], [-82.3553577, 29.6340996], [-82.3555162, 29.634099], [-82.3556525, 29.6340985], [-82.3558452, 29.6340977], [-82.3558405, 29.632599], [-82.3558059, 29.6302984], [-82.3568845, 29.6302956], [-82.3568845, 29.6321095], [-82.3579306, 29.6321119], [-82.3588693, 29.6321141], [-82.3588908, 29.6318017], [-82.3609722, 29.6308178], [-82.3609722, 29.6303049], [-82.3613001, 29.6303074], [-82.3613359, 29.630328], [-82.3613178, 29.6301619], [-82.3613178, 29.6301266], [-82.3613234, 29.6300537], [-82.3612982, 29.6299455], [-82.3611947, 29.6296804], [-82.3609919, 29.6293338], [-82.3607932, 29.6290712], [-82.3606394, 29.6289094], [-82.3603302, 29.628659], [-82.3600854, 29.6284936], [-82.3599315, 29.628406], [-82.3594363, 29.6281665], [-82.358874, 29.6278917], [-82.3582053, 29.6275646], [-82.357808, 29.6273676], [-82.3573898, 29.6271256], [-82.3570792, 29.626897], [-82.3567824, 29.6266237], [-82.3566584, 29.6264924], [-82.3565105, 29.6262775], [-82.3563655, 29.6260624], [-82.3561978, 29.6257876], [-82.3560651, 29.625436], [-82.355901, 29.6237612], [-82.3558555, 29.6233166], [-82.3552358, 29.6172662], [-82.3551624, 29.6165497], [-82.3550716, 29.6156302], [-82.3548882, 29.6137737], [-82.352728, 29.6141601], [-82.3534084, 29.6205028], [-82.3503276, 29.6206979], [-82.3487424, 29.6208114], [-82.3488926, 29.6222834], [-82.3489718, 29.6230598], [-82.3492289, 29.6230472], [-82.3496432, 29.6231441], [-82.3500654, 29.6233311], [-82.350647, 29.6235527], [-82.3508541, 29.6236774], [-82.3510613, 29.6239198], [-82.3511649, 29.6241899], [-82.3513083, 29.6246123], [-82.3514437, 29.624827], [-82.3516747, 29.6250278], [-82.3518739, 29.6252564], [-82.3521926, 29.6254849], [-82.3524714, 29.6256373], [-82.3526546, 29.6257827], [-82.3528618, 29.6259628], [-82.3531804, 29.6261013], [-82.3535071, 29.6261497], [-82.3537953, 29.6261425], [-82.3539448, 29.6261477], [-82.3540329, 29.6261705], [-82.3541285, 29.6262536], [-82.3540004, 29.6263203], [-82.3539795, 29.6264302], [-82.3541077, 29.6264973], [-82.3541205, 29.6266899], [-82.3540886, 29.6268423], [-82.3540249, 29.6271123], [-82.3541205, 29.6272647], [-82.3543117, 29.6273478], [-82.3545587, 29.6273547], [-82.3548694, 29.6274725], [-82.3550606, 29.6275417]]]]}}