{"type": "Feature", "properties": {"market_key": 593, "university": "Southeast Missouri State University", "osm_type": "way", "osm_id": 616408314, "osm_name": "Southeast Missouri State University"}, "geometry": {"type": "Polygon", "coordinates": [[[-89.5334668, 37.3094529], [-89.5330691, 37.3091784], [-89.5322333, 37.3084607], [-89.5321757, 37.3085018], [-89.5317883, 37.3087785], [-89.5317034, 37.3087695], [-89.5309969, 37.3086947], [-89.5303482, 37.3086259], [-89.5302828, 37.3086677], [-89.5300775, 37.3086482], [-89.529786, 37.3109819], [-89.5297161, 37.3115124], [-89.5290482, 37.3114491], [-89.5289583, 37.3117016], [-89.5287585, 37.3133731], [-89.5287015, 37.3136274], [-89.5286113, 37.3140295], [-89.526363, 37.3138602], [-89.5263888, 37.3135812], [-89.5256982, 37.3135038], [-89.5251259, 37.3168983], [-89.5236075, 37.3259376], [-89.5235528, 37.3263301], [-89.5260838, 37.3265893], [-89.5277828, 37.3264704], [-89.5289221, 37.3265727], [-89.5292866, 37.3265329], [-89.5295141, 37.3263374], [-89.5305724, 37.3251824], [-89.5308791, 37.3235087], [-89.531012, 37.3226573], [-89.531025, 37.3223182], [-89.5306437, 37.3220923], [-89.5292034, 37.3219409], [-89.5290791, 37.3215546], [-89.5293123, 37.3214971], [-89.5299669, 37.3214769], [-89.5303379, 37.3214027], [-89.5308039, 37.3207719], [-89.5310138, 37.3203531], [-89.5313076, 37.3200467], [-89.5314041, 37.3198341], [-89.5313673, 37.3195308], [-89.5311078, 37.3192432], [-89.5311599, 37.3189404], [-89.5313392, 37.3178977], [-89.5315661, 37.3177273], [-89.5318742, 37.3176725], [-89.5320056, 37.3176491], [-89.5319311, 37.3175113], [-89.5319875, 37.3168755], [-89.5320396, 37.3164445], [-89.532099, 37.3161323], [-89.5321326, 37.3159562], [-89.532147, 37.3158805], [-89.532344, 37.314595], [-89.5325515, 37.313198], [-89.5326489, 37.3125923], [-89.5327328, 37.3120708], [-89.5338733, 37.3121865], [-89.5338832, 37.3121184], [-89.5339715, 37.31151], [-89.5342236, 37.3098716], [-89.5342902, 37.3097691], [-89.5338231, 37.3096253], [-89.5336418, 37.3095492], [-89.5334668, 37.3094529]]]}}