{"type": "Feature", "properties": {"market_key": 595, "university": "Midwestern State University", "osm_type": "relation", "osm_id": 8219512, "osm_name": "Midwestern State University"}, "geometry": {"type": "MultiPolygon", "coordinates": [[[[-98.5285033, 33.8704086], [-98.5271428, 33.8704012], [-98.5271453, 33.8695557], [-98.5285132, 33.8695668], [-98.5285033, 33.8704086]]], [[[-98.5215812, 33.866755], [-98.521629, 33.8669449], [-98.5215525, 33.8672155], [-98.5214087, 33.8674511], [-98.5212428, 33.8676725], [-98.5211115, 33.8677725], [-98.5208755, 33.867896], [-98.5206296, 33.8679665], [-98.5203816, 33.8679973], [-98.5198288, 33.867998], [-98.5196394, 33.8680305], [-98.5191721, 33.8681492], [-98.5188657, 33.8681715], [-98.5187097, 33.8682059], [-98.5184347, 33.8682139], [-98.5184836, 33.8687706], [-98.518619, 33.8704234], [-98.5186956, 33.8706132], [-98.5186442, 33.8706675], [-98.5186279, 33.8707519], [-98.5186198, 33.8708363], [-98.5186117, 33.8711536], [-98.518567, 33.8717443], [-98.5185641, 33.8728702], [-98.5185188, 33.8776899], [-98.5217563, 33.8777215], [-98.5219596, 33.8777873], [-98.5223325, 33.8779135], [-98.5245256, 33.8779159], [-98.5245473, 33.8765779], [-98.524531, 33.876386], [-98.5243365, 33.8763794], [-98.5243405, 33.8757558], [-98.5244375, 33.8757476], [-98.524466, 33.8753526], [-98.5246509, 33.8753541], [-98.5246489, 33.8735299], [-98.5251368, 33.8735232], [-98.5251368, 33.8727569], [-98.5244253, 33.87193], [-98.5246652, 33.8717983], [-98.5256205, 33.871238], [-98.5256815, 33.8711603], [-98.5261653, 33.8709679], [-98.5261868, 33.8705783], [-98.5256673, 33.8705798], [-98.5256763, 33.8702055], [-98.5256627, 33.8701832], [-98.5256193, 33.8701784], [-98.5253636, 33.87018], [-98.5252823, 33.87015], [-98.5250817, 33.8700439], [-98.5249095, 33.8698723], [-98.5246283, 33.8695463], [-98.5243657, 33.8692417], [-98.5251038, 33.8692393], [-98.5252086, 33.8692396], [-98.5253694, 33.8691016], [-98.5257953, 33.8691028], [-98.5258079, 33.8684945], [-98.5244181, 33.8684907], [-98.5244829, 33.868235], [-98.5239299, 33.8673845], [-98.524109, 33.8666001], [-98.525499, 33.8661276], [-98.5268154, 33.8661559], [-98.5268904, 33.8654453], [-98.5269614, 33.864562], [-98.5259235, 33.8645112], [-98.5245524, 33.8645086], [-98.5243723, 33.8645628], [-98.5231996, 33.8648893], [-98.521957, 33.864426], [-98.5217424, 33.8661764], [-98.5216491, 33.8661624], [-98.5216059, 33.8661616], [-98.5215832, 33.8661666], [-98.5215352, 33.866184], [-98.5214962, 33.8662148], [-98.5214717, 33.8662651], [-98.5213477, 33.866646], [-98.5213796, 33.8667226], [-98.5214632, 33.8667424], [-98.5215812, 33.866755]]]]}}