{"type": "Feature", "properties": {"market_key": 596, "university": "Drake University", "osm_type": "relation", "osm_id": 12275629, "osm_name": "Drake University"}, "geometry": {"type": "MultiPolygon", "coordinates": [[[[-93.660247, 41.6003499], [-93.659355, 41.6003496], [-93.6580694, 41.600288], [-93.6580693, 41.6002764], [-93.6580652, 41.5998063], [-93.6580624, 41.5994794], [-93.654434, 41.5995128], [-93.6534739, 41.5995077], [-93.653462, 41.6004812], [-93.6515806, 41.6004943], [-93.6503397, 41.6004955], [-93.6503395, 41.6003399], [-93.6503377, 41.5986972], [-93.65029, 41.5986972], [-93.6497728, 41.5986972], [-93.649694, 41.5986972], [-93.649704, 41.6036798], [-93.6497047, 41.6040485], [-93.6497025, 41.6051209], [-93.6497021, 41.6054423], [-93.6497032, 41.6056096], [-93.6498043, 41.6056072], [-93.6497988, 41.6059151], [-93.6502934, 41.6059214], [-93.6503415, 41.605922], [-93.6503411, 41.6062532], [-93.6501896, 41.6065405], [-93.6501811, 41.6076763], [-93.6506736, 41.6076738], [-93.6511717, 41.6076714], [-93.6528763, 41.6076588], [-93.6528793, 41.6066805], [-93.6535221, 41.6066816], [-93.6536224, 41.606681], [-93.6536195, 41.6071632], [-93.6536276, 41.6071796], [-93.6536426, 41.6071931], [-93.653661, 41.6072016], [-93.6536821, 41.6072055], [-93.6558483, 41.6071901], [-93.6558372, 41.6059196], [-93.6558408, 41.6058973], [-93.6558512, 41.60588], [-93.6558693, 41.6058559], [-93.6559661, 41.605856], [-93.6563141, 41.6058563], [-93.6565525, 41.6058579], [-93.6571766, 41.6058518], [-93.6578108, 41.6058473], [-93.6583563, 41.6058395], [-93.6584511, 41.6058382], [-93.6584493, 41.6057183], [-93.6584434, 41.6044998], [-93.6584432, 41.6044599], [-93.6584165, 41.6032382], [-93.6584885, 41.6032382], [-93.6595926, 41.6032382], [-93.6596289, 41.6032382], [-93.6596303, 41.6033653], [-93.6596908, 41.6033655], [-93.6602177, 41.6033672], [-93.6602189, 41.6039386], [-93.6608518, 41.6039358], [-93.6608471, 41.6029103], [-93.6608419, 41.6022195], [-93.660835, 41.6013397], [-93.6608349, 41.6013298], [-93.6608274, 41.6003557], [-93.660825, 41.6003505], [-93.660247, 41.6003499]]], [[[-93.6592793, 41.6040731], [-93.6592843, 41.6044706], [-93.6596962, 41.6044693], [-93.6596938, 41.6041522], [-93.6596898, 41.6041053], [-93.6596847, 41.6040937], [-93.6596754, 41.6040837], [-93.659661, 41.6040756], [-93.6596439, 41.6040713], [-93.6592793, 41.6040731]]], [[[-93.658377, 41.6099692], [-93.6572372, 41.6099808], [-93.6571007, 41.6101318], [-93.6563403, 41.6098263], [-93.6563424, 41.6095277], [-93.6557249, 41.6095221], [-93.65558, 41.6095208], [-93.6555778, 41.6091689], [-93.6554506, 41.609165], [-93.655429, 41.608584], [-93.6560074, 41.6085759], [-93.6560105, 41.6081265], [-93.6565303, 41.6081249], [-93.6565296, 41.6080004], [-93.6571662, 41.6079929], [-93.6572408, 41.607992], [-93.6583523, 41.607979], [-93.658377, 41.6099692]]]]}}