{"type": "Feature", "properties": {"market_key": 60, "university": "Texas Christian University", "osm_type": "relation", "osm_id": 20314129, "osm_name": "Texas Christian University"}, "geometry": {"type": "MultiPolygon", "coordinates": [[[[-97.3569905, 32.7062194], [-97.3583374, 32.7062265], [-97.3612256, 32.7062417], [-97.361497, 32.7061673], [-97.3618426, 32.7061223], [-97.3650398, 32.7061392], [-97.3650411, 32.7059598], [-97.3653678, 32.7054906], [-97.3653862, 32.7030235], [-97.3654341, 32.7027978], [-97.365544, 32.7025495], [-97.3656781, 32.7023847], [-97.3658766, 32.7022245], [-97.3661127, 32.7020936], [-97.3663782, 32.7020146], [-97.3667376, 32.7019785], [-97.3740842, 32.7020259], [-97.3743873, 32.7019943], [-97.3744436, 32.7020168], [-97.3744624, 32.7020755], [-97.3744865, 32.7039285], [-97.3744409, 32.7041475], [-97.3743524, 32.7043732], [-97.3740976, 32.7048494], [-97.374052, 32.7051338], [-97.3740413, 32.7055265], [-97.374001, 32.7059463], [-97.3739501, 32.7060321], [-97.3738777, 32.7060591], [-97.3701521, 32.7060253], [-97.3699455, 32.7060479], [-97.3697712, 32.7061178], [-97.3695486, 32.7062284], [-97.3694413, 32.7063255], [-97.3695612, 32.7064937], [-97.3700206, 32.707138], [-97.369967, 32.7088916], [-97.3700743, 32.7094693], [-97.3699563, 32.7135406], [-97.3666934, 32.7135056], [-97.3666899, 32.7137347], [-97.3655742, 32.7137312], [-97.3616205, 32.7137187], [-97.3605107, 32.7137152], [-97.3566954, 32.7137031], [-97.3567066, 32.7111981], [-97.3561098, 32.7111962], [-97.3552041, 32.7111933], [-97.3551958, 32.710569], [-97.3552159, 32.709919], [-97.3552162, 32.7095732], [-97.3545564, 32.7095697], [-97.3534666, 32.7095639], [-97.3523824, 32.7095582], [-97.3524079, 32.7061379], [-97.3564514, 32.7061593], [-97.3569905, 32.7062194]]]]}}