{"type": "Feature", "properties": {"market_key": 621, "university": "Savannah College of Art & Design", "osm_type": "relation", "osm_id": 13378789, "osm_name": "Savannah College of Art and Design"}, "geometry": {"type": "MultiPolygon", "coordinates": [[[[-81.0976367, 32.0844277], [-81.0981171, 32.0838597], [-81.0969725, 32.0831336], [-81.0965064, 32.0836229], [-81.0967149, 32.0837429], [-81.096673, 32.0838017], [-81.0976367, 32.0844277]]], [[[-81.1010176, 32.0856441], [-81.1000465, 32.0850609], [-81.0995684, 32.0855887], [-81.1006385, 32.086228], [-81.1010176, 32.0856441]]], [[[-81.0905191, 32.0802205], [-81.0904351, 32.0801978], [-81.0903393, 32.0801723], [-81.0903989, 32.0800127], [-81.0905788, 32.080061], [-81.0905191, 32.0802205]]], [[[-81.0913018, 32.0773297], [-81.0913764, 32.0770638], [-81.0903362, 32.0767816], [-81.0902338, 32.0770556], [-81.0913018, 32.0773297]]], [[[-81.0893561, 32.0789561], [-81.0893697, 32.0789195], [-81.0893858, 32.0789231], [-81.0894442, 32.0787653], [-81.0894357, 32.0787611], [-81.0894468, 32.0787282], [-81.0889508, 32.0786013], [-81.0888691, 32.0788358], [-81.0893561, 32.0789561]]], [[[-81.0891771, 32.0785938], [-81.0892655, 32.0783623], [-81.0887814, 32.0782296], [-81.0886931, 32.0784611], [-81.0891771, 32.0785938]]], [[[-81.0851688, 32.077384], [-81.0849568, 32.0773278], [-81.0849499, 32.0773451], [-81.0849124, 32.0773354], [-81.0849192, 32.0773178], [-81.0848015, 32.0772866], [-81.0848411, 32.0771773], [-81.0852112, 32.0772683], [-81.0851688, 32.077384]]], [[[-81.1066892, 32.0783991], [-81.1066319, 32.0783987], [-81.1064561, 32.0783975], [-81.1062499, 32.0783945], [-81.1057191, 32.0784323], [-81.1053661, 32.0784007], [-81.104804, 32.0785026], [-81.104621, 32.0785587], [-81.10378, 32.0785684], [-81.1036194, 32.0785703], [-81.1035472, 32.0787853], [-81.1035151, 32.0788807], [-81.1033452, 32.0795123], [-81.1033398, 32.0795324], [-81.1033143, 32.079627], [-81.1032002, 32.080005], [-81.1032915, 32.0800646], [-81.1033931, 32.080131], [-81.1039792, 32.0804851], [-81.1044288, 32.0807906], [-81.1046384, 32.080986], [-81.1049499, 32.0811828], [-81.1050831, 32.0810147], [-81.1051326, 32.0809521], [-81.105217, 32.0808456], [-81.1054871, 32.0805047], [-81.1055553, 32.0804236], [-81.1055791, 32.0803953], [-81.1057636, 32.0801762], [-81.1060013, 32.079877], [-81.1061668, 32.0796279], [-81.1062471, 32.0794922], [-81.1063094, 32.0793912], [-81.1063976, 32.0792353], [-81.1064488, 32.0791268], [-81.106494, 32.0790077], [-81.1065512, 32.078873], [-81.1066489, 32.0785435], [-81.1066892, 32.0783991]]], [[[-81.10543, 32.0756914], [-81.1041767, 32.0753232], [-81.1037598, 32.0764614], [-81.1040861, 32.0766142], [-81.104236, 32.0765345], [-81.1045338, 32.0765362], [-81.1050047, 32.0764558], [-81.1056125, 32.0765002], [-81.1056324, 32.0764447], [-81.1054708, 32.0761741], [-81.10543, 32.0756914]]], [[[-81.0987496, 32.0768159], [-81.0987116, 32.0769268], [-81.0978098, 32.0766882], [-81.0977192, 32.0769327], [-81.0985875, 32.0771533], [-81.0984647, 32.0774765], [-81.0989777, 32.0776118], [-81.0988458, 32.0779744], [-81.0983599, 32.0778413], [-81.0982991, 32.0780126], [-81.0990333, 32.078192], [-81.0992143, 32.0776819], [-81.1028347, 32.0786336], [-81.1029491, 32.0782871], [-81.1030769, 32.0783079], [-81.1029682, 32.0785438], [-81.1029759, 32.0786124], [-81.1031223, 32.0786837], [-81.1034195, 32.0787578], [-81.1035044, 32.078382], [-81.1038275, 32.0784299], [-81.1039848, 32.0785574], [-81.1040634, 32.078553], [-81.1039408, 32.0784483], [-81.1039646, 32.0783928], [-81.1035367, 32.0783107], [-81.1036922, 32.0774314], [-81.1035579, 32.0774558], [-81.1033173, 32.077697], [-81.1031088, 32.0782286], [-81.1029725, 32.0782025], [-81.1030671, 32.0779308], [-81.0987496, 32.0768159]]], [[[-81.0942444, 32.0725226], [-81.0939762, 32.0724578], [-81.0938574, 32.0728021], [-81.0930907, 32.0726121], [-81.0929809, 32.0729305], [-81.0939989, 32.0731829], [-81.0942444, 32.0725226]]], [[[-81.1049265, 32.0506345], [-81.105072, 32.0506711], [-81.1069108, 32.049705], [-81.1061141, 32.0493797], [-81.1056649, 32.0491981], [-81.1054745, 32.0491298], [-81.1051912, 32.0499102], [-81.1049265, 32.0506345]]], [[[-81.1077924, 32.0493106], [-81.1080576, 32.0486422], [-81.1083417, 32.0479105], [-81.1086837, 32.0470301], [-81.1086952, 32.0470166], [-81.1087089, 32.0470057], [-81.108723, 32.0470004], [-81.1087384, 32.0469984], [-81.1087546, 32.0470002], [-81.1087695, 32.0470037], [-81.1090516, 32.0470777], [-81.1095861, 32.0472149], [-81.1100564, 32.0473356], [-81.1105852, 32.0474712], [-81.1106192, 32.0474842], [-81.1106464, 32.0474963], [-81.1106738, 32.0475113], [-81.1106985, 32.0475281], [-81.1107257, 32.0475522], [-81.1107488, 32.0475767], [-81.1107943, 32.0476404], [-81.1108488, 32.0477169], [-81.1106462, 32.0478118], [-81.1103139, 32.0479823], [-81.1098067, 32.0482495], [-81.1077924, 32.0493106]]], [[[-81.0961048, 32.07763], [-81.0964139, 32.0767654], [-81.0958165, 32.0766063], [-81.0957198, 32.0768393], [-81.0953367, 32.0767381], [-81.0950844, 32.0773761], [-81.0961048, 32.07763]]], [[[-81.0941902, 32.0695397], [-81.0937798, 32.0694498], [-81.0937429, 32.0695189], [-81.0934755, 32.0694498], [-81.0933556, 32.069726], [-81.0930805, 32.0696569], [-81.0932458, 32.0691505], [-81.0931133, 32.0691258], [-81.092851, 32.0690686], [-81.0930263, 32.068611], [-81.0933956, 32.0686918], [-81.0939504, 32.0688273], [-81.0943131, 32.067883], [-81.0947542, 32.0680119], [-81.0946082, 32.0683688], [-81.0941917, 32.0682581], [-81.0941533, 32.0683818], [-81.0945867, 32.0684886], [-81.0942825, 32.0692926], [-81.094205, 32.0695054], [-81.0941902, 32.0695397]]], [[[-81.0937214, 32.0613622], [-81.0928961, 32.061144], [-81.0926653, 32.0617943], [-81.0934491, 32.0620082], [-81.0937214, 32.0613622]]], [[[-81.1060929, 32.0532981], [-81.1060686, 32.0533015], [-81.1060479, 32.0533011], [-81.1051018, 32.0530539], [-81.1039769, 32.0527646], [-81.1023658, 32.0523397], [-81.1023519, 32.0523321], [-81.1023411, 32.0523262], [-81.1023131, 32.0523019], [-81.1023358, 32.052291], [-81.1030329, 32.051931], [-81.1042092, 32.0522497], [-81.1049671, 32.0524442], [-81.1063105, 32.0528054], [-81.1061441, 32.0532395], [-81.1061258, 32.0532656], [-81.1061104, 32.0532859], [-81.1060929, 32.0532981]]], [[[-81.1068955, 32.051253], [-81.106181, 32.0510531], [-81.1063654, 32.0505782], [-81.1058467, 32.0504373], [-81.1066561, 32.0499827], [-81.1075421, 32.0495361], [-81.1068955, 32.051253]]], [[[-81.0963392, 32.0796794], [-81.0964411, 32.0794186], [-81.0960254, 32.079302], [-81.0959235, 32.0795628], [-81.0963392, 32.0796794]]], [[[-81.0957405, 32.0560853], [-81.0966272, 32.0562921], [-81.0963516, 32.0570465], [-81.095596, 32.0568706], [-81.0956165, 32.0567941], [-81.0956393, 32.0567968], [-81.0956924, 32.0566543], [-81.0957447, 32.0566647], [-81.0958035, 32.0565321], [-81.0955798, 32.0564673], [-81.0957405, 32.0560853]]], [[[-81.0976434, 32.0687181], [-81.097541, 32.0690039], [-81.0979939, 32.0691243], [-81.0981071, 32.0688334], [-81.0976434, 32.0687181]]], [[[-81.1281091, 32.0833218], [-81.128394, 32.0825409], [-81.1277593, 32.0824007], [-81.1276483, 32.0826509], [-81.1274472, 32.0829331], [-81.1273781, 32.0830396], [-81.1273592, 32.0831301], [-81.1281091, 32.0833218]]], [[[-81.1102096, 32.0845038], [-81.1100058, 32.0853788], [-81.1116687, 32.0857878], [-81.1118833, 32.0849606], [-81.1102096, 32.0845038]]], [[[-81.1001077, 32.063428], [-81.0980607, 32.0628774], [-81.0979252, 32.0632249], [-81.0999947, 32.06375], [-81.1001077, 32.063428]]], [[[-81.0883746, 32.0689406], [-81.0882568, 32.0692512], [-81.0877513, 32.069111], [-81.0878602, 32.068806], [-81.0883746, 32.0689406]]], [[[-81.0999641, 32.0839783], [-81.1001599, 32.0834632], [-81.0995193, 32.0832755], [-81.0993253, 32.0837964], [-81.0999641, 32.0839783]]], [[[-81.0985191, 32.068235], [-81.0987856, 32.068305], [-81.0987688, 32.0683513], [-81.0987875, 32.0683562], [-81.0987822, 32.0683708], [-81.0987629, 32.0683658], [-81.0987448, 32.0684157], [-81.0984789, 32.0683459], [-81.0985191, 32.068235]]], [[[-81.093125, 32.0701562], [-81.0929149, 32.0701021], [-81.0930211, 32.0697588], [-81.0932498, 32.0698203], [-81.093125, 32.0701562]]], [[[-81.0893094, 32.0746403], [-81.0889244, 32.0745437], [-81.0890874, 32.0740573], [-81.0894895, 32.0741709], [-81.0893094, 32.0746403]]], [[[-81.0979062, 32.0802294], [-81.097531, 32.0801311], [-81.0975995, 32.0799549], [-81.0979732, 32.0800506], [-81.0979062, 32.0802294]]], [[[-81.0896326, 32.078239], [-81.0897263, 32.0779987], [-81.0887518, 32.0777396], [-81.0886612, 32.0779866], [-81.0896326, 32.078239]]], [[[-81.0965955, 32.0699855], [-81.0970437, 32.0700999], [-81.096967, 32.0703313], [-81.0966445, 32.070251], [-81.0965178, 32.0702216], [-81.0965955, 32.0699855]]], [[[-81.0525867, 32.145039], [-81.0502909, 32.1453332], [-81.050961, 32.1481071], [-81.0517615, 32.1479863], [-81.0516436, 32.1473296], [-81.0522268, 32.1472035], [-81.0521586, 32.146862], [-81.0528846, 32.1467517], [-81.0525867, 32.145039]]], [[[-81.0497115, 32.1451913], [-81.0506324, 32.1429875], [-81.0470887, 32.1411482], [-81.0456172, 32.1410465], [-81.0447263, 32.1424959], [-81.0497115, 32.1451913]]]]}}