{"type": "Feature", "properties": {"market_key": 624, "university": "College of William and Mary", "osm_type": "relation", "osm_id": 11594877, "osm_name": "College of William and Mary"}, "geometry": {"type": "MultiPolygon", "coordinates": [[[[-76.7267651, 37.2899252], [-76.7267444, 37.2899183], [-76.726814, 37.2898849], [-76.7268849, 37.2898533], [-76.7271433, 37.2897605], [-76.7274108, 37.289686], [-76.7274762, 37.2896709], [-76.7280491, 37.2895419], [-76.7285618, 37.2894266], [-76.7287537, 37.2893826], [-76.7287639, 37.289414], [-76.7288036, 37.289406], [-76.7288674, 37.2893931], [-76.7289212, 37.2893822], [-76.7289134, 37.2893489], [-76.72926, 37.2892799], [-76.729699, 37.2892288], [-76.7297517, 37.2892248], [-76.7303472, 37.2891781], [-76.7304181, 37.2891715], [-76.7308399, 37.2891319], [-76.7314996, 37.2890728], [-76.7315051, 37.2891118], [-76.7315363, 37.289109], [-76.73158, 37.2891048], [-76.7315831, 37.2891378], [-76.7316705, 37.2895831], [-76.7317199, 37.289823], [-76.7317927, 37.2902114], [-76.7317985, 37.2902425], [-76.7318568, 37.2905579], [-76.7313786, 37.2911929], [-76.7304328, 37.2910046], [-76.7298477, 37.2908976], [-76.7295187, 37.2908359], [-76.7267651, 37.2899252]]], [[[-76.7058856, 37.2661737], [-76.7061791, 37.2661713], [-76.7064502, 37.2661691], [-76.706462, 37.2664366], [-76.7058674, 37.266461], [-76.7058668, 37.2662982], [-76.7058856, 37.2661737]]], [[[-76.7072325, 37.2630306], [-76.707059, 37.2630149], [-76.7068762, 37.2629985], [-76.7064024, 37.2629559], [-76.7064317, 37.262887], [-76.7065206, 37.2627277], [-76.7065469, 37.2627014], [-76.7071086, 37.2627266], [-76.7074761, 37.2627431], [-76.7074059, 37.2630462], [-76.7072325, 37.2630306]]], [[[-76.7405353, 37.2675055], [-76.7410352, 37.2654223], [-76.7409446, 37.2649497], [-76.7396308, 37.2626829], [-76.7388995, 37.2628176], [-76.7388542, 37.2627352], [-76.7385148, 37.2627678], [-76.7384788, 37.2627713], [-76.7384076, 37.2622304], [-76.7391584, 37.2621016], [-76.7390031, 37.2619316], [-76.7387118, 37.2616586], [-76.7380193, 37.2612414], [-76.7375533, 37.2608396], [-76.7367961, 37.2596961], [-76.7362977, 37.2589955], [-76.7356052, 37.258707], [-76.7347444, 37.2585164], [-76.7331857, 37.2596811], [-76.7324158, 37.2599169], [-76.7312708, 37.2612746], [-76.7304349, 37.2609344], [-76.7300556, 37.2612362], [-76.7291191, 37.2622054], [-76.728703, 37.2626865], [-76.728232, 37.2629114], [-76.7272899, 37.2631051], [-76.7256167, 37.2634889], [-76.7249801, 37.2637688], [-76.7247234, 37.2637457], [-76.7244873, 37.2636049], [-76.7242517, 37.2635237], [-76.7239689, 37.2635602], [-76.7236865, 37.2637111], [-76.7236522, 37.2635941], [-76.7232091, 37.2630989], [-76.7229928, 37.263225], [-76.7222397, 37.2636347], [-76.7177954, 37.2658844], [-76.7175131, 37.2660276], [-76.7169414, 37.2663155], [-76.716809, 37.2663795], [-76.7156306, 37.2669724], [-76.7153337, 37.2671189], [-76.7139009, 37.2678397], [-76.7136892, 37.2679469], [-76.7135608, 37.268012], [-76.7132239, 37.2681805], [-76.7130762, 37.2682546], [-76.7129401, 37.2683194], [-76.712787, 37.2683883], [-76.7126723, 37.268439], [-76.7126604, 37.2684442], [-76.712651, 37.2684483], [-76.7125082, 37.2685094], [-76.7124384, 37.2683914], [-76.7121129, 37.2678561], [-76.711475, 37.2681097], [-76.7099387, 37.2687182], [-76.70915, 37.2674327], [-76.7079241, 37.2675456], [-76.7077778, 37.2684316], [-76.7073625, 37.2684496], [-76.707607, 37.2722219], [-76.7089197, 37.2728397], [-76.7093495, 37.2720833], [-76.7128962, 37.2737098], [-76.7141194, 37.2749658], [-76.7153405, 37.2743691], [-76.715597, 37.2746647], [-76.7156283, 37.2746809], [-76.7156586, 37.2746901], [-76.7156753, 37.2746899], [-76.7157071, 37.2746848], [-76.7157491, 37.274667], [-76.7161132, 37.2744581], [-76.7173297, 37.2756735], [-76.7180964, 37.2771307], [-76.7181605, 37.2772314], [-76.7185452, 37.277101], [-76.7189248, 37.2774546], [-76.7189305, 37.2774524], [-76.7189477, 37.2774385], [-76.7189717, 37.2774078], [-76.7190828, 37.2772651], [-76.7191063, 37.2772536], [-76.719243, 37.2772577], [-76.7192698, 37.2772517], [-76.7193544, 37.2771801], [-76.7193774, 37.2771563], [-76.7193966, 37.2771422], [-76.719512, 37.2770923], [-76.7195294, 37.2770614], [-76.7196355, 37.276988], [-76.719756, 37.2769337], [-76.7197689, 37.2769071], [-76.7197742, 37.276766], [-76.7197973, 37.2767394], [-76.7198362, 37.2767363], [-76.7199051, 37.2767535], [-76.719938, 37.2767299], [-76.7199564, 37.2766925], [-76.7201354, 37.276693], [-76.7201797, 37.2766677], [-76.7202384, 37.2765714], [-76.7202963, 37.2765207], [-76.7203686, 37.2764882], [-76.7205289, 37.2762912], [-76.7205356, 37.2762693], [-76.7205183, 37.2761912], [-76.7205069, 37.2761584], [-76.7205036, 37.2761458], [-76.7204903, 37.2761069], [-76.720494, 37.2760621], [-76.7205211, 37.2759624], [-76.7205514, 37.2759339], [-76.7205756, 37.2759249], [-76.7205861, 37.2759204], [-76.7205972, 37.2759137], [-76.7206335, 37.2758822], [-76.7206752, 37.2758713], [-76.720689, 37.2758679], [-76.7207029, 37.2758544], [-76.7208163, 37.2759401], [-76.7210373, 37.2761077], [-76.7211083, 37.2761615], [-76.7212608, 37.2762772], [-76.7213913, 37.2763762], [-76.7214397, 37.2763401], [-76.7214483, 37.2763333], [-76.7214721, 37.2763146], [-76.721484, 37.2763052], [-76.7214959, 37.2762959], [-76.7215054, 37.2762885], [-76.7215168, 37.2762765], [-76.721523, 37.2762661], [-76.7215316, 37.2762411], [-76.7215329, 37.2762315], [-76.7215331, 37.2762219], [-76.7215342, 37.276205], [-76.7215385, 37.2761909], [-76.7215403, 37.2761865], [-76.7215466, 37.2761739], [-76.7215549, 37.2761612], [-76.7215617, 37.2761528], [-76.7215671, 37.2761471], [-76.7215755, 37.2761391], [-76.7215836, 37.2761326], [-76.7216079, 37.2761174], [-76.7216277, 37.2761087], [-76.721679, 37.2760971], [-76.7216953, 37.2760963], [-76.7217248, 37.276098], [-76.7217431, 37.2761012], [-76.7217663, 37.2761079], [-76.7217809, 37.2761138], [-76.7217951, 37.2761211], [-76.7218142, 37.2761339], [-76.7218343, 37.2761526], [-76.7218442, 37.2761654], [-76.7218569, 37.2761888], [-76.7218617, 37.276204], [-76.7218648, 37.2762268], [-76.7218634, 37.2762464], [-76.7218603, 37.2762601], [-76.7218572, 37.2762691], [-76.7218517, 37.2762812], [-76.7218372, 37.2763028], [-76.7218277, 37.2763133], [-76.7218075, 37.27633], [-76.7217882, 37.2763416], [-76.7217634, 37.2763521], [-76.721739, 37.2763586], [-76.7217224, 37.2763613], [-76.7216934, 37.2763627], [-76.7216769, 37.2763634], [-76.7216471, 37.2763721], [-76.7216291, 37.2763817], [-76.7216092, 37.2763987], [-76.721991, 37.2766879], [-76.7226738, 37.2772054], [-76.7226369, 37.2772016], [-76.722421, 37.2773791], [-76.7222667, 37.2776225], [-76.7222161, 37.2776546], [-76.7221898, 37.277722], [-76.7221593, 37.2777508], [-76.7220713, 37.2777544], [-76.722003, 37.2777448], [-76.721917, 37.2776999], [-76.721819, 37.2776849], [-76.7217395, 37.2776573], [-76.7217206, 37.2776704], [-76.7214852, 37.2777367], [-76.7214702, 37.2777667], [-76.721425, 37.2777897], [-76.7212644, 37.2778373], [-76.7211169, 37.2779303], [-76.7209172, 37.2780075], [-76.7208707, 37.2780645], [-76.7208448, 37.2780965], [-76.7206925, 37.2781611], [-76.7208188, 37.2782793], [-76.7208897, 37.2783321], [-76.7209658, 37.27838], [-76.7210465, 37.2784227], [-76.7211314, 37.2784601], [-76.7212198, 37.2784917], [-76.7213112, 37.2785174], [-76.7214049, 37.2785371], [-76.7215049, 37.2785561], [-76.7216025, 37.2785819], [-76.721697, 37.2786142], [-76.7217877, 37.2786529], [-76.7218739, 37.2786976], [-76.721955, 37.2787481], [-76.7220098, 37.2787879], [-76.7220836, 37.2788498], [-76.7224993, 37.2792519], [-76.7225204, 37.2792639], [-76.7226441, 37.2793927], [-76.7229311, 37.2796553], [-76.723025, 37.2797321], [-76.7233227, 37.2800415], [-76.7233927, 37.2801205], [-76.7233981, 37.2801461], [-76.7234085, 37.2801773], [-76.7234248, 37.280193], [-76.7235483, 37.2803046], [-76.7236366, 37.2804], [-76.7236549, 37.2804015], [-76.7239155, 37.2802784], [-76.7249198, 37.2797641], [-76.7249327, 37.2797502], [-76.7249491, 37.279732], [-76.7249853, 37.2797057], [-76.7251586, 37.2796306], [-76.7251893, 37.2796259], [-76.7261541, 37.279063], [-76.7261501, 37.2789035], [-76.726372, 37.2788291], [-76.7265484, 37.2788727], [-76.7280105, 37.2781482], [-76.7294438, 37.2776092], [-76.7333107, 37.2764749], [-76.7337473, 37.2763612], [-76.7350543, 37.2759749], [-76.7355503, 37.275829], [-76.7357454, 37.2757862], [-76.7359021, 37.2757631], [-76.73612, 37.2757143], [-76.7365764, 37.2755597], [-76.7370048, 37.2754669], [-76.7374858, 37.2754275], [-76.7379919, 37.2754754], [-76.7382783, 37.2755173], [-76.7383532, 37.2755061], [-76.7384118, 37.2754692], [-76.7385269, 37.2752249], [-76.7386538, 37.2748566], [-76.7387288, 37.2746753], [-76.7369961, 37.2745786], [-76.7353684, 37.274487], [-76.7347585, 37.2744527], [-76.7347093, 37.2743962], [-76.7346673, 37.2743361], [-76.7346387, 37.2743184], [-76.7345872, 37.2743106], [-76.73447, 37.2743229], [-76.7343848, 37.27432], [-76.7342837, 37.2743055], [-76.734244, 37.274294], [-76.7341593, 37.2742387], [-76.7341076, 37.2741864], [-76.7340334, 37.2741296], [-76.7339656, 37.2740684], [-76.733927, 37.2740266], [-76.7338126, 37.2739781], [-76.733836, 37.2736902], [-76.7339789, 37.2724569], [-76.7347455, 37.2724797], [-76.7348587, 37.2713967], [-76.7348662, 37.2713248], [-76.7349249, 37.2707635], [-76.7363393, 37.2708408], [-76.7363615, 37.2706663], [-76.7363708, 37.2706019], [-76.7363693, 37.2705707], [-76.7363926, 37.2702835], [-76.7364098, 37.2700711], [-76.735773, 37.269524], [-76.7361898, 37.2694996], [-76.7362595, 37.2694956], [-76.7367351, 37.2694685], [-76.7366352, 37.2684682], [-76.736626, 37.2683757], [-76.7365502, 37.267617], [-76.7365071, 37.2671849], [-76.7372295, 37.2672419], [-76.7383452, 37.26733], [-76.7384507, 37.2673383], [-76.7391141, 37.2673906], [-76.7398994, 37.2674526], [-76.7405004, 37.2674987], [-76.7405353, 37.2675055]], [[-76.7110887, 37.2726545], [-76.7110876, 37.2725978], [-76.7112035, 37.2725981], [-76.7112028, 37.2726546], [-76.7110887, 37.2726545]], [[-76.7114818, 37.2726708], [-76.711379, 37.2726705], [-76.7113789, 37.272589], [-76.7114802, 37.2725888], [-76.7114818, 37.2726708]]], [[[-76.7044977, 37.2548203], [-76.7075904, 37.2552813], [-76.7092877, 37.257044], [-76.7090012, 37.2581775], [-76.7090398, 37.2581743], [-76.7090951, 37.2581897], [-76.709127, 37.2582396], [-76.7092065, 37.2582804], [-76.7092821, 37.2582855], [-76.7093507, 37.2583017], [-76.7093905, 37.2583566], [-76.709411, 37.2584092], [-76.709442, 37.2584662], [-76.7094833, 37.2585162], [-76.7094957, 37.2585902], [-76.7094989, 37.2586867], [-76.7095215, 37.2587734], [-76.7095218, 37.2587776], [-76.7095235, 37.2587811], [-76.7098061, 37.2593778], [-76.7097795, 37.2594681], [-76.7097457, 37.2595568], [-76.7097047, 37.2596435], [-76.7096568, 37.259728], [-76.7096022, 37.2598098], [-76.7080716, 37.2587142], [-76.7077271, 37.2590275], [-76.7074882, 37.2592436], [-76.7073981, 37.2593255], [-76.7072822, 37.2594358], [-76.7071843, 37.2595289], [-76.7068842, 37.2598049], [-76.706333, 37.2603159], [-76.7059056, 37.2607159], [-76.7055763, 37.261024], [-76.7052471, 37.2613321], [-76.7066219, 37.2623018], [-76.7067047, 37.2623604], [-76.7066358, 37.2624227], [-76.7064944, 37.2625798], [-76.7064143, 37.2626985], [-76.7063743, 37.2627691], [-76.7063327, 37.2628647], [-76.7063017, 37.2629583], [-76.7062828, 37.2630323], [-76.706271, 37.2631272], [-76.7061527, 37.2642666], [-76.7058446, 37.2658751], [-76.7057946, 37.2660902], [-76.7057845, 37.2661526], [-76.7057746, 37.2662145], [-76.705768, 37.2662951], [-76.7057681, 37.2663986], [-76.7057737, 37.2664783], [-76.7058154, 37.2668989], [-76.7058224, 37.266969], [-76.7057443, 37.2669725], [-76.7056974, 37.2669746], [-76.7052046, 37.2669964], [-76.7044235, 37.2669426], [-76.7042804, 37.2669229], [-76.704087, 37.2668884], [-76.7036582, 37.2668138], [-76.703738, 37.2667041], [-76.7032445, 37.2659655], [-76.7033196, 37.2654276], [-76.7033518, 37.2649836], [-76.7033572, 37.2642749], [-76.7033518, 37.2637669], [-76.7033143, 37.2632716], [-76.7033016, 37.2631745], [-76.7032848, 37.2630467], [-76.7032392, 37.2626995], [-76.703148, 37.2621829], [-76.7030427, 37.2617504], [-76.7028851, 37.2611028], [-76.702869, 37.2610643], [-76.7027188, 37.26109], [-76.7026276, 37.260774], [-76.7025793, 37.2605435], [-76.7025364, 37.2601592], [-76.702515, 37.2597194], [-76.7025257, 37.2594932], [-76.7025901, 37.2592968], [-76.7026169, 37.2589552], [-76.7027242, 37.2585581], [-76.7029012, 37.2580799], [-76.7030997, 37.2576572], [-76.7032553, 37.2576572], [-76.7034108, 37.2571449], [-76.7035771, 37.2572132], [-76.7039687, 37.2566026], [-76.7041726, 37.2562696], [-76.704253, 37.2560774], [-76.7043657, 37.2557359], [-76.7044301, 37.255501], [-76.7044837, 37.2552833], [-76.7044944, 37.2549417], [-76.7044977, 37.2548203]]], [[[-76.7256053, 37.2797286], [-76.7258265, 37.2796729], [-76.7263716, 37.2799155], [-76.7269259, 37.2798712], [-76.7273689, 37.2800361], [-76.7275755, 37.2802016], [-76.7278484, 37.2801911], [-76.728298, 37.2805164], [-76.7286033, 37.2804166], [-76.7291079, 37.28046], [-76.7292371, 37.2803641], [-76.7295738, 37.2805333], [-76.7297779, 37.2803945], [-76.7301567, 37.2805267], [-76.7304851, 37.2803496], [-76.730685, 37.2806219], [-76.7309481, 37.2804517], [-76.7313714, 37.2804294], [-76.7316358, 37.2805458], [-76.7317972, 37.2804675], [-76.7322501, 37.2804288], [-76.7324843, 37.2803912], [-76.7327914, 37.2802227], [-76.733364, 37.2799452], [-76.7338867, 37.2802676], [-76.7344462, 37.2803904], [-76.7372866, 37.2802059], [-76.7375484, 37.2790648], [-76.7362692, 37.2789921], [-76.736282, 37.2785369], [-76.7370009, 37.2786223], [-76.73743, 37.2776491], [-76.737939, 37.2776853], [-76.7382168, 37.2765332], [-76.7382874, 37.2761444], [-76.738225, 37.2760742], [-76.7381283, 37.2760423], [-76.7378358, 37.2759986], [-76.7376471, 37.2759753], [-76.7372291, 37.2758997], [-76.7369338, 37.2758636], [-76.7366143, 37.2758683], [-76.7363305, 37.2759055], [-76.7361183, 37.275897], [-76.7357657, 37.275976], [-76.7353596, 37.2760817], [-76.7348918, 37.2762219], [-76.7340625, 37.2764722], [-76.730115, 37.2776776], [-76.7285192, 37.2782293], [-76.7264396, 37.2791669], [-76.7256005, 37.2796196], [-76.7256053, 37.2797286]]], [[[-76.7233406, 37.2626268], [-76.7231884, 37.262783], [-76.7231434, 37.2628241], [-76.7230853, 37.2628715], [-76.7230315, 37.2629107], [-76.7229515, 37.2629618], [-76.7227756, 37.263084], [-76.7226571, 37.2631576], [-76.7224823, 37.2632549], [-76.7222696, 37.2633657], [-76.7221292, 37.2634319], [-76.7219887, 37.263506], [-76.7219129, 37.2634358], [-76.7218807, 37.2634276], [-76.7218418, 37.263427], [-76.7218157, 37.2634369], [-76.7218153, 37.2634525], [-76.7218149, 37.263468], [-76.7217887, 37.2634805], [-76.7214781, 37.2632915], [-76.7214473, 37.2632354], [-76.7214463, 37.2632179], [-76.721457, 37.263197], [-76.7214792, 37.2631845], [-76.7215087, 37.263171], [-76.7215339, 37.2631562], [-76.7215431, 37.2631376], [-76.7215541, 37.2631264], [-76.7215656, 37.2631204], [-76.7215802, 37.2631148], [-76.7216009, 37.2631058], [-76.7216235, 37.263077], [-76.7216372, 37.2630538], [-76.7216391, 37.2630329], [-76.7216378, 37.2630165], [-76.7216368, 37.2630048], [-76.7216407, 37.2629664], [-76.7216559, 37.2629409], [-76.7216826, 37.2629215], [-76.7217214, 37.2628894], [-76.7217335, 37.2628721], [-76.7217384, 37.2628488], [-76.7217324, 37.262795], [-76.7216894, 37.2626952], [-76.7216567, 37.2625978], [-76.7216342, 37.2625601], [-76.7216058, 37.2625247], [-76.7215778, 37.2624717], [-76.7215698, 37.2624378], [-76.7215422, 37.2623696], [-76.72151, 37.2623108], [-76.7214624, 37.2622249], [-76.7214444, 37.2621791], [-76.7214267, 37.2621263], [-76.7214133, 37.2620747], [-76.7214062, 37.2620034], [-76.7214004, 37.261938], [-76.7213857, 37.2618806], [-76.7213778, 37.2618466], [-76.7213335, 37.2617397], [-76.7212899, 37.2616702], [-76.7212529, 37.2616276], [-76.7212172, 37.2615909], [-76.7211683, 37.2615587], [-76.7211496, 37.2615462], [-76.7211252, 37.26153], [-76.7210878, 37.2615026], [-76.7210506, 37.2614717], [-76.7210207, 37.2614362], [-76.7209953, 37.2613997], [-76.7209094, 37.2613248], [-76.7208647, 37.2612898], [-76.7208563, 37.2612832], [-76.7208162, 37.2612511], [-76.7207819, 37.2612155], [-76.7207579, 37.2611825], [-76.7207267, 37.2611435], [-76.7206994, 37.2611221], [-76.7206705, 37.2611088], [-76.7206386, 37.2611002], [-76.7206022, 37.2610926], [-76.7205669, 37.2610777], [-76.7205555, 37.2610715], [-76.7205427, 37.2610645], [-76.7205342, 37.2610598], [-76.7205257, 37.2610553], [-76.7205182, 37.261049], [-76.7204297, 37.2609745], [-76.7203706, 37.2609385], [-76.7203143, 37.2609097], [-76.7202485, 37.260886], [-76.7202231, 37.2608768], [-76.7202008, 37.2608661], [-76.7201349, 37.2608346], [-76.7200934, 37.260814], [-76.7200635, 37.2607992], [-76.7200353, 37.2607853], [-76.719973, 37.260761], [-76.719896, 37.2607423], [-76.7198348, 37.2607355], [-76.7197939, 37.2607349], [-76.7197646, 37.2607391], [-76.7197442, 37.2607388], [-76.7197019, 37.2607347], [-76.7196912, 37.260732], [-76.7196801, 37.2607302], [-76.7196691, 37.2607292], [-76.719655, 37.2607292], [-76.7196447, 37.26073], [-76.7196382, 37.2607309], [-76.7196274, 37.2607331], [-76.7196197, 37.2607351], [-76.7196074, 37.2607395], [-76.7196013, 37.2607422], [-76.7195938, 37.260746], [-76.7195887, 37.260749], [-76.7195774, 37.2607636], [-76.71957, 37.2607732], [-76.7195654, 37.2607793], [-76.7195455, 37.2608265], [-76.7195331, 37.2608561], [-76.7195242, 37.2608776], [-76.7195209, 37.2608851], [-76.7195163, 37.2608928], [-76.7195133, 37.2608968], [-76.7195087, 37.2609022], [-76.7195029, 37.2609081], [-76.7194909, 37.2609153], [-76.7194779, 37.2609223], [-76.7194581, 37.2609336], [-76.7194431, 37.2609413], [-76.7194275, 37.2609478], [-76.7194163, 37.2609515], [-76.7194019, 37.2609563], [-76.7193872, 37.2609601], [-76.7193754, 37.2609631], [-76.7193484, 37.2609679], [-76.7193365, 37.2609697], [-76.7193186, 37.2609716], [-76.7192923, 37.2609748], [-76.7192436, 37.2609778], [-76.7191707, 37.2609773], [-76.7191281, 37.2609767], [-76.7191012, 37.2609753], [-76.7190895, 37.2609737], [-76.7190745, 37.2609715], [-76.7190616, 37.2609686], [-76.7190539, 37.2609668], [-76.7190136, 37.2609533], [-76.7189805, 37.2609358], [-76.7188817, 37.2608686], [-76.7188309, 37.2608341], [-76.7189244, 37.2603013], [-76.7191385, 37.2603521], [-76.7194151, 37.260284], [-76.7194712, 37.2602902], [-76.7195157, 37.2602846], [-76.7195766, 37.260277], [-76.7197845, 37.2602511], [-76.7202955, 37.2601763], [-76.7206494, 37.2601408], [-76.7208653, 37.2601002], [-76.7211015, 37.2600531], [-76.7212517, 37.260018], [-76.7211603, 37.2599866], [-76.7212195, 37.2599765], [-76.7213898, 37.2600355], [-76.7215561, 37.2601054], [-76.7214871, 37.2601911], [-76.7215146, 37.2602129], [-76.7209829, 37.2604972], [-76.7214471, 37.260815], [-76.7216319, 37.261186], [-76.7219036, 37.2613707], [-76.7222696, 37.261892], [-76.7224465, 37.2620857], [-76.7228217, 37.2624942], [-76.7229751, 37.2623949], [-76.7233406, 37.2626268]]]]}}