{"type": "Feature", "properties": {"market_key": 629, "university": "University of Nebraska Lincoln", "osm_type": "relation", "osm_id": 12032853, "osm_name": "University of Nebraska-Lincoln City Campus"}, "geometry": {"type": "MultiPolygon", "coordinates": [[[[-96.6928139, 40.8208137], [-96.6927098, 40.8206889], [-96.6926099, 40.8204624], [-96.6925601, 40.82033], [-96.6925196, 40.8202009], [-96.6924925, 40.8200841], [-96.6924739, 40.8199753], [-96.6924508, 40.8198224], [-96.6924448, 40.8195952], [-96.6924592, 40.8194505], [-96.6924616, 40.819317], [-96.6924626, 40.8190736], [-96.6924698, 40.8189828], [-96.6924858, 40.8188463], [-96.6925121, 40.818718], [-96.6925556, 40.8185921], [-96.6926205, 40.8184456], [-96.6927217, 40.818271], [-96.6928052, 40.8181568], [-96.6929027, 40.8180527], [-96.6930002, 40.8179547], [-96.6931832, 40.8177844], [-96.693352, 40.8178683], [-96.6934497, 40.817918], [-96.6935562, 40.8179606], [-96.693714, 40.8180026], [-96.6937505, 40.8180105], [-96.6937356, 40.8186139], [-96.6937474, 40.8190192], [-96.6937328, 40.8206917], [-96.6937179, 40.8207242], [-96.6936713, 40.8207544], [-96.6930934, 40.8208107], [-96.6928139, 40.8208137]]], [[[-96.6982879, 40.822808], [-96.7011101, 40.8228229], [-96.7011375, 40.8235428], [-96.70115, 40.8249158], [-96.7011691, 40.8250772], [-96.7012153, 40.8252013], [-96.7012661, 40.8252925], [-96.7012914, 40.8253501], [-96.7012631, 40.825444], [-96.700397, 40.8258864], [-96.7001045, 40.826031], [-96.6998984, 40.8261258], [-96.6997671, 40.8261713], [-96.6995673, 40.8262297], [-96.6993579, 40.8263259], [-96.6990489, 40.8264671], [-96.6989774, 40.8264864], [-96.6988936, 40.8264893], [-96.6987903, 40.8264617], [-96.6983162, 40.8257356], [-96.6982967, 40.8257409], [-96.6978185, 40.8251163], [-96.6978015, 40.825125], [-96.6975875, 40.8248715], [-96.6972758, 40.8245332], [-96.6969342, 40.8242165], [-96.6968376, 40.8240764], [-96.6964346, 40.8236821], [-96.6964551, 40.8235901], [-96.6965674, 40.8235536], [-96.696702, 40.823531], [-96.6968613, 40.8235162], [-96.6971561, 40.8235074], [-96.6979856, 40.823494], [-96.6980704, 40.8235365], [-96.6982843, 40.8235392], [-96.6982879, 40.822808]]], [[[-96.696, 40.8233148], [-96.6957198, 40.8230561], [-96.6954651, 40.8228458], [-96.6952047, 40.82265], [-96.6946517, 40.8222837], [-96.6944517, 40.8221531], [-96.6940601, 40.8218762], [-96.6938644, 40.8217359], [-96.6937422, 40.8216509], [-96.6936102, 40.8215752], [-96.6934292, 40.8214331], [-96.693146, 40.8212017], [-96.6932372, 40.8210739], [-96.6937342, 40.8210218], [-96.6942125, 40.8210037], [-96.6949987, 40.8209704], [-96.6956998, 40.8209262], [-96.6959503, 40.8209265], [-96.6959505, 40.8209211], [-96.696731, 40.8209216], [-96.6980165, 40.8209285], [-96.6980132, 40.8215678], [-96.6980123, 40.8217412], [-96.6980113, 40.8219503], [-96.6980108, 40.8220469], [-96.6980102, 40.8221628], [-96.6980097, 40.8222635], [-96.6980091, 40.8223786], [-96.698008, 40.8226068], [-96.6980077, 40.8226637], [-96.6980076, 40.8226767], [-96.6980063, 40.8227779], [-96.6980048, 40.8232047], [-96.6980031, 40.8232685], [-96.6979761, 40.8232875], [-96.6970849, 40.8232843], [-96.6970241, 40.8232789], [-96.6969498, 40.8232667], [-96.69687, 40.8232531], [-96.6967985, 40.8232526], [-96.6966828, 40.8232578], [-96.6963808, 40.8232601], [-96.6963807, 40.8233169], [-96.696, 40.8233148]]], [[[-96.6965527, 40.816791], [-96.6952569, 40.8167784], [-96.6941105, 40.8167793], [-96.6941732, 40.816605], [-96.6942363, 40.8163854], [-96.6942547, 40.8162355], [-96.6942655, 40.8159649], [-96.6942916, 40.8159375], [-96.6965499, 40.8159449], [-96.6965527, 40.816791]]], [[[-96.7027972, 40.8159763], [-96.7032617, 40.8159791], [-96.7038571, 40.8159827], [-96.7038484, 40.8168011], [-96.7027885, 40.8167946], [-96.7027972, 40.8159763]]], [[[-96.6898366, 40.8209438], [-96.6899046, 40.8209832], [-96.6899006, 40.8225347], [-96.687163, 40.8225058], [-96.6871638, 40.8223844], [-96.6871739, 40.8208904], [-96.6888983, 40.8208921], [-96.6888979, 40.8209138], [-96.6894808, 40.8209145], [-96.6898366, 40.8209438]]], [[[-96.702222, 40.8302611], [-96.7020104, 40.830261], [-96.7020134, 40.8298732], [-96.7020638, 40.8298898], [-96.7021121, 40.8299217], [-96.7021485, 40.8299523], [-96.7021868, 40.8299934], [-96.7022152, 40.8300503], [-96.7022233, 40.8301089], [-96.702222, 40.8302611]]], [[[-96.7011912, 40.8302573], [-96.7009273, 40.830335], [-96.7003159, 40.8292201], [-96.7011867, 40.8292245], [-96.7011912, 40.8302573]]], [[[-96.708143, 40.8193311], [-96.7071164, 40.8193339], [-96.7071054, 40.8201718], [-96.7070557, 40.8201722], [-96.7070564, 40.8215806], [-96.7070554, 40.8218695], [-96.7070762, 40.821926], [-96.7071125, 40.8219734], [-96.7071589, 40.82201], [-96.7071937, 40.8220277], [-96.7074542, 40.8220293], [-96.7075964, 40.8219515], [-96.7078865, 40.8215283], [-96.7078994, 40.8215341], [-96.7080195, 40.8213405], [-96.7081081, 40.8211637], [-96.7081877, 40.8209623], [-96.7082204, 40.8209625], [-96.7082515, 40.8207551], [-96.7082469, 40.8201787], [-96.7082392, 40.8197391], [-96.7082272, 40.8196164], [-96.7081815, 40.8194193], [-96.708143, 40.8193311]]], [[[-96.693751, 40.8178235], [-96.6936858, 40.8178236], [-96.6935886, 40.8178108], [-96.693474, 40.8177736], [-96.6933626, 40.8177168], [-96.6933053, 40.8176767], [-96.6936479, 40.8173847], [-96.6937394, 40.8173051], [-96.6937496, 40.817314], [-96.693751, 40.8178235]]], [[[-96.6887277, 40.8226773], [-96.6887281, 40.8230281], [-96.6886252, 40.8230282], [-96.6883154, 40.8230284], [-96.6882555, 40.8230284], [-96.6882469, 40.8231559], [-96.688729, 40.8231588], [-96.6887283, 40.8234033], [-96.6894061, 40.8234071], [-96.6894059, 40.8233965], [-96.6899023, 40.8233981], [-96.6899074, 40.8226917], [-96.6887277, 40.8226773]]], [[[-96.6952728, 40.824579], [-96.6955354, 40.8261616], [-96.6955553, 40.8262998], [-96.6955643, 40.8264675], [-96.6955673, 40.8266357], [-96.6955574, 40.8268313], [-96.69553, 40.826985], [-96.6954635, 40.8272436], [-96.6953785, 40.8274874], [-96.6952298, 40.8277838], [-96.696376, 40.8275361], [-96.696377, 40.8274722], [-96.6963883, 40.8274192], [-96.6963932, 40.8273617], [-96.6963938, 40.8273138], [-96.6963967, 40.8270067], [-96.6964037, 40.8258038], [-96.6963938, 40.8253877], [-96.6963861, 40.8253139], [-96.6963672, 40.8252086], [-96.6963312, 40.8251189], [-96.6962657, 40.8250247], [-96.6961982, 40.8249402], [-96.696125, 40.8248656], [-96.696029, 40.82479], [-96.6959032, 40.8247223], [-96.6957856, 40.824673], [-96.695601, 40.8246143], [-96.6954528, 40.8245923], [-96.6952728, 40.824579]]], [[[-96.6966635, 40.8262878], [-96.697426, 40.8262922], [-96.6974008, 40.8261578], [-96.6973156, 40.8259763], [-96.6972713, 40.825903], [-96.696656, 40.8251638], [-96.6966635, 40.8262878]]], [[[-96.6992488, 40.8209474], [-96.7011547, 40.8209708], [-96.7011396, 40.8226372], [-96.6982886, 40.8226254], [-96.6982881, 40.8216024], [-96.6982921, 40.821248], [-96.6987597, 40.8212499], [-96.6987592, 40.8213227], [-96.6992453, 40.8213278], [-96.6992488, 40.8209474]]], [[[-96.6974747, 40.8170617], [-96.6974789, 40.8174324], [-96.6979414, 40.8174294], [-96.6980104, 40.8174289], [-96.6980122, 40.8170633], [-96.6974747, 40.8170617]]], [[[-96.6973587, 40.8199911], [-96.6973562, 40.8202794], [-96.6974392, 40.8202801], [-96.6974354, 40.8207382], [-96.6967005, 40.8207375], [-96.6967013, 40.8206983], [-96.6959599, 40.8207018], [-96.6956463, 40.8207073], [-96.6940243, 40.8207409], [-96.6939551, 40.8207144], [-96.6939597, 40.8197225], [-96.6939642, 40.818761], [-96.6939643, 40.8187298], [-96.693962, 40.8186873], [-96.6939675, 40.8180193], [-96.6939764, 40.8173911], [-96.6939856, 40.8173361], [-96.6940169, 40.8172595], [-96.6940463, 40.8172076], [-96.6940808, 40.817168], [-96.6941368, 40.8171233], [-96.694229, 40.8170783], [-96.6943238, 40.8170535], [-96.6944026, 40.8170467], [-96.6965536, 40.8170584], [-96.6965783, 40.8179227], [-96.6968009, 40.8179213], [-96.6968007, 40.8174684], [-96.69712, 40.8174702], [-96.6971158, 40.8178802], [-96.697269, 40.8178811], [-96.6972668, 40.8180868], [-96.698008, 40.8180913], [-96.6980038, 40.8192718], [-96.6972696, 40.8192683], [-96.6972714, 40.819511], [-96.697363, 40.819513], [-96.6973606, 40.8197817], [-96.6973587, 40.8199911]]], [[[-96.6994588, 40.8157061], [-96.6983521, 40.8157024], [-96.6983569, 40.8148667], [-96.6994603, 40.8148703], [-96.6994588, 40.8157061]]], [[[-96.699949, 40.8163875], [-96.6999492, 40.8159475], [-96.700978, 40.8159535], [-96.7009765, 40.8167907], [-96.7007226, 40.8167902], [-96.7007221, 40.8165328], [-96.7004273, 40.8165306], [-96.7004281, 40.8163892], [-96.699949, 40.8163875]]], [[[-96.7020568, 40.8159826], [-96.7024162, 40.8159828], [-96.7024158, 40.8165187], [-96.7020475, 40.816517], [-96.7020437, 40.8167978], [-96.7013343, 40.8167975], [-96.7013347, 40.8164097], [-96.7020511, 40.8164107], [-96.7020513, 40.8163659], [-96.7020568, 40.8159826]]], [[[-96.7060902, 40.8159814], [-96.7060912, 40.8163908], [-96.7062867, 40.8163917], [-96.7064667, 40.8163925], [-96.706472, 40.8159862], [-96.7068058, 40.8159866], [-96.7068183, 40.8170975], [-96.7068835, 40.8171006], [-96.7069712, 40.8173755], [-96.7069878, 40.8174274], [-96.7071198, 40.8177218], [-96.7071154, 40.8179081], [-96.7072681, 40.8179067], [-96.7077923, 40.8186895], [-96.7077103, 40.8186904], [-96.7077047, 40.8190717], [-96.7068086, 40.8190701], [-96.7068172, 40.8200589], [-96.7068664, 40.8200584], [-96.7068576, 40.8211768], [-96.7067936, 40.8211766], [-96.7067768, 40.8217], [-96.7067226, 40.8217582], [-96.7067192, 40.8221674], [-96.7067205, 40.8226022], [-96.7067141, 40.8226252], [-96.7066961, 40.8226483], [-96.7066603, 40.8226709], [-96.7056513, 40.8231973], [-96.7056029, 40.8232283], [-96.7055358, 40.8232911], [-96.7054921, 40.8233191], [-96.7046916, 40.8237328], [-96.7046117, 40.8237641], [-96.7045224, 40.8237863], [-96.7044472, 40.8238014], [-96.7043746, 40.8238318], [-96.7042983, 40.8238848], [-96.7041856, 40.8239742], [-96.7041536, 40.8239986], [-96.7041086, 40.8240235], [-96.7034941, 40.8243498], [-96.7032354, 40.824489], [-96.7031914, 40.8245309], [-96.7024058, 40.8249326], [-96.7023523, 40.8249599], [-96.7023018, 40.8249801], [-96.7022516, 40.8249949], [-96.7021943, 40.8250125], [-96.7021577, 40.8250254], [-96.7021017, 40.8250497], [-96.7018563, 40.825172], [-96.7015616, 40.8252212], [-96.7015162, 40.8251868], [-96.7014683, 40.8251217], [-96.7014263, 40.8250274], [-96.7014018, 40.8249134], [-96.7013844, 40.824386], [-96.7014009, 40.823748], [-96.7013924, 40.8208225], [-96.7014242, 40.820823], [-96.7014255, 40.8207665], [-96.6983489, 40.8207345], [-96.69835, 40.8204498], [-96.6986767, 40.8204537], [-96.6986772, 40.8204333], [-96.6987834, 40.820434], [-96.6987867, 40.8200367], [-96.698791, 40.8199443], [-96.6987916, 40.8198646], [-96.6987944, 40.819583], [-96.6988001, 40.8189983], [-96.6985087, 40.8189965], [-96.6983435, 40.8189955], [-96.6983442, 40.8189036], [-96.6987971, 40.8189036], [-96.6987985, 40.8186197], [-96.6988005, 40.8182127], [-96.6992768, 40.8182148], [-96.6992769, 40.8180488], [-96.6992756, 40.8178877], [-96.69928, 40.8174624], [-96.6988838, 40.81746], [-96.698884, 40.8174385], [-96.6988455, 40.8174382], [-96.6988472, 40.8172765], [-96.6983562, 40.8172734], [-96.6983561, 40.8170542], [-96.6992654, 40.8170563], [-96.6992628, 40.8173928], [-96.7000379, 40.8173962], [-96.7000416, 40.817058], [-96.7022071, 40.817063], [-96.7042102, 40.8170739], [-96.7042117, 40.8164397], [-96.7042097, 40.8159857], [-96.7060902, 40.8159814]]], [[[-96.7014389, 40.8335207], [-96.7040087, 40.8325731], [-96.7040134, 40.8321249], [-96.7040092, 40.8305387], [-96.7027204, 40.8305336], [-96.7025088, 40.830547], [-96.7023141, 40.8305664], [-96.7022444, 40.8305733], [-96.7019889, 40.8306207], [-96.701703, 40.8306922], [-96.7014115, 40.8307755], [-96.7013399, 40.8307976], [-96.7012749, 40.8308267], [-96.7012233, 40.8308745], [-96.7012093, 40.8309344], [-96.7012165, 40.8310069], [-96.7012477, 40.8311096], [-96.7012975, 40.8312531], [-96.7013483, 40.8314486], [-96.7013989, 40.8316576], [-96.7014395, 40.8318502], [-96.7014669, 40.8320404], [-96.7014698, 40.8321209], [-96.7014765, 40.8323775], [-96.7014594, 40.8325608], [-96.7014692, 40.8333867], [-96.7014389, 40.8335207]]], [[[-96.7058035, 40.8238318], [-96.7066765, 40.8238261], [-96.7067606, 40.8238316], [-96.7067727, 40.8245371], [-96.705451, 40.8245334], [-96.7052541, 40.8245762], [-96.7043735, 40.824577], [-96.7054737, 40.824004], [-96.7058035, 40.8238318]]], [[[-96.692007, 40.82129], [-96.6925273, 40.8218906], [-96.6927048, 40.8219166], [-96.6934687, 40.8224262], [-96.693739, 40.8225326], [-96.6938068, 40.822661], [-96.6940657, 40.822664], [-96.6940757, 40.8228328], [-96.6947306, 40.8233535], [-96.6946911, 40.8234304], [-96.6944637, 40.8234286], [-96.6901223, 40.8233928], [-96.6901251, 40.8210272], [-96.6902101, 40.8209942], [-96.6904133, 40.8210372], [-96.69062, 40.8210891], [-96.6909017, 40.8211639], [-96.6909996, 40.8211852], [-96.6910907, 40.8212028], [-96.6912663, 40.8212232], [-96.691403, 40.8212344], [-96.6916594, 40.8212498], [-96.6918891, 40.8212489], [-96.6919693, 40.8212466], [-96.692007, 40.82129]]], [[[-96.6966878, 40.8289531], [-96.6964585, 40.829153], [-96.696231, 40.829304], [-96.695858, 40.8295144], [-96.6945256, 40.8301783], [-96.693508, 40.8306928], [-96.6937938, 40.8308965], [-96.6938373, 40.8308698], [-96.6938617, 40.8308566], [-96.6940146, 40.8310148], [-96.6939167, 40.8310807], [-96.6938752, 40.8311195], [-96.6938512, 40.831177], [-96.6938372, 40.8312527], [-96.6938323, 40.8313968], [-96.6938198, 40.8319691], [-96.6938218, 40.8322763], [-96.6938313, 40.8323275], [-96.693858, 40.8323891], [-96.6939054, 40.8324524], [-96.6941936, 40.8327722], [-96.6954713, 40.8320891], [-96.6954331, 40.8319985], [-96.6957163, 40.8318543], [-96.6957536, 40.8319467], [-96.6965111, 40.8315726], [-96.6966028, 40.831517], [-96.6966947, 40.8314668], [-96.6968787, 40.8313886], [-96.6970048, 40.8313639], [-96.6975528, 40.831373], [-96.6991712, 40.8313714], [-96.6993417, 40.8313305], [-96.6994873, 40.8312442], [-96.6995949, 40.8311557], [-96.6996671, 40.8310485], [-96.6996788, 40.8307801], [-96.6996325, 40.8298588], [-96.6996153, 40.8297755], [-96.6995877, 40.8297076], [-96.6995092, 40.8295942], [-96.6991625, 40.8291134], [-96.6990316, 40.8289863], [-96.698949, 40.8289855], [-96.6989496, 40.8289331], [-96.6987815, 40.8287306], [-96.6980746, 40.8278577], [-96.6971318, 40.8283817], [-96.6968319, 40.8287915], [-96.6966878, 40.8289531]]], [[[-96.6854791, 40.8366165], [-96.6854877, 40.8358776], [-96.685321, 40.8357455], [-96.6848833, 40.8353986], [-96.6835483, 40.836089], [-96.6824287, 40.836668], [-96.6823607, 40.8367023], [-96.6823243, 40.836722], [-96.682322, 40.8366125], [-96.682477, 40.8365288], [-96.6826723, 40.8364763], [-96.6847128, 40.8354238], [-96.6847632, 40.8354021], [-96.6848176, 40.8353886], [-96.6848631, 40.8353782], [-96.6848968, 40.8353759], [-96.684926, 40.8353758], [-96.6854623, 40.8354412], [-96.6871465, 40.835455], [-96.6891115, 40.8354646], [-96.6893628, 40.8354623], [-96.6894511, 40.83544], [-96.6896398, 40.8353868], [-96.6898037, 40.8353209], [-96.690329, 40.8350879], [-96.6911482, 40.8346569], [-96.6926651, 40.8338659], [-96.6926856, 40.8338858], [-96.6929071, 40.8337716], [-96.6928867, 40.833752], [-96.6949375, 40.8326757], [-96.6964547, 40.8318937], [-96.6966946, 40.831762], [-96.6969129, 40.8316665], [-96.697125, 40.8316282], [-96.6973696, 40.8316194], [-96.6997033, 40.8316158], [-96.6997387, 40.832392], [-96.6998282, 40.8330534], [-96.6998576, 40.8332708], [-96.6997963, 40.8334677], [-96.6982539, 40.8352288], [-96.6970668, 40.8367153], [-96.6969989, 40.8366907], [-96.6966471, 40.8370488], [-96.696341, 40.8372701], [-96.6957935, 40.8375491], [-96.6953346, 40.8377177], [-96.6929242, 40.8385233], [-96.6924884, 40.8386314], [-96.6919134, 40.8387257], [-96.691686, 40.8387628], [-96.6916946, 40.8366706], [-96.6900842, 40.8366677], [-96.6897115, 40.835415], [-96.6896715, 40.8354145], [-96.6893907, 40.8354911], [-96.6895502, 40.8360508], [-96.6883746, 40.8360484], [-96.6883662, 40.8366296], [-96.6854791, 40.8366165]]], [[[-96.6895845, 40.8198871], [-96.6895835, 40.8201839], [-96.689908, 40.8201833], [-96.6899093, 40.8202525], [-96.6882195, 40.8202495], [-96.6882207, 40.8198846], [-96.6895845, 40.8198871]]]]}}