{"type": "Feature", "properties": {"market_key": 635, "university": "Youngstown State University", "osm_type": "way", "osm_id": 664720166, "osm_name": "Youngstown State University"}, "geometry": {"type": "Polygon", "coordinates": [[[-80.643628, 41.11133], [-80.6444447, 41.11133], [-80.644481, 41.11133], [-80.6449811, 41.11133], [-80.6450277, 41.11133], [-80.6451107, 41.11133], [-80.6451767, 41.11133], [-80.6451782, 41.1107398], [-80.6451783, 41.1107176], [-80.645591, 41.1107183], [-80.645545, 41.110852], [-80.6455387, 41.1108817], [-80.645523, 41.1109553], [-80.6455079, 41.1111528], [-80.6455069, 41.1112533], [-80.6455052, 41.1113299], [-80.6456304, 41.1113299], [-80.6457906, 41.1113298], [-80.6460783, 41.1113296], [-80.646172, 41.1113295], [-80.6462356, 41.1113295], [-80.6467867, 41.1113291], [-80.646888, 41.111329], [-80.6470066, 41.1113289], [-80.6475197, 41.1113286], [-80.6475881, 41.1113285], [-80.6477693, 41.1113284], [-80.6480546, 41.1113282], [-80.6483106, 41.1113281], [-80.648414, 41.111328], [-80.6485254, 41.111328], [-80.6494, 41.111328], [-80.6493979, 41.111232], [-80.6493774, 41.1103181], [-80.649524, 41.110359], [-80.6495719, 41.1103767], [-80.6496343, 41.1103997], [-80.649692, 41.110421], [-80.649875, 41.110501], [-80.650031, 41.110583], [-80.650173, 41.110659], [-80.650479, 41.110774], [-80.650685, 41.110845], [-80.6509142, 41.1109248], [-80.651044, 41.11097], [-80.6512125, 41.111047], [-80.651335, 41.111103], [-80.65165, 41.1112], [-80.651831, 41.111243], [-80.65201, 41.111278], [-80.652271, 41.111309], [-80.652499, 41.111323], [-80.6531956, 41.1113306], [-80.653265, 41.1113314], [-80.653268, 41.109752], [-80.6533672, 41.1097521], [-80.654282, 41.109753], [-80.6552684, 41.1097539], [-80.655349, 41.109754], [-80.655354, 41.1096967], [-80.6553573, 41.1096585], [-80.655432, 41.108797], [-80.6554541, 41.1085918], [-80.655462, 41.108519], [-80.655471, 41.10839], [-80.6553978, 41.1083887], [-80.6551036, 41.1083836], [-80.6545552, 41.1083741], [-80.654435, 41.108372], [-80.654367, 41.108368], [-80.65433, 41.108357], [-80.6543802, 41.1082858], [-80.654946, 41.1074843], [-80.6547523, 41.1074009], [-80.655043, 41.107007], [-80.6548359, 41.1069209], [-80.6545175, 41.1067879], [-80.6546148, 41.1066557], [-80.6548836, 41.106314], [-80.6550127, 41.1063692], [-80.6551701, 41.1064366], [-80.655467, 41.1065636], [-80.6555474, 41.1065675], [-80.6556233, 41.1065711], [-80.6556297, 41.1064998], [-80.6556607, 41.1061565], [-80.655682, 41.1059215], [-80.6543865, 41.1053447], [-80.6543741, 41.1053662], [-80.6539724, 41.1059241], [-80.6539044, 41.105895], [-80.653884, 41.1058863], [-80.6538418, 41.1058682], [-80.6537466, 41.1058275], [-80.6534917, 41.1057184], [-80.6530699, 41.1055379], [-80.652958, 41.10549], [-80.653004, 41.1054321], [-80.6530628, 41.1053582], [-80.6531091, 41.1052999], [-80.653193, 41.1051945], [-80.6532144, 41.1051676], [-80.6532278, 41.1051507], [-80.6533914, 41.1049449], [-80.6534191, 41.1049102], [-80.6534699, 41.1048462], [-80.6536155, 41.1046631], [-80.653887, 41.104317], [-80.654054, 41.10412], [-80.654127, 41.104027], [-80.654518, 41.103531], [-80.65441, 41.1034836], [-80.6542928, 41.1034322], [-80.6540015, 41.1033041], [-80.6538564, 41.1032407], [-80.6535829, 41.1031207], [-80.6535332, 41.1030989], [-80.6535156, 41.1030912], [-80.6533728, 41.1030285], [-80.6533221, 41.1030063], [-80.652976, 41.1034305], [-80.6529503, 41.103462], [-80.6527385, 41.1037214], [-80.6526832, 41.1037892], [-80.6522223, 41.1035897], [-80.6521515, 41.1036788], [-80.6517626, 41.1041822], [-80.651803, 41.1041999], [-80.6517909, 41.1042197], [-80.6515308, 41.10456], [-80.6514009, 41.1047259], [-80.6513477, 41.1047955], [-80.6513071, 41.104778], [-80.6512322, 41.1047457], [-80.65107, 41.1046757], [-80.650363, 41.1055203], [-80.6503477, 41.1055136], [-80.6501887, 41.1054435], [-80.6501385, 41.1054214], [-80.6501014, 41.1054051], [-80.6498354, 41.105288], [-80.649828, 41.1052847], [-80.6496943, 41.1052259], [-80.6495891, 41.1051795], [-80.6493528, 41.1050755], [-80.6492021, 41.1050091], [-80.6491437, 41.1049834], [-80.6490551, 41.1049444], [-80.6487928, 41.1048289], [-80.6487838, 41.1048249], [-80.648659, 41.10477], [-80.648976, 41.1043429], [-80.6490778, 41.1043863], [-80.6491038, 41.1043971], [-80.6493474, 41.1045008], [-80.6494171, 41.1044074], [-80.6496205, 41.1041349], [-80.6496699, 41.1040711], [-80.6495816, 41.1040329], [-80.649257, 41.1038925], [-80.6492931, 41.1038368], [-80.6499008, 41.1030155], [-80.6501408, 41.1026912], [-80.6500457, 41.1026504], [-80.649479, 41.1024071], [-80.6493454, 41.1023495], [-80.649278, 41.1023204], [-80.6492531, 41.1023102], [-80.6488964, 41.1021571], [-80.6488664, 41.1021442], [-80.6487993, 41.1022335], [-80.6485449, 41.1025706], [-80.6485366, 41.1025815], [-80.6485255, 41.1025946], [-80.648552, 41.1026058], [-80.6488626, 41.1027378], [-80.6489143, 41.102767], [-80.6488725, 41.1028234], [-80.6486458, 41.103129], [-80.648614, 41.1031718], [-80.6485671, 41.103235], [-80.6485056, 41.103318], [-80.6484683, 41.1033682], [-80.6484612, 41.1033778], [-80.6484201, 41.1034332], [-80.6483654, 41.1035069], [-80.6483136, 41.1034844], [-80.6477889, 41.1032563], [-80.6476077, 41.1031775], [-80.6472209, 41.1030094], [-80.6470883, 41.1029517], [-80.6470095, 41.1030527], [-80.6468322, 41.10328], [-80.6467434, 41.1033954], [-80.6466996, 41.1034517], [-80.6465627, 41.1036289], [-80.6464897, 41.1037218], [-80.646425, 41.103805], [-80.6464071, 41.1038284], [-80.6464035, 41.1038332], [-80.6463975, 41.103841], [-80.6463761, 41.103869], [-80.6461769, 41.1041299], [-80.6461682, 41.1041413], [-80.6451229, 41.1037], [-80.645211, 41.1035776], [-80.6451015, 41.1035301], [-80.644033, 41.10306], [-80.6440541, 41.1030327], [-80.6441119, 41.1029577], [-80.644221, 41.102816], [-80.6441699, 41.1027937], [-80.6438168, 41.1026391], [-80.6434633, 41.1024844], [-80.6429346, 41.102253], [-80.642528, 41.102075], [-80.642457, 41.102089], [-80.6424512, 41.1020962], [-80.642439, 41.1021116], [-80.6422014, 41.1024094], [-80.641953, 41.1027257], [-80.6419239, 41.1027627], [-80.6410197, 41.1023664], [-80.640964, 41.102342], [-80.640429, 41.103033], [-80.6420529, 41.1037341], [-80.6423223, 41.1033855], [-80.6425334, 41.1034753], [-80.6422761, 41.103828], [-80.6424955, 41.1039203], [-80.6422135, 41.1042983], [-80.6411744, 41.1038362], [-80.6408886, 41.1042401], [-80.639979, 41.103838], [-80.6397272, 41.1047884], [-80.6404185, 41.104795], [-80.6408671, 41.1047992], [-80.641473, 41.104805], [-80.6414376, 41.1048506], [-80.640851, 41.1056051], [-80.6395531, 41.1056072], [-80.6391562, 41.1056079], [-80.639068, 41.105608], [-80.638991, 41.1056066], [-80.6388901, 41.1056048], [-80.6393247, 41.1058829], [-80.6393901, 41.1059192], [-80.6403383, 41.1064453], [-80.6411656, 41.1068241], [-80.6419401, 41.1071664], [-80.6426411, 41.1074635], [-80.6428777, 41.1075635], [-80.6431809, 41.1076916], [-80.6432402, 41.1077166], [-80.6432762, 41.1077318], [-80.6433924, 41.1077809], [-80.6434755, 41.107816], [-80.6435595, 41.1078515], [-80.643828, 41.107965], [-80.6441566, 41.1080775], [-80.6443737, 41.1081565], [-80.6448336, 41.1083436], [-80.6451565, 41.108475], [-80.645586, 41.108664], [-80.6450149, 41.1092936], [-80.6448322, 41.1092144], [-80.6448022, 41.1092535], [-80.6445198, 41.109621], [-80.644349, 41.1098447], [-80.6439957, 41.110303], [-80.6438236, 41.1105271], [-80.643637, 41.11077], [-80.6436292, 41.1112576], [-80.643628, 41.11133]]]}}