{"type": "Feature", "properties": {"market_key": 65, "university": "George Mason University", "osm_type": "way", "osm_id": 337509448, "osm_name": "George Mason University"}, "geometry": {"type": "Polygon", "coordinates": [[[-77.2973454, 38.8349613], [-77.2972191, 38.8349567], [-77.2972301, 38.8349342], [-77.2983617, 38.8326167], [-77.2988123, 38.8316096], [-77.2989679, 38.8313923], [-77.2992683, 38.8309869], [-77.2994869, 38.8306328], [-77.2995835, 38.8304238], [-77.2996599, 38.8301177], [-77.2996961, 38.8298638], [-77.2997618, 38.8296706], [-77.3000019, 38.8291618], [-77.300254, 38.8284848], [-77.3010801, 38.8268633], [-77.3012639, 38.8266199], [-77.3014288, 38.826249], [-77.3014677, 38.8260682], [-77.301461, 38.8258269], [-77.3015146, 38.8257516], [-77.3026626, 38.8252251], [-77.3031722, 38.8250412], [-77.3039555, 38.8248364], [-77.3055929, 38.8244425], [-77.3058276, 38.8244185], [-77.3067396, 38.824197], [-77.3071325, 38.8241165], [-77.3074101, 38.8240883], [-77.3078608, 38.8241134], [-77.3085689, 38.8242137], [-77.3102385, 38.8245052], [-77.3105966, 38.824594], [-77.310952, 38.82471], [-77.31129, 38.8248562], [-77.3115568, 38.8249827], [-77.3129958, 38.8259804], [-77.3136114, 38.8263785], [-77.3142122, 38.8266711], [-77.3161863, 38.8274943], [-77.3162735, 38.8277227], [-77.3162642, 38.828024], [-77.316087, 38.8291116], [-77.3161021, 38.8300469], [-77.3155413, 38.8305158], [-77.31545, 38.8307028], [-77.3158947, 38.8308642], [-77.3176113, 38.8316164], [-77.3191778, 38.8322599], [-77.3196713, 38.8324271], [-77.3199931, 38.8321429], [-77.3207013, 38.8324605], [-77.3212913, 38.8323184], [-77.3221926, 38.8315161], [-77.3229758, 38.830463], [-77.3231064, 38.8299892], [-77.3245108, 38.8300912], [-77.3254434, 38.8301705], [-77.3261749, 38.8302901], [-77.3268309, 38.830448], [-77.3277949, 38.8307832], [-77.3286656, 38.8310967], [-77.3293837, 38.8312742], [-77.3301778, 38.8313925], [-77.3301673, 38.8314678], [-77.3300167, 38.8317352], [-77.3296308, 38.8324206], [-77.3265125, 38.8379908], [-77.3261963, 38.8385555], [-77.3224163, 38.8373118], [-77.3197483, 38.8364328], [-77.3194586, 38.8362406], [-77.3189758, 38.8359899], [-77.3178493, 38.8355303], [-77.3176025, 38.8354634], [-77.3173558, 38.8354383], [-77.3166369, 38.8353965], [-77.3164438, 38.8353631], [-77.3144268, 38.8348115], [-77.3140942, 38.834728], [-77.3137402, 38.8346945], [-77.3134414, 38.8347104], [-77.3131624, 38.8347856], [-77.3125721, 38.8349735], [-77.3123521, 38.8350194], [-77.3114133, 38.8352492], [-77.3094343, 38.8355236], [-77.3084178, 38.8356645], [-77.3083249, 38.8356774], [-77.3078563, 38.8357424], [-77.3064983, 38.8358634], [-77.3040019, 38.8360741], [-77.303857, 38.8354703], [-77.3022813, 38.8353404], [-77.3002173, 38.8351854], [-77.3002353, 38.8350404], [-77.2973454, 38.8349613]]]}}