{"type": "Feature", "properties": {"market_key": 650, "university": "University at Buffalo SUNY", "osm_type": "relation", "osm_id": 14332031, "osm_name": "University at Buffalo"}, "geometry": {"type": "MultiPolygon", "coordinates": [[[[-78.8140834, 42.9585518], [-78.8141412, 42.9585603], [-78.8144575, 42.9585534], [-78.8149033, 42.9585445], [-78.8154241, 42.958535], [-78.8156461, 42.9585297], [-78.8158157, 42.9585138], [-78.815944, 42.9584908], [-78.8161897, 42.9584313], [-78.8164968, 42.9583093], [-78.8168349, 42.9581951], [-78.8170219, 42.9581391], [-78.8171071, 42.9581062], [-78.8173189, 42.9580233], [-78.8176392, 42.957898], [-78.8182782, 42.957646], [-78.8183779, 42.9576049], [-78.8185141, 42.9575418], [-78.8186143, 42.957484], [-78.8186604, 42.9574534], [-78.8187993, 42.9573654], [-78.818925, 42.9572665], [-78.8210828, 42.9553471], [-78.8214063, 42.9550576], [-78.821448, 42.9550202], [-78.8224587, 42.9541195], [-78.8227012, 42.9539033], [-78.8239066, 42.9528239], [-78.824066, 42.9526812], [-78.8220772, 42.9515026], [-78.8229992, 42.9506708], [-78.8213333, 42.9496906], [-78.8211869, 42.9495461], [-78.8210941, 42.9495067], [-78.8200196, 42.9495057], [-78.818751, 42.9494868], [-78.8187504, 42.949103], [-78.8186096, 42.9491011], [-78.8181273, 42.9490913], [-78.8177997, 42.9490825], [-78.8175857, 42.9490783], [-78.8170614, 42.9490681], [-78.8169359, 42.9490612], [-78.8138494, 42.9490017], [-78.8138208, 42.9490012], [-78.8138039, 42.9490038], [-78.8137849, 42.9490177], [-78.8137766, 42.9490317], [-78.8137767, 42.9490531], [-78.8138134, 42.9511361], [-78.8139398, 42.9566174], [-78.8139825, 42.9584566], [-78.8139932, 42.9584895], [-78.8140144, 42.958516], [-78.8140464, 42.9585378], [-78.8140834, 42.9585518]]], [[[-78.7936932, 43.012422], [-78.7923568, 43.0124406], [-78.7909064, 43.0124622], [-78.7908138, 43.0124602], [-78.7907776, 43.0123455], [-78.7907052, 43.0123043], [-78.7906222, 43.0122437], [-78.7904691, 43.0121317], [-78.7900185, 43.0118963], [-78.7896221, 43.0118829], [-78.7889564, 43.0120866], [-78.7882093, 43.0126004], [-78.7877741, 43.0126508], [-78.7870726, 43.0123637], [-78.7867083, 43.012091], [-78.7858072, 43.0121251], [-78.7851805, 43.0126075], [-78.7846926, 43.012668], [-78.7842729, 43.0126028], [-78.7835575, 43.011813], [-78.7833452, 43.0116296], [-78.7820309, 43.0113021], [-78.7811538, 43.010951], [-78.7808775, 43.0106411], [-78.7809151, 43.01019], [-78.7813792, 43.0096311], [-78.781414, 43.0092819], [-78.7812047, 43.0089779], [-78.7799549, 43.0081306], [-78.7795472, 43.0078482], [-78.7790963, 43.0075738], [-78.7787933, 43.0073375], [-78.7787159, 43.0070273], [-78.7785013, 43.0068497], [-78.7783247, 43.0067036], [-78.7779044, 43.0067617], [-78.777221, 43.0071335], [-78.7764581, 43.0071494], [-78.775835, 43.0067027], [-78.775084, 43.0063104], [-78.7743544, 43.0060908], [-78.7737321, 43.0057926], [-78.7732815, 43.0057926], [-78.7725955, 43.0060303], [-78.7717877, 43.00515], [-78.7715115, 43.0044213], [-78.7713894, 43.0040989], [-78.7713542, 43.0040061], [-78.7712878, 43.0033866], [-78.7712705, 43.0032246], [-78.7714402, 43.0028524], [-78.77165, 43.002392], [-78.7718156, 43.0020288], [-78.7720478, 43.0017473], [-78.7723991, 43.0013213], [-78.7725591, 43.0011273], [-78.7726241, 43.0007059], [-78.7726614, 43.0004634], [-78.7726728, 43.0003897], [-78.7731223, 42.9999809], [-78.7731872, 42.9988162], [-78.7733208, 42.9964208], [-78.7745906, 42.9963923], [-78.7777202, 42.9963211], [-78.7813783, 42.9962585], [-78.7829998, 42.9962409], [-78.7843641, 42.9962297], [-78.7845609, 42.9960794], [-78.7847612, 42.9958622], [-78.7849004, 42.9956946], [-78.7851693, 42.9953571], [-78.7872789, 42.9948797], [-78.7885412, 42.9914202], [-78.7924041, 42.9913711], [-78.7968899, 42.9915665], [-78.7970917, 42.9916956], [-78.7987816, 42.9922263], [-78.7988074, 42.9940857], [-78.7981725, 42.9940809], [-78.7981705, 42.9952842], [-78.79783, 42.9952791], [-78.7976676, 42.9954697], [-78.7975574, 42.9956442], [-78.7974431, 42.995875], [-78.7981562, 42.9970629], [-78.7987307, 42.9968963], [-78.7987285, 42.9970695], [-78.798721, 42.9976432], [-78.7981604, 42.9976403], [-78.798458, 42.9986299], [-78.7984613, 42.9998815], [-78.79846, 43.0002156], [-78.7985033, 43.0022665], [-78.8018638, 43.0022469], [-78.8020375, 43.004196], [-78.802034, 43.0043465], [-78.8019925, 43.0061229], [-78.8016558, 43.0065077], [-78.8016492, 43.0065152], [-78.8011995, 43.0066561], [-78.8006622, 43.0066878], [-78.8006558, 43.0066878], [-78.7986176, 43.0066782], [-78.7986363, 43.0069212], [-78.7936268, 43.0069787], [-78.7936369, 43.0085901], [-78.7936605, 43.0106549], [-78.7936992, 43.0108335], [-78.7936932, 43.012422]]], [[[-78.8653902, 42.8976393], [-78.8679028, 42.898107], [-78.8680434, 42.8976914], [-78.8692351, 42.8979003], [-78.8693693, 42.8974438], [-78.8695355, 42.8968785], [-78.868468, 42.8968549], [-78.8682641, 42.8974955], [-78.8656141, 42.8970475], [-78.8656125, 42.8970516], [-78.8655504, 42.8972159], [-78.8653902, 42.8976393]]]]}}