{"type": "Feature", "properties": {"market_key": 66, "university": "Iowa State University", "osm_type": "relation", "osm_id": 3501275, "osm_name": "Iowa State University"}, "geometry": {"type": "MultiPolygon", "coordinates": [[[[-93.639492, 42.0226663], [-93.6394937, 42.0227773], [-93.63967, 42.0227792], [-93.6400094, 42.0227823], [-93.642024, 42.022809], [-93.6420249, 42.022697], [-93.6420251, 42.0226308], [-93.6420226, 42.0224463], [-93.6420193, 42.0221606], [-93.6420143, 42.0220925], [-93.6420126, 42.0220686], [-93.642001, 42.0219093], [-93.6419942, 42.0218156], [-93.6419893, 42.0217629], [-93.6419622, 42.0214739], [-93.6420394, 42.0215228], [-93.6420985, 42.0215455], [-93.6421661, 42.0215715], [-93.6423357, 42.0215866], [-93.6424964, 42.0215776], [-93.6426949, 42.0215665], [-93.6429167, 42.0215547], [-93.6436012, 42.0215206], [-93.6438421, 42.0215088], [-93.6442948, 42.0214859], [-93.644394, 42.0214858], [-93.644395, 42.0216127], [-93.6443965, 42.0217868], [-93.6444012, 42.0223267], [-93.6444038, 42.0226407], [-93.6444043, 42.0226923], [-93.6444053, 42.02281], [-93.6444785, 42.0228109], [-93.6445327, 42.0228115], [-93.6454875, 42.0228225], [-93.6455332, 42.0228237], [-93.6462497, 42.0228309], [-93.6464044, 42.0228329], [-93.6465527, 42.0228345], [-93.6485053, 42.0228472], [-93.6486405, 42.0228479], [-93.650001, 42.0228531], [-93.6501454, 42.0228534], [-93.6502132, 42.022853], [-93.6517251, 42.0228415], [-93.6518152, 42.0228415], [-93.6518223, 42.0228777], [-93.6518483, 42.0228789], [-93.652111, 42.0228685], [-93.6523715, 42.0228586], [-93.6527189, 42.0228442], [-93.6532281, 42.0228264], [-93.6533598, 42.0228223], [-93.6536639, 42.0228085], [-93.6539539, 42.0227994], [-93.6540161, 42.0227977], [-93.6540765, 42.0228007], [-93.6541197, 42.0228069], [-93.6541317, 42.022812], [-93.6541448, 42.0228228], [-93.6541504, 42.022833], [-93.6541536, 42.0228464], [-93.6542421, 42.022737], [-93.6542458, 42.0229016], [-93.6542489, 42.0229987], [-93.6542537, 42.0231456], [-93.6542642, 42.023467], [-93.6542726, 42.023936], [-93.654273, 42.0239575], [-93.6542749, 42.0240649], [-93.6542785, 42.0246127], [-93.6542983, 42.0253671], [-93.6544046, 42.0253651], [-93.6548807, 42.0253563], [-93.6548819, 42.0253973], [-93.6548826, 42.025431], [-93.6548828, 42.025439], [-93.6548829, 42.0254449], [-93.6548893, 42.0257289], [-93.6549528, 42.0257276], [-93.6549577, 42.0259975], [-93.6544294, 42.0260027], [-93.6544042, 42.026003], [-93.6543668, 42.0260034], [-93.6543135, 42.0260046], [-93.6543155, 42.026119], [-93.6543211, 42.0263132], [-93.6543225, 42.0263694], [-93.6543264, 42.0265329], [-93.65433, 42.0266791], [-93.6543315, 42.0267415], [-93.6543333, 42.0267984], [-93.6543413, 42.027019], [-93.6543429, 42.0271163], [-93.6543582, 42.0273124], [-93.6543731, 42.0273539], [-93.6543959, 42.0273768], [-93.6545094, 42.0274417], [-93.6550112, 42.0276982], [-93.6555804, 42.0279891], [-93.6556493, 42.0280153], [-93.65571, 42.0280254], [-93.6556725, 42.0295558], [-93.6556957, 42.0301134], [-93.6556867, 42.0302418], [-93.655683, 42.0303342], [-93.6556744, 42.0305507], [-93.6556737, 42.0305681], [-93.6556631, 42.0319132], [-93.655662, 42.0320543], [-93.6556524, 42.0332802], [-93.6556413, 42.0344032], [-93.6556386, 42.034489], [-93.6556358, 42.0346188], [-93.6556244, 42.0351519], [-93.65562, 42.0353434], [-93.6567192, 42.0354896], [-93.6567423, 42.0380636], [-93.6627057, 42.0380462], [-93.6628704, 42.0380456], [-93.6628725, 42.0374753], [-93.6628741, 42.0358755], [-93.6628787, 42.0357875], [-93.6628959, 42.0355073], [-93.6628929, 42.0353796], [-93.6628886, 42.0345989], [-93.6629023, 42.0345614], [-93.6629282, 42.0345419], [-93.6629617, 42.0345338], [-93.6652572, 42.0345392], [-93.6657851, 42.0345386], [-93.6689807, 42.0345463], [-93.6689829, 42.0359387], [-93.6689526, 42.0452228], [-93.6638945, 42.0452326], [-93.6638853, 42.0474634], [-93.6638337, 42.0474678], [-93.6632957, 42.0474727], [-93.6604204, 42.0474986], [-93.6599839, 42.0475025], [-93.6591561, 42.0475108], [-93.6591627, 42.0471214], [-93.6591825, 42.0459505], [-93.659221, 42.0436813], [-93.657874, 42.0436893], [-93.657886, 42.0417493], [-93.6567753, 42.0417515], [-93.6542342, 42.0417466], [-93.6539815, 42.0417461], [-93.6526922, 42.0417447], [-93.6494857, 42.0417413], [-93.6449959, 42.0417415], [-93.6448399, 42.0417415], [-93.6448513, 42.043796], [-93.6448531, 42.0438709], [-93.6448552, 42.0441003], [-93.6447831, 42.0448056], [-93.644793, 42.045312], [-93.6447936, 42.0453445], [-93.6447952, 42.0454271], [-93.6446559, 42.0454275], [-93.6446346, 42.0454278], [-93.6442122, 42.0454334], [-93.64381, 42.0454377], [-93.6422346, 42.0454467], [-93.6399424, 42.0454604], [-93.6399303, 42.0441854], [-93.6399077, 42.0417513], [-93.639902, 42.0411452], [-93.639892, 42.0400655], [-93.6398771, 42.0384705], [-93.6398741, 42.0381489], [-93.6398703, 42.0377423], [-93.6398646, 42.0375666], [-93.6398117, 42.0375592], [-93.6396639, 42.0374714], [-93.6395638, 42.0373836], [-93.639421, 42.0372495], [-93.6392103, 42.0370726], [-93.6389867, 42.0369001], [-93.6386963, 42.0367577], [-93.6384408, 42.0366973], [-93.6381419, 42.036733], [-93.6380451, 42.0367689], [-93.6379064, 42.0367977], [-93.6377629, 42.0368384], [-93.637608, 42.036818], [-93.6374693, 42.0367845], [-93.6373628, 42.0367485], [-93.637216, 42.0366946], [-93.6370789, 42.0366311], [-93.6370133, 42.0365904], [-93.6369425, 42.0365465], [-93.6369104, 42.0364905], [-93.6368863, 42.0364118], [-93.6368221, 42.0363319], [-93.6367322, 42.0361901], [-93.6365894, 42.0360292], [-93.6364399, 42.0358424], [-93.6363141, 42.0357241], [-93.6362137, 42.0356578], [-93.6360162, 42.0355301], [-93.6358501, 42.0353876], [-93.6357566, 42.0352355], [-93.6356084, 42.0351538], [-93.6354698, 42.035058], [-93.6353981, 42.0349539], [-93.6353233, 42.0348604], [-93.6352914, 42.0347385], [-93.6352309, 42.0346107], [-93.6353038, 42.0345257], [-93.6352956, 42.0344317], [-93.635155, 42.0339841], [-93.6350766, 42.0338038], [-93.6349895, 42.033578], [-93.6350369, 42.0332388], [-93.6349813, 42.0329122], [-93.6349956, 42.0327321], [-93.635119, 42.0326118], [-93.6351541, 42.0325095], [-93.6350833, 42.032425], [-93.6349751, 42.0323507], [-93.6349274, 42.0321546], [-93.6349581, 42.0317852], [-93.6349897, 42.0316531], [-93.6351037, 42.0316255], [-93.6352328, 42.0316433], [-93.6353286, 42.031637], [-93.6353671, 42.0316115], [-93.6353543, 42.0315822], [-93.6351678, 42.0315135], [-93.6350101, 42.031452], [-93.6349387, 42.0313869], [-93.6349374, 42.0313046], [-93.6349409, 42.0310391], [-93.6350396, 42.030658], [-93.635143, 42.0303619], [-93.6355235, 42.0294257], [-93.6355878, 42.0293255], [-93.6357991, 42.0289752], [-93.6354026, 42.0288351], [-93.6351527, 42.0287454], [-93.634749, 42.0285412], [-93.6345524, 42.0284325], [-93.6343841, 42.0283177], [-93.634172, 42.0281308], [-93.6340397, 42.0280503], [-93.6339215, 42.0279325], [-93.6338352, 42.0278174], [-93.6337575, 42.0277165], [-93.6336974, 42.0276208], [-93.6336602, 42.0275404], [-93.6336077, 42.0274094], [-93.6335469, 42.0272388], [-93.6335184, 42.0270328], [-93.6334512, 42.0268835], [-93.6334214, 42.026729], [-93.6334165, 42.0256565], [-93.6333865, 42.0251199], [-93.6334123, 42.0231462], [-93.6334146, 42.0229655], [-93.633415, 42.0229363], [-93.6334158, 42.0228711], [-93.633414, 42.0227674], [-93.6334119, 42.0226415], [-93.6334037, 42.0224746], [-93.6333986, 42.0223703], [-93.6333644, 42.0220675], [-93.6333222, 42.0218415], [-93.6332637, 42.0215755], [-93.6332001, 42.0213557], [-93.6330789, 42.0210175], [-93.633004, 42.0208262], [-93.6328589, 42.0204594], [-93.6327208, 42.0200926], [-93.6326076, 42.0197558], [-93.6325466, 42.0195524], [-93.6325198, 42.0194345], [-93.6324632, 42.0191533], [-93.6324393, 42.0189318], [-93.6324197, 42.0187088], [-93.6324037, 42.0180553], [-93.632398, 42.0178233], [-93.6323867, 42.0172563], [-93.6321873, 42.0172552], [-93.6317995, 42.0170934], [-93.6317962, 42.0167903], [-93.6321984, 42.0165699], [-93.6321942, 42.016429], [-93.6321918, 42.0163532], [-93.6321923, 42.0163405], [-93.6321918, 42.0162374], [-93.6317258, 42.0162431], [-93.6315214, 42.0162521], [-93.631291, 42.0162784], [-93.6311052, 42.0163118], [-93.630722, 42.0164392], [-93.630623, 42.016484], [-93.6303929, 42.016587], [-93.6302021, 42.0167317], [-93.6301004, 42.0168118], [-93.630011, 42.0168823], [-93.6296068, 42.0171846], [-93.6296019, 42.0167501], [-93.6296058, 42.0165647], [-93.6295983, 42.0157652], [-93.6295966, 42.0155774], [-93.6295911, 42.0155569], [-93.6295559, 42.0155209], [-93.6294115, 42.015488], [-93.6294023, 42.0146189], [-93.6273671, 42.0141807], [-93.6273526, 42.0128075], [-93.6273476, 42.0123401], [-93.6280472, 42.0105083], [-93.6280774, 42.0104351], [-93.6281518, 42.0102475], [-93.6263001, 42.0102836], [-93.6259244, 42.0102886], [-93.6263622, 42.0097736], [-93.6271974, 42.0088159], [-93.6272461, 42.0087596], [-93.6272886, 42.0087797], [-93.6274825, 42.0088698], [-93.6276782, 42.0089536], [-93.6278142, 42.0090037], [-93.6279669, 42.0090515], [-93.6281744, 42.0091026], [-93.6283156, 42.0091264], [-93.6284388, 42.0091425], [-93.6287056, 42.0091688], [-93.6296769, 42.0092352], [-93.6307588, 42.0093085], [-93.6310809, 42.009342], [-93.6313726, 42.0094061], [-93.6316504, 42.0094957], [-93.63187, 42.0095981], [-93.6320641, 42.0097043], [-93.6321478, 42.0097613], [-93.6323072, 42.0098722], [-93.6324988, 42.0100542], [-93.632577, 42.0101361], [-93.6327383, 42.0103178], [-93.633028, 42.010644], [-93.6333412, 42.0109875], [-93.6336865, 42.0113765], [-93.6337584, 42.0114575], [-93.6338516, 42.0114127], [-93.6338629, 42.0114078], [-93.6339958, 42.01135], [-93.6342664, 42.0112487], [-93.6351619, 42.0109688], [-93.6360612, 42.0106913], [-93.6368435, 42.0104436], [-93.6371391, 42.0103412], [-93.6374027, 42.0102254], [-93.6376461, 42.0101008], [-93.6378788, 42.0099621], [-93.6380525, 42.00984], [-93.6382723, 42.0096589], [-93.6384067, 42.0095506], [-93.6385961, 42.0093618], [-93.6387732, 42.0091677], [-93.6389247, 42.0089538], [-93.6390357, 42.0087731], [-93.6391252, 42.0085845], [-93.6392187, 42.0083655], [-93.6392865, 42.0084006], [-93.6393598, 42.008429], [-93.6394478, 42.0084493], [-93.6396753, 42.0084785], [-93.6397981, 42.0084927], [-93.6399401, 42.0084993], [-93.6401864, 42.008493], [-93.6404023, 42.0084886], [-93.6405939, 42.0085], [-93.6408259, 42.0085324], [-93.6408085, 42.0085806], [-93.6407722, 42.0086689], [-93.6406926, 42.0088108], [-93.6405656, 42.0089534], [-93.6405267, 42.0089918], [-93.6404125, 42.0091043], [-93.6401935, 42.0092857], [-93.639728, 42.0096331], [-93.6395887, 42.0097366], [-93.6395421, 42.0097839], [-93.6395255, 42.0098008], [-93.6394714, 42.0098707], [-93.6394287, 42.0099407], [-93.6394057, 42.0100193], [-93.6393974, 42.0101692], [-93.6394016, 42.0109346], [-93.6393999, 42.0120128], [-93.6394057, 42.0125604], [-93.6394024, 42.0136639], [-93.6394055, 42.0148615], [-93.6394096, 42.0161484], [-93.6394099, 42.0162244], [-93.6394214, 42.0171809], [-93.6394217, 42.017204], [-93.6394264, 42.0176006], [-93.639429, 42.0178156], [-93.6394329, 42.0181483], [-93.6394609, 42.0191292], [-93.6394591, 42.0193985], [-93.6394635, 42.0196077], [-93.6394646, 42.0197258], [-93.6394648, 42.019744], [-93.6394683, 42.0201239], [-93.639473, 42.0206286], [-93.6394789, 42.0212568], [-93.6394804, 42.0214176], [-93.6394859, 42.022008], [-93.6394871, 42.0221357], [-93.6394883, 42.022264], [-93.6394914, 42.0226002], [-93.639492, 42.0226663]], [[-93.6523653, 42.0317562], [-93.6517828, 42.031748], [-93.6518058, 42.0308438], [-93.6523884, 42.030852], [-93.6523653, 42.0317562]], [[-93.6490837, 42.0298284], [-93.6489553, 42.0298283], [-93.6488673, 42.0298282], [-93.6486885, 42.0298282], [-93.648357, 42.029828], [-93.6480175, 42.0298278], [-93.6480172, 42.0301221], [-93.6474365, 42.0301217], [-93.6474063, 42.0301217], [-93.6473107, 42.0301217], [-93.6472898, 42.0301217], [-93.6469113, 42.0301214], [-93.6469109, 42.0304603], [-93.6475991, 42.0304608], [-93.6475981, 42.0312665], [-93.6479906, 42.0312668], [-93.6479904, 42.0314058], [-93.6490822, 42.0314064], [-93.6490837, 42.0298284]]], [[[-93.6499688, 42.0161462], [-93.6500694, 42.0161463], [-93.6501619, 42.0161464], [-93.6503313, 42.0161466], [-93.6508897, 42.0161471], [-93.6515957, 42.0161477], [-93.6517176, 42.0161478], [-93.6517118, 42.0157147], [-93.6517134, 42.0155077], [-93.6523895, 42.0155032], [-93.6524061, 42.0160355], [-93.6524058, 42.016177], [-93.6525179, 42.016323], [-93.6524692, 42.0183123], [-93.6524852, 42.0188965], [-93.6524854, 42.0190805], [-93.6542796, 42.0190786], [-93.6542973, 42.0207844], [-93.654398, 42.0207836], [-93.6547981, 42.0207834], [-93.6550354, 42.0206061], [-93.6554509, 42.0206076], [-93.6554544, 42.0204152], [-93.6567116, 42.0204185], [-93.6567141, 42.0208856], [-93.6589873, 42.0208829], [-93.6590481, 42.0208703], [-93.6590739, 42.0208485], [-93.6590791, 42.0208163], [-93.6590129, 42.018691], [-93.659425, 42.0186876], [-93.6614793, 42.0186481], [-93.6615075, 42.0177684], [-93.661509, 42.0174758], [-93.6616325, 42.017462], [-93.661654, 42.0173588], [-93.6647728, 42.0173959], [-93.6647387, 42.0138197], [-93.666359, 42.013834], [-93.6663292, 42.0120872], [-93.6663292, 42.0120716], [-93.666329, 42.0120074], [-93.6663289, 42.0119709], [-93.6663776, 42.0119717], [-93.6688463, 42.0120108], [-93.6688449, 42.0119494], [-93.6687644, 42.0084548], [-93.6687625, 42.0083724], [-93.6687358, 42.0072152], [-93.6686418, 42.0070398], [-93.668607, 42.006975], [-93.6686036, 42.0067123], [-93.66853, 42.001053], [-93.6589559, 42.0011421], [-93.6589566, 42.0011738], [-93.6589844, 42.0022365], [-93.6589875, 42.0023575], [-93.660407, 42.002369], [-93.6604, 42.003048], [-93.660757, 42.003052], [-93.660735, 42.002542], [-93.661698, 42.002546], [-93.6617297, 42.0035337], [-93.661745, 42.004005], [-93.6592248, 42.0039962], [-93.659168, 42.003996], [-93.6589702, 42.0039903], [-93.658892, 42.003988], [-93.658669, 42.004005], [-93.658671, 42.003567], [-93.655324, 42.003608], [-93.655291, 42.006225], [-93.6553025, 42.0072666], [-93.6538125, 42.0072511], [-93.6528152, 42.007185], [-93.6522628, 42.0071484], [-93.6509663, 42.0068436], [-93.649501, 42.006264], [-93.6493608, 42.0088513], [-93.6493334, 42.0093573], [-93.6493277, 42.0096891], [-93.6493253, 42.0098291], [-93.6493225, 42.0099921], [-93.6493369, 42.0103662], [-93.649349, 42.0109133], [-93.6493532, 42.0111797], [-93.6493516, 42.011268], [-93.6493515, 42.0117427], [-93.6493515, 42.0118628], [-93.6491306, 42.0118619], [-93.6489647, 42.0118884], [-93.6487707, 42.0119058], [-93.6484828, 42.0119115], [-93.648254, 42.0118963], [-93.6480098, 42.0118638], [-93.6477116, 42.0118122], [-93.6474064, 42.0117289], [-93.6472112, 42.0116557], [-93.6469271, 42.011525], [-93.6467909, 42.0114497], [-93.6466911, 42.0113945], [-93.6466551, 42.0114218], [-93.6466245, 42.0114455], [-93.6465115, 42.0115329], [-93.6463696, 42.01164], [-93.6462195, 42.0117312], [-93.6461063, 42.0117776], [-93.6459552, 42.011817], [-93.6458521, 42.0118412], [-93.6456983, 42.0118554], [-93.6451143, 42.011861], [-93.6450544, 42.0118631], [-93.6449808, 42.0118729], [-93.6449068, 42.0118916], [-93.6448415, 42.0119084], [-93.6447199, 42.011949], [-93.6446211, 42.0120009], [-93.6445438, 42.0120581], [-93.644481, 42.0121152], [-93.6443959, 42.0122044], [-93.644349, 42.0122694], [-93.6443133, 42.0123352], [-93.6442807, 42.0124108], [-93.6442739, 42.0124669], [-93.6442765, 42.012632], [-93.6442778, 42.0127131], [-93.6442886, 42.0140764], [-93.6442888, 42.0140999], [-93.6443235, 42.0154764], [-93.6491899, 42.0154834], [-93.6491885, 42.0160819], [-93.6491884, 42.0161367], [-93.6494041, 42.0161368], [-93.6499688, 42.0161462]]]]}}