{"type": "Feature", "properties": {"market_key": 667, "university": "Wake Forest University", "osm_type": "way", "osm_id": 31270748, "osm_name": "Wake Forest University"}, "geometry": {"type": "Polygon", "coordinates": [[[-80.2832685, 36.138807], [-80.2812789, 36.1389497], [-80.2794278, 36.1390323], [-80.2781718, 36.1390884], [-80.2754595, 36.1397815], [-80.2723954, 36.1375218], [-80.2715113, 36.1370089], [-80.2682498, 36.1343331], [-80.2668078, 36.1334528], [-80.2658208, 36.133127], [-80.2656973, 36.1327886], [-80.2668074, 36.1320401], [-80.2677309, 36.1312029], [-80.2686464, 36.129975], [-80.268969, 36.1298244], [-80.2709345, 36.1298455], [-80.2710454, 36.1296257], [-80.2728084, 36.1295448], [-80.2730922, 36.1292253], [-80.2733883, 36.1290535], [-80.2735476, 36.1290359], [-80.273654, 36.1289355], [-80.2737563, 36.1287661], [-80.2740667, 36.1284634], [-80.2747798, 36.1280693], [-80.2749627, 36.1279562], [-80.2751004, 36.1276707], [-80.2755636, 36.1274471], [-80.2757556, 36.1272832], [-80.2776862, 36.1274379], [-80.2788707, 36.1275766], [-80.2795107, 36.1278861], [-80.2799656, 36.1283229], [-80.2818318, 36.129282], [-80.2830764, 36.1302664], [-80.2838059, 36.1313062], [-80.2837954, 36.1323217], [-80.2832927, 36.1361079], [-80.2833633, 36.1363819], [-80.2832685, 36.138807]]]}}