{"type": "Feature", "properties": {"market_key": 682, "university": "Louisiana Tech University", "osm_type": "relation", "osm_id": 13853332, "osm_name": "Louisiana Tech University"}, "geometry": {"type": "MultiPolygon", "coordinates": [[[[-92.6521927, 32.5310367], [-92.6523773, 32.5310015], [-92.6526127, 32.5309417], [-92.6529024, 32.53084], [-92.6532727, 32.5307082], [-92.6534429, 32.530658], [-92.6536064, 32.5306208], [-92.6537774, 32.5305904], [-92.6539634, 32.5305707], [-92.6541254, 32.5305604], [-92.654284, 32.5305594], [-92.6544872, 32.530569], [-92.6546894, 32.5305888], [-92.6557592, 32.5306824], [-92.6572929, 32.53083], [-92.6577115, 32.5308764], [-92.6580105, 32.5309327], [-92.6582321, 32.5310157], [-92.6584234, 32.5310985], [-92.6586393, 32.5312363], [-92.6601487, 32.5323377], [-92.6603884, 32.5325163], [-92.660616, 32.5326749], [-92.6608159, 32.5328143], [-92.6607866, 32.5352156], [-92.6607439, 32.5354906], [-92.6606229, 32.5362696], [-92.6605029, 32.5362783], [-92.6604038, 32.5362815], [-92.6564153, 32.5364093], [-92.6558513, 32.5364274], [-92.6558375, 32.5345314], [-92.6540354, 32.5345048], [-92.6539866, 32.5341728], [-92.6531224, 32.5341672], [-92.6522799, 32.5341662], [-92.6522626, 32.5340502], [-92.6522394, 32.533936], [-92.6522202, 32.5338219], [-92.6521903, 32.5336102], [-92.6521656, 32.5334572], [-92.6521388, 32.5331727], [-92.652115, 32.5329811], [-92.6520973, 32.532786], [-92.6520725, 32.5323975], [-92.6520598, 32.5320731], [-92.6520516, 32.531552], [-92.6520603, 32.5313471], [-92.6520722, 32.5311603], [-92.6520728, 32.5311366], [-92.652087, 32.5311089], [-92.6521065, 32.5310831], [-92.6521456, 32.5310541], [-92.6521927, 32.5310367]]], [[[-92.6521511, 32.5293292], [-92.6563455, 32.5295807], [-92.65634, 32.5296392], [-92.6562635, 32.5304479], [-92.6562485, 32.5306067], [-92.6547173, 32.530453], [-92.6544335, 32.5304254], [-92.6541583, 32.5304242], [-92.6538714, 32.5304442], [-92.6536187, 32.5304833], [-92.6533272, 32.5305515], [-92.6530429, 32.5306413], [-92.6526456, 32.5307901], [-92.6524877, 32.5308381], [-92.6522515, 32.5308941], [-92.6521801, 32.5309], [-92.6521318, 32.5308885], [-92.6521014, 32.5308595], [-92.6520854, 32.5308342], [-92.6520812, 32.5307938], [-92.652084, 32.5307406], [-92.6521511, 32.5293292]]], [[[-92.651907, 32.5311503], [-92.6518987, 32.5311302], [-92.6518875, 32.5311157], [-92.6518688, 32.5311065], [-92.6518378, 32.5310991], [-92.6517585, 32.5311007], [-92.6497794, 32.5311017], [-92.649722, 32.5311058], [-92.6496944, 32.5311206], [-92.6496792, 32.5311523], [-92.64968, 32.5313056], [-92.6496794, 32.5327225], [-92.6496786, 32.5329033], [-92.6496745, 32.5330563], [-92.6496664, 32.5331389], [-92.6496733, 32.5331905], [-92.6496902, 32.5332214], [-92.6497265, 32.5332544], [-92.6516246, 32.534493], [-92.6517457, 32.5345557], [-92.6518549, 32.5345876], [-92.6519833, 32.534595], [-92.6520834, 32.5345797], [-92.6521383, 32.534549], [-92.6521741, 32.5345059], [-92.65219, 32.5344639], [-92.65204, 32.5335614], [-92.6519835, 32.5331141], [-92.6519394, 32.5326511], [-92.6519077, 32.5318877], [-92.651907, 32.5311503]]], [[[-92.6520966, 32.5289562], [-92.6530885, 32.5289883], [-92.6532668, 32.5290005], [-92.6533376, 32.5290053], [-92.6535884, 32.5290177], [-92.6538476, 32.5290009], [-92.6541227, 32.5289691], [-92.6544034, 32.528933], [-92.6545357, 32.5289051], [-92.6546179, 32.5288796], [-92.6547018, 32.528845], [-92.6547826, 32.5287959], [-92.6548435, 32.5287231], [-92.654884, 32.5286301], [-92.6549048, 32.5285295], [-92.6549145, 32.5284314], [-92.6549154, 32.5283289], [-92.6549063, 32.5281072], [-92.6548818, 32.5276654], [-92.654875, 32.5275663], [-92.654827, 32.5273454], [-92.6547967, 32.5272779], [-92.6547603, 32.5272105], [-92.6546434, 32.5270091], [-92.6545667, 32.526828], [-92.6545424, 32.5267144], [-92.654509, 32.5264676], [-92.6544898, 32.5261967], [-92.6545024, 32.5260154], [-92.654492, 32.5259013], [-92.6544807, 32.5258719], [-92.654461, 32.5258442], [-92.6544389, 32.5258216], [-92.6544101, 32.5258101], [-92.6543682, 32.5258067], [-92.6522497, 32.5258566], [-92.6520107, 32.52586], [-92.6520094, 32.5258325], [-92.6520798, 32.5248085], [-92.6520858, 32.5245858], [-92.6520951, 32.5242006], [-92.652125, 32.5232766], [-92.6521222, 32.5232607], [-92.652114, 32.5232455], [-92.6521001, 32.5232303], [-92.6520781, 32.5232182], [-92.6520618, 32.5232142], [-92.6520026, 32.5232072], [-92.6511575, 32.5232095], [-92.651145, 32.5232111], [-92.651132, 32.5232152], [-92.6511225, 32.5232231], [-92.6511195, 32.5232291], [-92.6511181, 32.5232351], [-92.6511132, 32.5234024], [-92.6516281, 32.5234067], [-92.6516264, 32.5241032], [-92.6516263, 32.5241607], [-92.6504321, 32.5241376], [-92.6501079, 32.5241347], [-92.6499804, 32.5241317], [-92.6499745, 32.5237574], [-92.6499738, 32.523718], [-92.6495417, 32.5237476], [-92.6493269, 32.5235044], [-92.6492947, 32.5234732], [-92.6490814, 32.5236194], [-92.648958, 32.5236906], [-92.6488337, 32.5237507], [-92.6488348, 32.5237883], [-92.6488446, 32.5241304], [-92.6488602, 32.5241742], [-92.6488577, 32.5241836], [-92.6481274, 32.5241619], [-92.648043, 32.5241611], [-92.6479564, 32.5241602], [-92.6479565, 32.5241173], [-92.6479484, 32.5240889], [-92.647941, 32.5240723], [-92.6479307, 32.5240605], [-92.6475953, 32.5240975], [-92.6474496, 32.5241047], [-92.6473343, 32.5241024], [-92.6467201, 32.5240648], [-92.6443949, 32.5240291], [-92.6442411, 32.5240217], [-92.64421, 32.5240204], [-92.6432586, 32.5239803], [-92.6432277, 32.523979], [-92.6431312, 32.5239749], [-92.6425765, 32.5247839], [-92.6425679, 32.524798], [-92.6423052, 32.525233], [-92.6419536, 32.5257911], [-92.6418844, 32.5258967], [-92.6416515, 32.5262522], [-92.6415456, 32.5262486], [-92.6415669, 32.5258818], [-92.6415658, 32.5257706], [-92.6415819, 32.5255335], [-92.6415985, 32.5253121], [-92.64118, 32.5252886], [-92.6411615, 32.5254979], [-92.6411491, 32.5256713], [-92.641076, 32.526714], [-92.6410797, 32.5267472], [-92.6410918, 32.5267629], [-92.6411179, 32.526775], [-92.6411578, 32.5267765], [-92.6420992, 32.5268199], [-92.6421004, 32.526889], [-92.6421068, 32.5272705], [-92.6420737, 32.5276845], [-92.6439334, 32.5277795], [-92.6441797, 32.5277964], [-92.6451198, 32.5278339], [-92.6451052, 32.5281424], [-92.6451066, 32.5283059], [-92.6451041, 32.5284713], [-92.6451057, 32.528499], [-92.6451109, 32.5285256], [-92.6451187, 32.528547], [-92.6451326, 32.5285663], [-92.6451523, 32.528583], [-92.6451732, 32.5285925], [-92.6452016, 32.5285994], [-92.6452281, 32.5286027], [-92.6466362, 32.5286655], [-92.6520966, 32.5289562]]], [[[-92.6496115, 32.5315727], [-92.6495007, 32.5315677], [-92.6491895, 32.5315628], [-92.6491869, 32.5318218], [-92.649604, 32.5318336], [-92.6496115, 32.5315727]]], [[[-92.6541255, 32.5193446], [-92.654072, 32.5193539], [-92.6540105, 32.5193496], [-92.6539083, 32.5193289], [-92.6537055, 32.5192791], [-92.6527228, 32.5190218], [-92.6525405, 32.5189679], [-92.6523677, 32.5189126], [-92.6520513, 32.5187953], [-92.6519385, 32.5187582], [-92.6518841, 32.5188052], [-92.6518265, 32.518855], [-92.6504757, 32.5199572], [-92.6500873, 32.5202751], [-92.6501201, 32.5202195], [-92.6501349, 32.5201698], [-92.650144, 32.5201153], [-92.6501507, 32.5200143], [-92.6501583, 32.5197962], [-92.65018, 32.5191027], [-92.6501576, 32.5183938], [-92.6501536, 32.5182434], [-92.6501515, 32.5179561], [-92.6502084, 32.5165729], [-92.6522614, 32.5165279], [-92.6522777, 32.5146404], [-92.6522807, 32.5142987], [-92.6503273, 32.5142264], [-92.6502774, 32.5111051], [-92.6456343, 32.5110368], [-92.645958, 32.5085572], [-92.6464436, 32.5043993], [-92.6466096, 32.5025865], [-92.6469767, 32.50136], [-92.6492915, 32.4966114], [-92.6518842, 32.4966033], [-92.6561173, 32.4965706], [-92.6561984, 32.4965893], [-92.6562566, 32.4966375], [-92.6562905, 32.4966803], [-92.6563122, 32.4967321], [-92.6563225, 32.4967987], [-92.6563236, 32.4968652], [-92.65632, 32.4974773], [-92.6563033, 32.5000041], [-92.656301, 32.5036096], [-92.6562919, 32.5055604], [-92.6562656, 32.5065161], [-92.6561999, 32.5071881], [-92.6561895, 32.50741], [-92.6562063, 32.5077402], [-92.6562809, 32.5084775], [-92.6563202, 32.5093146], [-92.6563491, 32.510136], [-92.656363, 32.5112437], [-92.6563645, 32.511884], [-92.6563764, 32.5133765], [-92.6563783, 32.5148253], [-92.6563763, 32.5154839], [-92.6563552, 32.5163765], [-92.6563435, 32.5175233], [-92.6563354, 32.5178467], [-92.6563542, 32.5178543], [-92.656365, 32.5178647], [-92.6563525, 32.5178808], [-92.6558069, 32.5181785], [-92.6555345, 32.5183233], [-92.655161, 32.5185596], [-92.6549011, 32.5187498], [-92.6547459, 32.5188727], [-92.6545976, 32.5189967], [-92.6543799, 32.5191963], [-92.6542873, 32.5192847], [-92.6542529, 32.5193018], [-92.6542064, 32.5193249], [-92.6541255, 32.5193446]]], [[[-92.6462209, 32.5299201], [-92.6461836, 32.5305048], [-92.6461832, 32.5305632], [-92.6462922, 32.5305632], [-92.6463237, 32.5305638], [-92.6472603, 32.530612], [-92.6472545, 32.5306406], [-92.6472466, 32.5307257], [-92.6472396, 32.5307678], [-92.6472326, 32.5308078], [-92.6472228, 32.5308373], [-92.6472119, 32.5308512], [-92.6471909, 32.5308574], [-92.6471465, 32.5308581], [-92.6469745, 32.5308432], [-92.6460508, 32.5307592], [-92.6448474, 32.5307036], [-92.6446859, 32.5306961], [-92.6446865, 32.5306863], [-92.6447354, 32.5299192], [-92.6456945, 32.5299769], [-92.6457077, 32.5298287], [-92.6457203, 32.529688], [-92.6457759, 32.5290641], [-92.6463923, 32.5290864], [-92.6492767, 32.529191], [-92.6494285, 32.5291965], [-92.6517134, 32.5293019], [-92.6520072, 32.5293137], [-92.6519266, 32.5308432], [-92.6519231, 32.5308651], [-92.6519145, 32.5308856], [-92.6518998, 32.5309061], [-92.6518799, 32.5309222], [-92.6518535, 32.5309397], [-92.6518236, 32.5309499], [-92.6517903, 32.5309536], [-92.65175, 32.5309559], [-92.6515423, 32.5309605], [-92.6498163, 32.530968], [-92.6497324, 32.5309691], [-92.6496846, 32.5309709], [-92.6496669, 32.5309692], [-92.6496529, 32.5309621], [-92.6496499, 32.5309584], [-92.6496445, 32.5309515], [-92.6496385, 32.530939], [-92.6496331, 32.5308977], [-92.6496058, 32.5303784], [-92.6496038, 32.530324], [-92.6495822, 32.5302074], [-92.6495805, 32.5301677], [-92.6495751, 32.5297719], [-92.6495738, 32.5296799], [-92.6495735, 32.5296526], [-92.6495723, 32.529569], [-92.6495713, 32.529493], [-92.6495455, 32.5294547], [-92.6495024, 32.5294423], [-92.6491019, 32.5294301], [-92.6490992, 32.5298361], [-92.6490444, 32.5298358], [-92.6489581, 32.5298319], [-92.6483057, 32.5298022], [-92.6481354, 32.5299073], [-92.6480791, 32.5300869], [-92.6479963, 32.5300608], [-92.6477136, 32.5299953], [-92.6475566, 32.5299869], [-92.6473817, 32.5299786], [-92.6473274, 32.5299742], [-92.6472643, 32.5299698], [-92.6470154, 32.5299613], [-92.646365, 32.5299295], [-92.6462209, 32.5299201]]]]}}