{"type": "Feature", "properties": {"market_key": 69, "university": "Texas State University", "osm_type": "relation", "osm_id": 14615874, "osm_name": "Texas State University"}, "geometry": {"type": "MultiPolygon", "coordinates": [[[[-97.9329908, 29.8890177], [-97.933173, 29.8897307], [-97.9328844, 29.8897968], [-97.9327129, 29.8898725], [-97.9325694, 29.8899327], [-97.9324815, 29.8899691], [-97.9323825, 29.890009], [-97.9319251, 29.8897102], [-97.9318518, 29.8896702], [-97.9309012, 29.890131], [-97.9300649, 29.8906143], [-97.9291492, 29.8910576], [-97.9268832, 29.892204], [-97.9268713, 29.8922241], [-97.9266398, 29.8924062], [-97.9240148, 29.8947513], [-97.9240279, 29.8948291], [-97.9242183, 29.8949541], [-97.9247061, 29.8952728], [-97.9270979, 29.8968132], [-97.9288659, 29.8978188], [-97.9317929, 29.8958055], [-97.930874, 29.8956475], [-97.9303697, 29.8955359], [-97.9301886, 29.8954802], [-97.9302946, 29.8952475], [-97.9304233, 29.8950243], [-97.930595, 29.8948104], [-97.9310282, 29.8945918], [-97.9313009, 29.894422], [-97.9318901, 29.8938506], [-97.932295, 29.8936849], [-97.9323285, 29.8936468], [-97.9325071, 29.8932961], [-97.9328053, 29.8928851], [-97.9329909, 29.8926974], [-97.9331914, 29.89253], [-97.9335672, 29.8923072], [-97.9336653, 29.8922143], [-97.933737, 29.8920876], [-97.9337776, 29.8919177], [-97.9338647, 29.8915836], [-97.9339906, 29.8913544], [-97.9342181, 29.8911276], [-97.9352325, 29.8919284], [-97.9356124, 29.8920204], [-97.9358974, 29.8919657], [-97.9362882, 29.8917013], [-97.9364107, 29.8916725], [-97.9365276, 29.8917385], [-97.9368486, 29.892218], [-97.9378778, 29.8927911], [-97.9381621, 29.8925761], [-97.9385191, 29.8929155], [-97.9387916, 29.8930106], [-97.9391507, 29.8933345], [-97.9394306, 29.8935222], [-97.9397299, 29.8937583], [-97.939818, 29.8937501], [-97.9398974, 29.8937042], [-97.9400243, 29.893605], [-97.9397378, 29.8932653], [-97.9391034, 29.8923382], [-97.9386172, 29.8919001], [-97.9388574, 29.8915778], [-97.9391671, 29.8914802], [-97.9393625, 29.8915121], [-97.9395909, 29.8914993], [-97.9397055, 29.8914605], [-97.939994, 29.891306], [-97.9402626, 29.891222], [-97.9404615, 29.8912214], [-97.9411696, 29.8913094], [-97.9412219, 29.8913022], [-97.9414829, 29.8913436], [-97.9417945, 29.8914422], [-97.9419518, 29.8915167], [-97.9425235, 29.8918344], [-97.9428686, 29.8920085], [-97.9431762, 29.8920966], [-97.9435563, 29.8921808], [-97.9439241, 29.8922308], [-97.944201, 29.892252], [-97.9444926, 29.8922425], [-97.9447022, 29.8922138], [-97.9449379, 29.8921597], [-97.945217, 29.8920566], [-97.9454005, 29.8919505], [-97.9455714, 29.8918189], [-97.9456673, 29.8917416], [-97.9458752, 29.8915606], [-97.946071, 29.891306], [-97.9460934, 29.8912548], [-97.9460613, 29.8911461], [-97.9461202, 29.8911193], [-97.946366, 29.8908984], [-97.9464951, 29.8908179], [-97.9467542, 29.8906135], [-97.9474962, 29.8902653], [-97.947753, 29.8901717], [-97.947801, 29.8901955], [-97.9479304, 29.8901638], [-97.9480887, 29.8901399], [-97.9484064, 29.8901026], [-97.9485326, 29.8900754], [-97.9486157, 29.8900531], [-97.9487193, 29.8900097], [-97.9488176, 29.8899557], [-97.9488784, 29.8899153], [-97.9489385, 29.8898738], [-97.9494412, 29.8894417], [-97.9496676, 29.8892501], [-97.9497254, 29.8892034], [-97.9497869, 29.889163], [-97.9498446, 29.8891341], [-97.9499023, 29.8891094], [-97.9499586, 29.8890907], [-97.9500161, 29.8890783], [-97.9500563, 29.8890709], [-97.9500978, 29.8890687], [-97.9502022, 29.8890708], [-97.9503788, 29.8890911], [-97.9504665, 29.8891105], [-97.9505461, 29.8891509], [-97.9506314, 29.8892121], [-97.9508208, 29.8893772], [-97.9510163, 29.8895488], [-97.9513067, 29.8898038], [-97.9514059, 29.8898909], [-97.9516477, 29.8901018], [-97.9519726, 29.8903817], [-97.9521572, 29.8905429], [-97.952357, 29.8907131], [-97.9527101, 29.8910212], [-97.9535113, 29.8917201], [-97.953553, 29.8917503], [-97.9535872, 29.8917626], [-97.9536226, 29.8917676], [-97.9536678, 29.8917633], [-97.9537152, 29.8917406], [-97.9540854, 29.8914182], [-97.9547016, 29.8908748], [-97.9554426, 29.8902266], [-97.9554559, 29.8902133], [-97.955464, 29.8901978], [-97.955469, 29.8901851], [-97.9554713, 29.8901701], [-97.9554702, 29.8901578], [-97.9554653, 29.8901433], [-97.9554591, 29.8901298], [-97.955449, 29.8901175], [-97.9553455, 29.8900165], [-97.955245, 29.8899103], [-97.9551674, 29.8898258], [-97.9550936, 29.8897377], [-97.9550268, 29.8896498], [-97.9549554, 29.8895561], [-97.9548734, 29.8894248], [-97.9547702, 29.889234], [-97.9546685, 29.8890106], [-97.9545947, 29.8888433], [-97.9545286, 29.8886743], [-97.9544053, 29.8883954], [-97.9543558, 29.8882847], [-97.9542817, 29.8881456], [-97.9542044, 29.8880101], [-97.9541387, 29.8879019], [-97.9539345, 29.8875965], [-97.9537859, 29.8873718], [-97.9535689, 29.887052], [-97.9533448, 29.8867302], [-97.9532814, 29.8866439], [-97.9532057, 29.8865405], [-97.9531358, 29.8864572], [-97.9530622, 29.8863738], [-97.9529975, 29.88631], [-97.952931, 29.8862494], [-97.952852, 29.8861854], [-97.9528016, 29.8861515], [-97.9527451, 29.8861132], [-97.9526854, 29.8860755], [-97.9523362, 29.8859048], [-97.9521813, 29.8858282], [-97.9520578, 29.8857501], [-97.9519709, 29.8856835], [-97.9518964, 29.88562], [-97.9517787, 29.8855161], [-97.9516464, 29.8854022], [-97.9515714, 29.8853379], [-97.9515249, 29.8853061], [-97.9514606, 29.8852754], [-97.9513877, 29.885256], [-97.9512792, 29.8852442], [-97.9508019, 29.8852441], [-97.9507643, 29.8852441], [-97.9507318, 29.885244], [-97.9505758, 29.885244], [-97.9504203, 29.8852443], [-97.9503868, 29.8852439], [-97.9503504, 29.8852439], [-97.9497348, 29.8852435], [-97.9495327, 29.885205], [-97.9494713, 29.8851829], [-97.9494156, 29.8851417], [-97.949339, 29.8850791], [-97.9492219, 29.8849801], [-97.9490888, 29.8848677], [-97.948947, 29.8847479], [-97.9485455, 29.8844086], [-97.9485385, 29.8844057], [-97.9485144, 29.8843957], [-97.9484831, 29.8843997], [-97.948104, 29.8847287], [-97.9479685, 29.8848463], [-97.9479437, 29.8848678], [-97.9478759, 29.8849266], [-97.947554, 29.885206], [-97.9479784, 29.8855927], [-97.9480297, 29.8856528], [-97.94769, 29.8858479], [-97.9476033, 29.8857698], [-97.9475323, 29.8857117], [-97.9473856, 29.8855979], [-97.9472373, 29.8854897], [-97.947087, 29.8856357], [-97.947056, 29.8856736], [-97.9469269, 29.8857999], [-97.9468667, 29.8858369], [-97.9468076, 29.8858725], [-97.9467517, 29.8859015], [-97.9466681, 29.8859244], [-97.9465743, 29.8859447], [-97.9463027, 29.8860026], [-97.9460735, 29.8860581], [-97.9457674, 29.8861302], [-97.944483, 29.8863668], [-97.943273, 29.8865371], [-97.9432587, 29.8864413], [-97.9431368, 29.8857916], [-97.9426116, 29.8858548], [-97.9424536, 29.8858755], [-97.9420699, 29.8859251], [-97.9420495, 29.8859277], [-97.9420082, 29.8859717], [-97.9420149, 29.8860096], [-97.9420583, 29.8862577], [-97.942083, 29.886408], [-97.940664, 29.8865875], [-97.9406406, 29.8864463], [-97.9404935, 29.8855582], [-97.9404876, 29.8855469], [-97.9404803, 29.8855379], [-97.9404732, 29.8855347], [-97.9404656, 29.885533], [-97.9404511, 29.8855325], [-97.9404373, 29.8855344], [-97.9404008, 29.8855392], [-97.9380006, 29.8858534], [-97.9377811, 29.8859115], [-97.9371029, 29.8860063], [-97.9369829, 29.886052], [-97.9365563, 29.8860569], [-97.936568, 29.8859066], [-97.9365093, 29.8858589], [-97.936519, 29.8857148], [-97.9364316, 29.8851769], [-97.9363722, 29.8851834], [-97.9363625, 29.8851017], [-97.9362152, 29.8851221], [-97.9359018, 29.8851659], [-97.9359165, 29.885631], [-97.935933, 29.8860113], [-97.9359475, 29.8863443], [-97.9360399, 29.8867], [-97.9360426, 29.8868255], [-97.9359857, 29.8870014], [-97.935891, 29.8871555], [-97.9357395, 29.8873095], [-97.9354681, 29.887524], [-97.9352535, 29.8875845], [-97.9350704, 29.8875736], [-97.9348542, 29.88755], [-97.9346916, 29.8875405], [-97.9344899, 29.8875569], [-97.9341169, 29.8875682], [-97.9340883, 29.887399], [-97.9327053, 29.8862319], [-97.930525, 29.8883183], [-97.9285938, 29.8866347], [-97.9266993, 29.8883535], [-97.9252809, 29.8896728], [-97.9249995, 29.8898382], [-97.9231633, 29.8914492], [-97.9217127, 29.8902187], [-97.9228635, 29.8892582], [-97.922377, 29.888817], [-97.9215184, 29.8895452], [-97.9220132, 29.8899516], [-97.9218407, 29.8900966], [-97.9211941, 29.8895558], [-97.9214438, 29.8893164], [-97.9206911, 29.8886864], [-97.9194005, 29.8875839], [-97.9192556, 29.8877296], [-97.918718, 29.8872756], [-97.9182168, 29.8878036], [-97.9179257, 29.8881506], [-97.9184327, 29.8885506], [-97.9189355, 29.8880239], [-97.9211312, 29.8898365], [-97.9205018, 29.8903874], [-97.9210171, 29.8908106], [-97.9209695, 29.8908541], [-97.9224393, 29.8920821], [-97.9226506, 29.8923284], [-97.9226731, 29.8926788], [-97.9220128, 29.8927186], [-97.9216416, 29.8927049], [-97.9216179, 29.8927124], [-97.9215975, 29.8927241], [-97.921579, 29.8927374], [-97.9215589, 29.8927536], [-97.9214859, 29.8928183], [-97.9213381, 29.89295], [-97.9210439, 29.8932098], [-97.920751, 29.8934724], [-97.9204346, 29.893753], [-97.9194597, 29.8946129], [-97.9194762, 29.8946269], [-97.9215606, 29.8963858], [-97.9221903, 29.8958344], [-97.9222022, 29.8958235], [-97.9222205, 29.8958067], [-97.9222404, 29.8957886], [-97.9254309, 29.8928638], [-97.9256635, 29.8926474], [-97.9258044, 29.8927498], [-97.9258742, 29.8927178], [-97.9258997, 29.89273], [-97.9269459, 29.8917338], [-97.9271581, 29.8915582], [-97.9298128, 29.8902457], [-97.9308523, 29.8898652], [-97.9313154, 29.8896498], [-97.9314528, 29.8895503], [-97.9316746, 29.8894582], [-97.9317828, 29.8894434], [-97.9323331, 29.8891847], [-97.9325238, 29.8891107], [-97.9327082, 29.8890652], [-97.9328278, 29.8890428], [-97.9329908, 29.8890177]]], [[[-97.9461734, 29.8827417], [-97.9458939, 29.8829853], [-97.9459169, 29.88315], [-97.9457402, 29.8831711], [-97.945731, 29.8831287], [-97.945721, 29.8831214], [-97.9457096, 29.8831219], [-97.9456183, 29.8826659], [-97.9456332, 29.8826319], [-97.9456626, 29.8826], [-97.9457394, 29.8825641], [-97.945855, 29.8824853], [-97.9461734, 29.8827417]]], [[[-97.9414408, 29.8836886], [-97.9409534, 29.8837441], [-97.9409792, 29.8839206], [-97.9414719, 29.883858], [-97.9414408, 29.8836886]]], [[[-97.9800352, 29.8463462], [-97.9799944, 29.8463288], [-97.9768377, 29.843559], [-97.9835763, 29.838069], [-97.9854672, 29.8395678], [-97.9857651, 29.8396805], [-97.9859714, 29.83976], [-97.9861547, 29.839919], [-97.9862273, 29.840078], [-97.9863113, 29.8403166], [-97.986348, 29.8403867], [-97.9863386, 29.840413], [-97.9833992, 29.8426464], [-97.9830898, 29.8428811], [-97.9828067, 29.8431122], [-97.9825298, 29.8433715], [-97.9823459, 29.84356], [-97.9819884, 29.8439862], [-97.9810155, 29.845256], [-97.9801267, 29.84633], [-97.9800886, 29.8463453], [-97.9800352, 29.8463462]]], [[[-97.9201409, 29.8913652], [-97.9201385, 29.8913487], [-97.9197661, 29.8910399], [-97.9195636, 29.8912247], [-97.9199481, 29.8915458], [-97.920136, 29.8913767], [-97.9201409, 29.8913652]]], [[[-97.906839, 29.9074778], [-97.9057349, 29.9066935], [-97.9047496, 29.9071508], [-97.905585, 29.9084296], [-97.9056051, 29.9084442], [-97.9056285, 29.9084587], [-97.9056587, 29.908463], [-97.9056938, 29.9084543], [-97.9058428, 29.9083818], [-97.9059516, 29.9083281], [-97.9060236, 29.9082889], [-97.9061442, 29.9082149], [-97.9062329, 29.9081554], [-97.90634, 29.9080683], [-97.9064154, 29.9080059], [-97.9064957, 29.9079203], [-97.9065761, 29.9078216], [-97.9067151, 29.9076387], [-97.906839, 29.9074778]]], [[[-97.9677924, 29.8958838], [-97.9670938, 29.8952663], [-97.9658641, 29.8962936], [-97.9661681, 29.8963353], [-97.9664775, 29.8963924], [-97.9667853, 29.8964583], [-97.9671137, 29.8965165], [-97.9677924, 29.8958838]]], [[[-97.9718924, 29.8984066], [-97.9710024, 29.8980345], [-97.9711185, 29.8978079], [-97.970931, 29.8977193], [-97.9710892, 29.8974929], [-97.9707209, 29.8973173], [-97.9704655, 29.8977645], [-97.9701277, 29.8976175], [-97.9698623, 29.8974941], [-97.9695657, 29.8973503], [-97.9691814, 29.8971836], [-97.968889, 29.8970601], [-97.9690475, 29.896746], [-97.969459, 29.8966201], [-97.9697428, 29.8965899], [-97.9699671, 29.8965072], [-97.9702187, 29.8961419], [-97.9707917, 29.8961594], [-97.9713716, 29.8961291], [-97.9717103, 29.8959305], [-97.9720766, 29.8957798], [-97.9724065, 29.8956402], [-97.9727708, 29.8955365], [-97.9733037, 29.8956241], [-97.9739252, 29.8959287], [-97.9741093, 29.8962004], [-97.9739751, 29.8967555], [-97.9722488, 29.8975581], [-97.9718924, 29.8984066]]], [[[-98.0332337, 29.9928464], [-98.0402672, 29.9928826], [-98.0427508, 29.9875681], [-98.0438361, 29.9852361], [-98.0428529, 29.9846105], [-98.0419781, 29.9842418], [-98.0408763, 29.9844898], [-98.0396789, 29.9857206], [-98.0394028, 29.9862558], [-98.0387582, 29.9868773], [-98.0384105, 29.9874219], [-98.0379301, 29.9878068], [-98.0373612, 29.9883843], [-98.0370199, 29.9887748], [-98.035426, 29.9896057], [-98.0340702, 29.9909226], [-98.0335761, 29.9918005], [-98.0332337, 29.9928464]]]]}}