{"type": "Feature", "properties": {"market_key": 700, "university": "Austin Peay State University", "osm_type": "relation", "osm_id": 3960027, "osm_name": "Austin Peay State University"}, "geometry": {"type": "MultiPolygon", "coordinates": [[[[-87.3612095, 36.5383049], [-87.3618966, 36.5384607], [-87.3628019, 36.5381263], [-87.3630854, 36.5385517], [-87.3634586, 36.539039], [-87.3637877, 36.539373], [-87.3640077, 36.5395497], [-87.3638953, 36.5396317], [-87.364002, 36.539725], [-87.36332, 36.5401656], [-87.3622291, 36.5408784], [-87.3598075, 36.5417466], [-87.3591757, 36.5415685], [-87.3585218, 36.5415551], [-87.3584048, 36.5406202], [-87.3583112, 36.5398721], [-87.3581228, 36.5393868], [-87.3583513, 36.5393325], [-87.3586659, 36.5392577], [-87.3596911, 36.5392087], [-87.3606387, 36.5390529], [-87.3612095, 36.5383049]]], [[[-87.3591008, 36.5353025], [-87.3592283, 36.5356487], [-87.358666, 36.5357978], [-87.3585217, 36.5353994], [-87.358247, 36.5354768], [-87.3584371, 36.5360485], [-87.3578509, 36.5360479], [-87.357787, 36.5373122], [-87.3576973, 36.5389937], [-87.3563289, 36.5388494], [-87.3563182, 36.5389043], [-87.3548171, 36.5387806], [-87.354829, 36.5386838], [-87.3544731, 36.5386498], [-87.3543674, 36.5394721], [-87.3539365, 36.5394337], [-87.3538999, 36.5396415], [-87.3535304, 36.5396071], [-87.3536656, 36.5385783], [-87.3491896, 36.5381609], [-87.3493434, 36.5372366], [-87.3500566, 36.5373293], [-87.3500293, 36.537532], [-87.3506787, 36.5375964], [-87.3507021, 36.5374856], [-87.3516825, 36.5375842], [-87.3516514, 36.5375266], [-87.3517945, 36.5364723], [-87.3502283, 36.536298], [-87.3500433, 36.5362774], [-87.350261, 36.5350821], [-87.3499442, 36.535041], [-87.3497258, 36.5349862], [-87.3494977, 36.5349051], [-87.3491479, 36.5348598], [-87.3492693, 36.534151], [-87.3498515, 36.5341877], [-87.3498925, 36.5337407], [-87.3493451, 36.533686], [-87.3494229, 36.5331104], [-87.347934, 36.5333868], [-87.3477675, 36.5327474], [-87.3498945, 36.5322865], [-87.3531913, 36.5315722], [-87.3529484, 36.5308113], [-87.3534248, 36.5307107], [-87.3536704, 36.5306577], [-87.3534752, 36.5300274], [-87.3539164, 36.52993], [-87.3539581, 36.5300209], [-87.3542328, 36.5299689], [-87.3544314, 36.5305373], [-87.3545988, 36.5305012], [-87.3549996, 36.5304165], [-87.3552431, 36.5311696], [-87.3558657, 36.5310401], [-87.3558005, 36.5308241], [-87.3557274, 36.5305958], [-87.3557082, 36.5306004], [-87.3556111, 36.5306194], [-87.3554435, 36.5306546], [-87.3553478, 36.5303592], [-87.3553365, 36.5303259], [-87.3550622, 36.5303827], [-87.3548787, 36.5298362], [-87.3551469, 36.5297788], [-87.3551118, 36.5296813], [-87.3550379, 36.5294761], [-87.355117, 36.5294562], [-87.3550124, 36.5291075], [-87.3552633, 36.5290569], [-87.3558291, 36.528948], [-87.3558599, 36.5289624], [-87.356023, 36.5290386], [-87.356269, 36.5289838], [-87.3564461, 36.5294974], [-87.3568591, 36.5294063], [-87.3570454, 36.5299866], [-87.3578636, 36.5298153], [-87.3579018, 36.5299225], [-87.3579005, 36.5300206], [-87.3579401, 36.5301426], [-87.3585124, 36.5300198], [-87.3586314, 36.5299942], [-87.3586116, 36.5299286], [-87.3593546, 36.5297694], [-87.3594659, 36.5301037], [-87.3584144, 36.530322], [-87.3584653, 36.530471], [-87.3585323, 36.5306896], [-87.3585685, 36.5307844], [-87.3586375, 36.5309981], [-87.3586713, 36.5311085], [-87.3587188, 36.5310973], [-87.3586863, 36.530988], [-87.3589427, 36.5309351], [-87.3589978, 36.530923], [-87.3590421, 36.5310835], [-87.3590741, 36.5311855], [-87.3591123, 36.5312814], [-87.3592034, 36.5315099], [-87.3598568, 36.5313451], [-87.3600519, 36.5319405], [-87.3593796, 36.53209], [-87.3595445, 36.5326872], [-87.3598149, 36.5327502], [-87.3597097, 36.5330351], [-87.3593701, 36.5329691], [-87.3591496, 36.5329492], [-87.3589517, 36.5329528], [-87.35881, 36.5329799], [-87.3588231, 36.5330686], [-87.3589003, 36.5335935], [-87.3583764, 36.5337691], [-87.3586518, 36.5342321], [-87.3599508, 36.5337346], [-87.3600985, 36.534361], [-87.3597051, 36.5344914], [-87.3594544, 36.5340537], [-87.3592741, 36.534123], [-87.359521, 36.5345575], [-87.3584434, 36.5349227], [-87.3586517, 36.5353629], [-87.3590688, 36.5352288], [-87.3591008, 36.5353025]]], [[[-87.3603145, 36.5349695], [-87.3603745, 36.5351386], [-87.3603965, 36.5352022], [-87.3606569, 36.5351471], [-87.3606878, 36.5351601], [-87.3610255, 36.5350963], [-87.3609611, 36.5348797], [-87.3609511, 36.5348657], [-87.3608968, 36.5348522], [-87.3608378, 36.5348543], [-87.3603145, 36.5349695]]]]}}