{"type": "Feature", "properties": {"market_key": 710, "university": "Bloomsburg University of Pennsylvania", "osm_type": "way", "osm_id": 18007587, "osm_name": "Bloomsburg University of Pennsylvania"}, "geometry": {"type": "Polygon", "coordinates": [[[-76.4481778, 41.0150857], [-76.4493966, 41.0152411], [-76.4505553, 41.0153577], [-76.4511132, 41.0156167], [-76.4514994, 41.0159924], [-76.4516711, 41.0162967], [-76.4517312, 41.0165558], [-76.4517569, 41.0171062], [-76.451096, 41.0173005], [-76.4501691, 41.0175272], [-76.4498648, 41.0176592], [-76.4498257, 41.0176761], [-76.4494137, 41.0179352], [-76.449182, 41.0180776], [-76.4487271, 41.0181554], [-76.4481091, 41.0182201], [-76.4477229, 41.0182072], [-76.4471822, 41.0181424], [-76.4467187, 41.0178316], [-76.4463753, 41.017443], [-76.4462037, 41.0170933], [-76.446135, 41.0167047], [-76.446238, 41.0163162], [-76.4464097, 41.0160377], [-76.4470362, 41.0156815], [-76.4477486, 41.0154225], [-76.4479804, 41.0153059], [-76.4481778, 41.0150857]]]}}