{"type": "Feature", "properties": {"market_key": 714, "university": "Valdosta State University", "osm_type": "relation", "osm_id": 7229626, "osm_name": "Valdosta State University"}, "geometry": {"type": "MultiPolygon", "coordinates": [[[[-83.2968545, 30.8434715], [-83.297071, 30.8403105], [-83.2944647, 30.8402935], [-83.2945615, 30.8408407], [-83.2946772, 30.8443469], [-83.2968545, 30.8434715]]], [[[-83.2926583, 30.8509768], [-83.2909861, 30.8477871], [-83.2905102, 30.8468738], [-83.2907181, 30.8467872], [-83.2908043, 30.8468089], [-83.2925302, 30.8467792], [-83.2959554, 30.8467298], [-83.2959983, 30.8467125], [-83.2960207, 30.8466752], [-83.2950913, 30.8452546], [-83.2950047, 30.8451221], [-83.2947905, 30.844798], [-83.2947276, 30.8447061], [-83.2946733, 30.8446232], [-83.2946049, 30.8444989], [-83.2945438, 30.8443912], [-83.2945123, 30.8443248], [-83.2944833, 30.8443287], [-83.2928945, 30.8445454], [-83.2928477, 30.8445091], [-83.2925034, 30.8445481], [-83.2924374, 30.844613], [-83.2906859, 30.8448467], [-83.2905828, 30.8447745], [-83.2904686, 30.8442902], [-83.289321, 30.8447602], [-83.2880788, 30.8452667], [-83.2866542, 30.8426935], [-83.2838072, 30.84378], [-83.2850694, 30.846085], [-83.2857299, 30.8458697], [-83.2861548, 30.8457284], [-83.2867359, 30.8454984], [-83.2868966, 30.8458072], [-83.2871051, 30.8464862], [-83.2873409, 30.8475908], [-83.2875831, 30.8487389], [-83.2878534, 30.8500013], [-83.2879742, 30.8506157], [-83.2869042, 30.8506954], [-83.2869417, 30.851072], [-83.2872045, 30.8510698], [-83.2873117, 30.8510052], [-83.2880275, 30.8509047], [-83.2883183, 30.8522848], [-83.2903123, 30.8522068], [-83.2907801, 30.8521764], [-83.2918222, 30.8521484], [-83.2926859, 30.8521086], [-83.2926583, 30.8509768]]]]}}