{"type": "Feature", "properties": {"market_key": 732, "university": "Syracuse University", "osm_type": "relation", "osm_id": 3985046, "osm_name": "Syracuse University"}, "geometry": {"type": "MultiPolygon", "coordinates": [[[[-76.1288492, 43.0425004], [-76.1298856, 43.0425154], [-76.1315482, 43.0425536], [-76.1315462, 43.0423214], [-76.1314836, 43.0423187], [-76.13149, 43.0418734], [-76.1321087, 43.041872], [-76.1321087, 43.0416965], [-76.1312164, 43.041681], [-76.131197, 43.0410177], [-76.1313623, 43.0410176], [-76.1313831, 43.0409794], [-76.1321324, 43.0409774], [-76.1321247, 43.0406277], [-76.1329905, 43.0406119], [-76.1329144, 43.0425592], [-76.1329132, 43.0426464], [-76.132894, 43.0440996], [-76.1342788, 43.0441147], [-76.1342917, 43.0435982], [-76.1343003, 43.0431814], [-76.134302, 43.0425745], [-76.1350319, 43.0425788], [-76.135035, 43.042355], [-76.1353097, 43.042355], [-76.1353235, 43.0419815], [-76.1350919, 43.0419783], [-76.1350925, 43.0418673], [-76.1345416, 43.0418636], [-76.1345403, 43.0417028], [-76.1345443, 43.0415239], [-76.1366253, 43.0415413], [-76.1366352, 43.0406001], [-76.1366369, 43.0404746], [-76.1372985, 43.0404827], [-76.1373043, 43.0395157], [-76.1378377, 43.0395263], [-76.1379306, 43.0392103], [-76.1380769, 43.0386916], [-76.1381646, 43.0381978], [-76.1380969, 43.0376858], [-76.1380969, 43.0372074], [-76.1395228, 43.0371192], [-76.1395677, 43.0378801], [-76.1395802, 43.0380914], [-76.1396422, 43.0391425], [-76.1396478, 43.0392376], [-76.140253, 43.0392024], [-76.1404155, 43.0387009], [-76.1405308, 43.0383626], [-76.1413194, 43.0384514], [-76.1414218, 43.0384508], [-76.1414035, 43.0383325], [-76.1415425, 43.0376253], [-76.1414004, 43.0374445], [-76.141424, 43.0367284], [-76.1414351, 43.0366129], [-76.1414462, 43.0365106], [-76.1414683, 43.0364016], [-76.1414871, 43.036322], [-76.1415182, 43.0362409], [-76.1415607, 43.0361608], [-76.1416072, 43.0360954], [-76.1416597, 43.036028], [-76.1416336, 43.0358943], [-76.1416329, 43.0356766], [-76.1420522, 43.0338744], [-76.142024, 43.0334041], [-76.1391313, 43.0335559], [-76.1378989, 43.0336427], [-76.1366846, 43.0337163], [-76.1336955, 43.0337723], [-76.1326472, 43.033804], [-76.1319498, 43.0336079], [-76.1310272, 43.0330825], [-76.1296217, 43.0323688], [-76.129796, 43.0348545], [-76.1298874, 43.0361579], [-76.1299006, 43.0363468], [-76.1296771, 43.0363572], [-76.1292718, 43.0363761], [-76.1290646, 43.0363857], [-76.1278161, 43.0364554], [-76.1278596, 43.0368402], [-76.12833, 43.0368286], [-76.1284173, 43.0374488], [-76.1290059, 43.037439], [-76.1289786, 43.0371001], [-76.129688, 43.0370591], [-76.1296888, 43.0372405], [-76.1298585, 43.0394931], [-76.1285759, 43.0394587], [-76.1286616, 43.0404135], [-76.1286721, 43.0405298], [-76.1287721, 43.0416426], [-76.1288492, 43.0425004]]], [[[-76.1284093, 43.0239298], [-76.1288562, 43.0276737], [-76.1269133, 43.0277119], [-76.1266832, 43.0261864], [-76.1264172, 43.0260096], [-76.1263059, 43.0258058], [-76.1263019, 43.0256301], [-76.1260727, 43.0252524], [-76.1258559, 43.0251377], [-76.1256925, 43.0251798], [-76.1247416, 43.0253142], [-76.1244589, 43.0253542], [-76.1243538, 43.0249338], [-76.1221233, 43.0257708], [-76.1220984, 43.025169], [-76.1220058, 43.0241468], [-76.1219993, 43.0240754], [-76.1219098, 43.0230863], [-76.1217939, 43.0218057], [-76.1137484, 43.0221728], [-76.1136679, 43.0208864], [-76.1143116, 43.0205884], [-76.1145906, 43.0201962], [-76.1146549, 43.0198197], [-76.1145047, 43.0191764], [-76.1142043, 43.0186273], [-76.1135606, 43.0179527], [-76.1133031, 43.0175605], [-76.113305, 43.0175428], [-76.1133976, 43.0166829], [-76.1129478, 43.0134467], [-76.1107318, 43.0136244], [-76.1101029, 43.0096997], [-76.1101199, 43.0091761], [-76.1105435, 43.0086455], [-76.1121093, 43.0068791], [-76.1147469, 43.0067872], [-76.1167408, 43.0068081], [-76.1224175, 43.0079952], [-76.1214401, 43.0089747], [-76.1191948, 43.0106388], [-76.1218412, 43.0117559], [-76.1232809, 43.0137481], [-76.1244783, 43.0222301], [-76.1284093, 43.0239298]]], [[[-76.130565, 43.0431121], [-76.1310014, 43.043098], [-76.1309929, 43.0435513], [-76.1311727, 43.0435531], [-76.1311713, 43.0436007], [-76.1320276, 43.0435968], [-76.1320316, 43.0444358], [-76.1315434, 43.0444446], [-76.1315275, 43.0440809], [-76.1306307, 43.0440751], [-76.130565, 43.0431121]]], [[[-76.1366228, 43.0462162], [-76.1370672, 43.0462229], [-76.1370618, 43.0463065], [-76.1376916, 43.0463177], [-76.1376884, 43.046202], [-76.1390351, 43.0462162], [-76.1390166, 43.0469676], [-76.1366048, 43.0467848], [-76.1366228, 43.0462162]]], [[[-76.1268406, 43.0367523], [-76.126815, 43.0365294], [-76.126382, 43.0365566], [-76.1264076, 43.0367864], [-76.1268406, 43.0367523]]]]}}