{"type": "Feature", "properties": {"market_key": 734, "university": "Brandeis University", "osm_type": "way", "osm_id": 162340490, "osm_name": "Brandeis University"}, "geometry": {"type": "Polygon", "coordinates": [[[-71.2606495, 42.3619995], [-71.2606798, 42.3619616], [-71.2604111, 42.3619597], [-71.2602334, 42.3619725], [-71.2601496, 42.3619879], [-71.2599351, 42.3619918], [-71.2599163, 42.3619817], [-71.2597132, 42.3619879], [-71.2596773, 42.3620299], [-71.2596735, 42.362012], [-71.2596071, 42.3619981], [-71.2594125, 42.362015], [-71.258978, 42.3620695], [-71.2586293, 42.362125], [-71.2583289, 42.3621864], [-71.2577951, 42.3623232], [-71.2575162, 42.3624064], [-71.2566233, 42.3627185], [-71.2554388, 42.3633299], [-71.2542132, 42.3639772], [-71.2521394, 42.3651049], [-71.2530181, 42.3659033], [-71.2538386, 42.3666872], [-71.2538944, 42.3667405], [-71.2535954, 42.3669735], [-71.2533081, 42.3671995], [-71.2532522, 42.3672391], [-71.2532212, 42.3672611], [-71.2532915, 42.3673004], [-71.254566, 42.368013], [-71.2550664, 42.3683502], [-71.2554829, 42.3685995], [-71.2545198, 42.3697616], [-71.2552535, 42.3700418], [-71.25511, 42.3702638], [-71.2566794, 42.3709008], [-71.2570339, 42.370377], [-71.2571733, 42.3703293], [-71.2574653, 42.370786], [-71.2588406, 42.3711488], [-71.2593726, 42.3699455], [-71.259413, 42.3699602], [-71.2594978, 42.3699809], [-71.2595096, 42.369963], [-71.259545, 42.3699094], [-71.259653, 42.3699452], [-71.2598724, 42.3695603], [-71.2605151, 42.3697594], [-71.2608197, 42.3692306], [-71.261196, 42.3685471], [-71.2614236, 42.3685595], [-71.2616277, 42.3682053], [-71.2620295, 42.3677971], [-71.2624034, 42.3671348], [-71.262046, 42.3671041], [-71.2624886, 42.3663317], [-71.2626338, 42.3660983], [-71.2631712, 42.3651275], [-71.2641924, 42.3649913], [-71.2643223, 42.3652329], [-71.2646538, 42.3653421], [-71.2653078, 42.3652097], [-71.2655229, 42.364935], [-71.265323, 42.3646895], [-71.2651449, 42.3645755], [-71.2651741, 42.3644783], [-71.2651952, 42.3643636], [-71.2648553, 42.3642726], [-71.2644869, 42.3641317], [-71.263915, 42.3639305], [-71.2639479, 42.3626214], [-71.262889, 42.3623769], [-71.2625775, 42.3623046], [-71.2624597, 42.3622734], [-71.2623518, 42.3622369], [-71.2622549, 42.3621879], [-71.2621611, 42.3621437], [-71.2620487, 42.3621098], [-71.2619041, 42.3620848], [-71.2615325, 42.3620348], [-71.2613061, 42.362012], [-71.2612057, 42.3620043], [-71.2611182, 42.36201], [-71.2610347, 42.3620274], [-71.260959, 42.3620363], [-71.2608617, 42.3620404], [-71.2607559, 42.3620233], [-71.2607406, 42.3620197], [-71.2606495, 42.3619995]]]}}