{"type": "Feature", "properties": {"market_key": 74, "university": "University of Nebraska at Omaha", "osm_type": "way", "osm_id": 185570716, "osm_name": "University of Nebraska at Omaha"}, "geometry": {"type": "Polygon", "coordinates": [[[-96.016372, 41.2594829], [-96.0163712, 41.2595246], [-96.0151314, 41.2595206], [-96.0146141, 41.2595608], [-96.0145568, 41.2595607], [-96.0143945, 41.2595599], [-96.0132944, 41.2595562], [-96.0130974, 41.2595556], [-96.013047, 41.2595554], [-96.0130331, 41.2595554], [-96.0114389, 41.2595518], [-96.0083018, 41.2595438], [-96.0077621, 41.2595426], [-96.0059221, 41.2595352], [-96.0058299, 41.2595282], [-96.0055234, 41.2595051], [-96.0051772, 41.2595045], [-96.0048212, 41.2595119], [-96.0048343, 41.2595018], [-96.0048517, 41.2594797], [-96.0048609, 41.259453], [-96.004866, 41.2566935], [-96.0048725, 41.2566144], [-96.0048778, 41.2565709], [-96.0049004, 41.2564915], [-96.0049283, 41.256435], [-96.0049557, 41.2563931], [-96.0049857, 41.2563514], [-96.0050245, 41.2563062], [-96.0050943, 41.256244], [-96.0051331, 41.2562163], [-96.0051743, 41.2561896], [-96.0052165, 41.2561657], [-96.0052918, 41.2561304], [-96.0053506, 41.2561099], [-96.0054118, 41.2560903], [-96.0055163, 41.2560691], [-96.0055704, 41.2560617], [-96.0056881, 41.2560567], [-96.00664, 41.2560543], [-96.007556, 41.2559849], [-96.0075821, 41.2559849], [-96.0076282, 41.2559849], [-96.0076896, 41.2559849], [-96.0077326, 41.2559849], [-96.0077679, 41.2559849], [-96.0077956, 41.2559814], [-96.0079523, 41.2559813], [-96.0080202, 41.2559812], [-96.0081634, 41.2559811], [-96.0093055, 41.2559795], [-96.0094891, 41.2559793], [-96.0107742, 41.2559855], [-96.0107622, 41.2569725], [-96.0114417, 41.2569772], [-96.0114384, 41.257244], [-96.0122604, 41.2572498], [-96.0122826, 41.2559988], [-96.0137501, 41.255994], [-96.0150386, 41.2560019], [-96.0154976, 41.2560047], [-96.0160674, 41.2560022], [-96.0160669, 41.2564377], [-96.0161225, 41.2564604], [-96.0162027, 41.2565237], [-96.0162191, 41.2565733], [-96.0162432, 41.2566681], [-96.0162513, 41.2567487], [-96.0162298, 41.2568919], [-96.0159026, 41.2575028], [-96.0159559, 41.2576246], [-96.0160313, 41.2577246], [-96.0162291, 41.2578619], [-96.016259, 41.2578827], [-96.0163532, 41.2579545], [-96.0163559, 41.258384], [-96.0163666, 41.2591945], [-96.016372, 41.2594829]]]}}