{"type": "Feature", "properties": {"market_key": 757, "university": "University of Massachusetts Lowell", "osm_type": "relation", "osm_id": 7981004, "osm_name": "University of Massachusetts Lowell"}, "geometry": {"type": "MultiPolygon", "coordinates": [[[[-71.3239054, 42.6505894], [-71.3229716, 42.6501432], [-71.3228801, 42.6500984], [-71.3231634, 42.6497898], [-71.323124, 42.6497681], [-71.322923, 42.6496819], [-71.3231175, 42.6494634], [-71.3232187, 42.6493598], [-71.3231027, 42.6492987], [-71.3232569, 42.6490989], [-71.3235506, 42.6487478], [-71.3241917, 42.6482427], [-71.3244372, 42.6485445], [-71.3246986, 42.6488148], [-71.3244988, 42.6490131], [-71.3244495, 42.6490615], [-71.3244425, 42.6490683], [-71.3242172, 42.6489362], [-71.3241072, 42.6490457], [-71.3238631, 42.6489184], [-71.3235413, 42.6492923], [-71.3236955, 42.6493652], [-71.3235807, 42.6495107], [-71.3235154, 42.6495935], [-71.3239141, 42.6497894], [-71.3239927, 42.6496843], [-71.3240434, 42.6496272], [-71.3241503, 42.6495067], [-71.3242727, 42.6493661], [-71.324329, 42.649304], [-71.3243776, 42.6492505], [-71.3244069, 42.6492241], [-71.3244735, 42.6491696], [-71.3245258, 42.6491281], [-71.324563, 42.6490984], [-71.324786, 42.6489141], [-71.3247992, 42.648914], [-71.3249405, 42.6490746], [-71.3246709, 42.6492022], [-71.3248173, 42.6493771], [-71.325069, 42.6492547], [-71.3250712, 42.6492536], [-71.3250963, 42.6492415], [-71.3254094, 42.6495655], [-71.3253909, 42.6496417], [-71.3253826, 42.649676], [-71.325113, 42.6498229], [-71.3252117, 42.6499357], [-71.3253864, 42.6501352], [-71.3253564, 42.6501465], [-71.324354, 42.6506624], [-71.324352, 42.6506635], [-71.3243647, 42.6506729], [-71.3242069, 42.6507896], [-71.3239054, 42.6505894]]], [[[-71.3167162, 42.6543305], [-71.3176941, 42.6546501], [-71.3186469, 42.6543786], [-71.3200116, 42.6539557], [-71.3213588, 42.6536025], [-71.3214183, 42.6535741], [-71.3216678, 42.6533275], [-71.3221157, 42.6529547], [-71.3221479, 42.6529014], [-71.322164, 42.6528403], [-71.3221747, 42.652791], [-71.3221962, 42.6527436], [-71.3222122, 42.6526751], [-71.3222176, 42.6526548], [-71.3219557, 42.6526191], [-71.3219695, 42.652493], [-71.3215336, 42.6524309], [-71.3213915, 42.6522644], [-71.32137, 42.6522422], [-71.3214908, 42.6521905], [-71.3214116, 42.652026], [-71.320898, 42.6515779], [-71.3206995, 42.6514403], [-71.320513, 42.6513913], [-71.3203273, 42.651628], [-71.3200913, 42.6518642], [-71.3199484, 42.6519959], [-71.3186328, 42.6513696], [-71.3184947, 42.6513262], [-71.3187103, 42.650907], [-71.3188695, 42.6505973], [-71.3186905, 42.6505016], [-71.3176364, 42.6499896], [-71.3174197, 42.6498957], [-71.317461, 42.6498498], [-71.315962, 42.6491295], [-71.3147075, 42.6505244], [-71.3143159, 42.6509821], [-71.3142682, 42.6510761], [-71.314224, 42.6511284], [-71.3141717, 42.6511903], [-71.3139859, 42.6511006], [-71.3139052, 42.6511923], [-71.3138149, 42.6512813], [-71.3144057, 42.6516615], [-71.3148496, 42.6518825], [-71.3150671, 42.6519369], [-71.3162856, 42.6524896], [-71.3164468, 42.6525627], [-71.3164558, 42.6525668], [-71.3167141, 42.6522748], [-71.316809, 42.6523267], [-71.3166057, 42.6525618], [-71.3166383, 42.6526983], [-71.3166042, 42.6528613], [-71.3165181, 42.652995], [-71.3164217, 42.6531012], [-71.3163344, 42.6531974], [-71.3162158, 42.6533281], [-71.3166156, 42.6535333], [-71.3162157, 42.6539449], [-71.3163865, 42.6540516], [-71.3164257, 42.654085], [-71.3167162, 42.6543305]]], [[[-71.3240562, 42.6544514], [-71.3241448, 42.6541392], [-71.3241776, 42.6539336], [-71.3241877, 42.6537763], [-71.3242162, 42.6536527], [-71.3242686, 42.6535242], [-71.3243023, 42.6534508], [-71.324356, 42.6533736], [-71.3245504, 42.6531746], [-71.3246389, 42.6531041], [-71.3251754, 42.6526938], [-71.3255425, 42.6524167], [-71.3258191, 42.6522174], [-71.325975, 42.6521319], [-71.3261106, 42.6520699], [-71.3267969, 42.6519033], [-71.3281222, 42.6528543], [-71.3281271, 42.6528624], [-71.328127, 42.6528703], [-71.3280982, 42.6528976], [-71.3272818, 42.6535317], [-71.3268652, 42.6538719], [-71.3265991, 42.6541212], [-71.3267145, 42.6542077], [-71.3267472, 42.6542404], [-71.3267638, 42.6542411], [-71.3268076, 42.6542107], [-71.327194, 42.6545496], [-71.3271057, 42.6546213], [-71.3270723, 42.6546556], [-71.3272153, 42.6547533], [-71.3271861, 42.654774], [-71.3270493, 42.6548709], [-71.3268828, 42.6550259], [-71.326623, 42.6553191], [-71.3266011, 42.6553438], [-71.3265725, 42.6553931], [-71.3259067, 42.6551165], [-71.3256921, 42.6555836], [-71.3256063, 42.6557351], [-71.3255205, 42.6560255], [-71.3254861, 42.6564926], [-71.3255291, 42.6570102], [-71.3255634, 42.6572185], [-71.3255548, 42.65737], [-71.3255291, 42.657553], [-71.3255033, 42.6577866], [-71.3254604, 42.6580138], [-71.3253832, 42.6583799], [-71.325162, 42.658369], [-71.3247771, 42.6583517], [-71.324527, 42.6583379], [-71.3243694, 42.6583364], [-71.3234744, 42.6583034], [-71.3229753, 42.6582961], [-71.3225022, 42.658273], [-71.3219179, 42.65824], [-71.3216802, 42.6582375], [-71.3214947, 42.6581096], [-71.321492, 42.6578142], [-71.3215504, 42.6576874], [-71.3216704, 42.6575045], [-71.3218078, 42.6573476], [-71.3219279, 42.6571973], [-71.3224892, 42.6565113], [-71.3230437, 42.6558604], [-71.3233374, 42.6554787], [-71.3236063, 42.6551468], [-71.3238718, 42.6548055], [-71.3239785, 42.6546324], [-71.3240562, 42.6544514]]], [[[-71.3342119, 42.6446165], [-71.3339989, 42.6441071], [-71.3338596, 42.6436373], [-71.3332549, 42.6437336], [-71.3331556, 42.6434495], [-71.3327399, 42.6435146], [-71.3325548, 42.64312], [-71.332351, 42.6426879], [-71.3321713, 42.6422539], [-71.3327989, 42.642096], [-71.3327196, 42.6416518], [-71.3331003, 42.6415737], [-71.3330524, 42.6413838], [-71.3328016, 42.641439], [-71.3327393, 42.6412546], [-71.3330111, 42.6412176], [-71.3328847, 42.6407149], [-71.3338503, 42.6405472], [-71.3347489, 42.6403893], [-71.3352156, 42.6402986], [-71.335685, 42.640192], [-71.3366532, 42.6400006], [-71.3366335, 42.6398093], [-71.3365486, 42.6389865], [-71.3370422, 42.6389509], [-71.3378844, 42.6389036], [-71.3378656, 42.638505], [-71.3382062, 42.6384774], [-71.3382143, 42.6388207], [-71.3386515, 42.6388148], [-71.3386381, 42.6390891], [-71.3391343, 42.63902], [-71.3392442, 42.6394008], [-71.3395205, 42.6395429], [-71.3397136, 42.6399099], [-71.3390377, 42.6402571], [-71.3385898, 42.6405728], [-71.3384034, 42.6407267], [-71.338394, 42.6407396], [-71.3383538, 42.6407524], [-71.3382894, 42.6407563], [-71.3382009, 42.6407287], [-71.3380681, 42.6407248], [-71.3379675, 42.6407455], [-71.3373587, 42.6408846], [-71.3374847, 42.6412259], [-71.3377489, 42.6415041], [-71.3377784, 42.6417133], [-71.3376725, 42.6419027], [-71.3372152, 42.6426653], [-71.3370422, 42.642905], [-71.3369443, 42.6430132], [-71.3368434, 42.6431155], [-71.336668, 42.64334], [-71.3364923, 42.643562], [-71.3363045, 42.6437484], [-71.3361678, 42.6439221], [-71.3359466, 42.6441453], [-71.3357896, 42.6443038], [-71.3354871, 42.6445391], [-71.3342119, 42.6446165]]], [[[-71.3064457, 42.6437628], [-71.3062139, 42.6437974], [-71.3062363, 42.6438785], [-71.3061555, 42.6438906], [-71.3061792, 42.6439767], [-71.3070483, 42.6438467], [-71.3070695, 42.6439235], [-71.3071422, 42.6439126], [-71.307137, 42.6438939], [-71.3071569, 42.6438909], [-71.3071583, 42.643896], [-71.3073732, 42.6438639], [-71.3073607, 42.6438184], [-71.3074775, 42.643801], [-71.3074896, 42.6438446], [-71.3078095, 42.6437968], [-71.307797, 42.6437519], [-71.3078168, 42.6437489], [-71.3077687, 42.6435746], [-71.3077252, 42.6435811], [-71.3077059, 42.6435112], [-71.3076236, 42.6435235], [-71.3075933, 42.6434138], [-71.307522, 42.6434244], [-71.3075183, 42.6434111], [-71.3073487, 42.6434365], [-71.3073457, 42.6434255], [-71.3071774, 42.6434507], [-71.3071745, 42.6434401], [-71.30705, 42.6434587], [-71.3070538, 42.6434722], [-71.3069865, 42.6434823], [-71.3070186, 42.6435986], [-71.3069178, 42.6436137], [-71.3069185, 42.643616], [-71.3068254, 42.6436299], [-71.3068252, 42.6436294], [-71.3067199, 42.6436452], [-71.3067194, 42.6436433], [-71.306629, 42.6436568], [-71.3066278, 42.6436527], [-71.3064595, 42.6436778], [-71.3064582, 42.6436729], [-71.3064232, 42.6436781], [-71.3064457, 42.6437628]]], [[[-71.3135219, 42.650617], [-71.3136841, 42.650435], [-71.3137366, 42.6503742], [-71.3137847, 42.6503186], [-71.3137934, 42.6503225], [-71.3139376, 42.6501618], [-71.3138162, 42.6501036], [-71.3137693, 42.6500079], [-71.3136801, 42.6499275], [-71.3136131, 42.649883], [-71.3134843, 42.6498308], [-71.3135306, 42.649707], [-71.3134173, 42.6496908], [-71.3133066, 42.6496873], [-71.3132387, 42.6496962], [-71.3131665, 42.6497056], [-71.3130391, 42.6497488], [-71.3130057, 42.6497654], [-71.3129029, 42.6498165], [-71.312921, 42.6498318], [-71.3128775, 42.6498801], [-71.3129392, 42.6499078], [-71.3129136, 42.6499368], [-71.3128219, 42.6500408], [-71.3125717, 42.6503171], [-71.3125616, 42.6503147], [-71.3124181, 42.650474], [-71.3125375, 42.6505331], [-71.3125858, 42.6506268], [-71.3126743, 42.6507092], [-71.3127333, 42.6507392], [-71.3128889, 42.6508121], [-71.3129882, 42.6508319], [-71.3130525, 42.6508457], [-71.3131678, 42.6508379], [-71.3132845, 42.6508937], [-71.3133357, 42.6508357], [-71.3134253, 42.6507344], [-71.3134199, 42.6507294], [-71.3135219, 42.650617]]], [[[-71.3522728, 42.6405029], [-71.3523164, 42.6405008], [-71.352328, 42.6404901], [-71.3523438, 42.6404893], [-71.3523575, 42.6404987], [-71.3523604, 42.6405325], [-71.3525032, 42.6405254], [-71.3525003, 42.640493], [-71.3525726, 42.6404894], [-71.3525702, 42.6404628], [-71.3528377, 42.6404496], [-71.3528531, 42.6406103], [-71.3521453, 42.6406394], [-71.35214, 42.6405235], [-71.3522651, 42.6405173], [-71.3522638, 42.6405034], [-71.3522728, 42.6405029]]]]}}