{"type": "Feature", "properties": {"market_key": 769, "university": "University of Missouri St. Louis", "osm_type": "way", "osm_id": 151230737, "osm_name": "University of Missouri - Saint Louis (UMSL)"}, "geometry": {"type": "Polygon", "coordinates": [[[-90.3153999, 38.7075698], [-90.3143324, 38.7089596], [-90.312818, 38.7110254], [-90.3123782, 38.7109952], [-90.3120992, 38.7121798], [-90.3117896, 38.7136482], [-90.3106535, 38.7150659], [-90.3120176, 38.715651], [-90.3115893, 38.7162233], [-90.3114871, 38.7163599], [-90.3118122, 38.717391], [-90.3102882, 38.7178167], [-90.3097407, 38.7179699], [-90.3094858, 38.7180319], [-90.3092725, 38.7180733], [-90.3089841, 38.7181064], [-90.3082856, 38.7181584], [-90.3073838, 38.7182176], [-90.3062694, 38.7182909], [-90.3062304, 38.7182805], [-90.3062073, 38.7182473], [-90.3062137, 38.7179378], [-90.3059021, 38.7180524], [-90.3055778, 38.7181717], [-90.305534, 38.7183529], [-90.3055083, 38.7184591], [-90.3052422, 38.7189201], [-90.3048683, 38.7194038], [-90.3037927, 38.7192908], [-90.3031079, 38.7191569], [-90.3022645, 38.7189007], [-90.3030753, 38.7163011], [-90.3031996, 38.7163197], [-90.3032655, 38.7163161], [-90.3033331, 38.7162785], [-90.3033933, 38.7162451], [-90.3034653, 38.7162327], [-90.3036844, 38.7162707], [-90.3037628, 38.7162671], [-90.3045656, 38.7158503], [-90.3049259, 38.7156615], [-90.3053445, 38.7154644], [-90.3051166, 38.7151479], [-90.3049398, 38.7148709], [-90.3047848, 38.7145636], [-90.3047148, 38.7143541], [-90.3046501, 38.7140525], [-90.3045316, 38.7133238], [-90.3044932, 38.7130884], [-90.3044066, 38.7127776], [-90.3044103, 38.7127296], [-90.3044232, 38.7127046], [-90.3044919, 38.7126756], [-90.3046335, 38.7126301], [-90.3047784, 38.7125978], [-90.3049341, 38.7125792], [-90.3050791, 38.712584], [-90.3052189, 38.712606], [-90.3053537, 38.7126417], [-90.3054891, 38.7126964], [-90.3057225, 38.7127931], [-90.3059318, 38.7128317], [-90.306032, 38.712701], [-90.3056625, 38.7124762], [-90.30536, 38.7122849], [-90.3053451, 38.7120949], [-90.305369, 38.7119952], [-90.3054221, 38.7119132], [-90.3051649, 38.7118473], [-90.3047146, 38.7114423], [-90.304699, 38.7107327], [-90.3048075, 38.7105192], [-90.3049278, 38.7100586], [-90.3051737, 38.7093174], [-90.3065008, 38.7095749], [-90.306275, 38.7103079], [-90.307117, 38.7104642], [-90.3074065, 38.7103673], [-90.3080552, 38.7093552], [-90.3085667, 38.7090621], [-90.3090663, 38.7083199], [-90.3090873, 38.7074206], [-90.3090477, 38.7072539], [-90.3086806, 38.70728], [-90.3084129, 38.7072948], [-90.3082864, 38.707294], [-90.3081183, 38.7072907], [-90.3078144, 38.7072766], [-90.3072905, 38.7072231], [-90.3065183, 38.7071253], [-90.3059854, 38.7070191], [-90.3056321, 38.7069277], [-90.3054392, 38.7068779], [-90.3054153, 38.7061206], [-90.3053897, 38.7058873], [-90.3051549, 38.7045725], [-90.3049685, 38.7035029], [-90.3047445, 38.7023495], [-90.3044013, 38.7005577], [-90.3042531, 38.699586], [-90.3056053, 38.6976691], [-90.3065375, 38.6980553], [-90.305462, 38.6995121], [-90.3055522, 38.6995535], [-90.306504, 38.6999904], [-90.3070518, 38.7006332], [-90.3071548, 38.7011569], [-90.3099042, 38.7006716], [-90.3099006, 38.7004756], [-90.3104082, 38.7005666], [-90.310777, 38.7006336], [-90.3109232, 38.700372], [-90.3110814, 38.7000957], [-90.3114301, 38.6993745], [-90.3119733, 38.6994853], [-90.3121945, 38.6995504], [-90.3121543, 38.6997398], [-90.3126382, 38.6998002], [-90.3125768, 38.6999763], [-90.3131266, 38.7001134], [-90.3130537, 38.7002537], [-90.3129114, 38.700515], [-90.3127662, 38.7007361], [-90.3127173, 38.7007765], [-90.3126034, 38.7008195], [-90.3125151, 38.7008386], [-90.3123814, 38.7008516], [-90.3122266, 38.7008526], [-90.3119706, 38.7008336], [-90.3116999, 38.7007997], [-90.3115235, 38.7007907], [-90.3113852, 38.700806], [-90.3112451, 38.7008548], [-90.3111258, 38.7009189], [-90.3110509, 38.7009745], [-90.3109923, 38.7010479], [-90.3109288, 38.7011444], [-90.3106677, 38.7019864], [-90.3103949, 38.7028607], [-90.3102863, 38.7032477], [-90.3102474, 38.7034862], [-90.3102086, 38.7036744], [-90.3101938, 38.7039443], [-90.3102028, 38.7044594], [-90.3095531, 38.704473], [-90.3096436, 38.7048404], [-90.3094867, 38.7048487], [-90.3095411, 38.7051169], [-90.3098718, 38.706687], [-90.3100205, 38.706666], [-90.3107283, 38.7065661], [-90.3108159, 38.7070114], [-90.310858, 38.7071927], [-90.3112371, 38.7071432], [-90.3122668, 38.7070119], [-90.3125777, 38.7069748], [-90.3128025, 38.706955], [-90.3130697, 38.7069532], [-90.3133359, 38.706962], [-90.3136591, 38.7069921], [-90.3140373, 38.7070541], [-90.3144266, 38.707163], [-90.3145255, 38.7071788], [-90.31464, 38.7072397], [-90.3148903, 38.707322], [-90.3153999, 38.7075698]]]}}