{"type": "Feature", "properties": {"market_key": 78, "university": "University of Central Oklahoma", "osm_type": "way", "osm_id": 238116988, "osm_name": "University of Central Oklahoma"}, "geometry": {"type": "Polygon", "coordinates": [[[-97.4695394, 35.6635257], [-97.4695564, 35.6618333], [-97.4682159, 35.6618167], [-97.4681957, 35.6585199], [-97.4667051, 35.6585286], [-97.4658053, 35.6585506], [-97.4657363, 35.6529071], [-97.4748496, 35.6529406], [-97.4749259, 35.658729], [-97.4748584, 35.6607778], [-97.4748064, 35.661041], [-97.4748469, 35.6615642], [-97.4747871, 35.6617537], [-97.4746656, 35.6619918], [-97.4742993, 35.6625322], [-97.4741162, 35.6627609], [-97.4738983, 35.6629739], [-97.4737113, 35.6630977], [-97.4733893, 35.6632371], [-97.4731908, 35.6634219], [-97.4729054, 35.6635002], [-97.4725854, 35.6635535], [-97.4722673, 35.6635691], [-97.4695394, 35.6635257]]]}}