{"type": "Feature", "properties": {"market_key": 807, "university": "University at Albany SUNY", "osm_type": "relation", "osm_id": 14368807, "osm_name": "University at Albany, The State University of New York"}, "geometry": {"type": "MultiPolygon", "coordinates": [[[[-73.7790841, 42.6642784], [-73.7805482, 42.6651503], [-73.7812464, 42.6645021], [-73.782205, 42.6635663], [-73.7798186, 42.6628094], [-73.7790515, 42.6635431], [-73.7793778, 42.6637299], [-73.7794194, 42.6638684], [-73.779407, 42.6640085], [-73.7790841, 42.6642784]]], [[[-73.7704523, 42.6598141], [-73.770262, 42.6600018], [-73.7698353, 42.6604227], [-73.7728822, 42.6621702], [-73.7741248, 42.6609516], [-73.7721388, 42.6603368], [-73.7731176, 42.6593993], [-73.7725497, 42.6590656], [-73.7714499, 42.6601268], [-73.7704523, 42.6598141]]], [[[-73.7412214, 42.6308407], [-73.7419724, 42.6301697], [-73.7421655, 42.6298303], [-73.7422192, 42.6294988], [-73.7422192, 42.6287883], [-73.741951, 42.6282358], [-73.741609, 42.6274749], [-73.7415004, 42.6272332], [-73.7409854, 42.6263886], [-73.7395692, 42.6244545], [-73.739376, 42.6245413], [-73.7392151, 42.624715], [-73.7390113, 42.6249597], [-73.7389362, 42.6251097], [-73.7389683, 42.6257334], [-73.7390327, 42.6261596], [-73.7389362, 42.626507], [-73.7386787, 42.6267438], [-73.7380993, 42.627099], [-73.7374985, 42.62762], [-73.7371552, 42.6277306], [-73.7368762, 42.6277542], [-73.7365865, 42.627699], [-73.7363183, 42.6275964], [-73.7356961, 42.6273122], [-73.7353635, 42.6271543], [-73.7350631, 42.6270675], [-73.7346339, 42.627028], [-73.7343764, 42.6270438], [-73.7340224, 42.6271069], [-73.7342691, 42.6282989], [-73.7350201, 42.628812], [-73.7356424, 42.6290883], [-73.7358302, 42.6290883], [-73.736093, 42.6290883], [-73.7364578, 42.6290409], [-73.7369835, 42.6289225], [-73.7371552, 42.6288673], [-73.7379068, 42.6292016], [-73.7385928, 42.6295067], [-73.7389543, 42.6297322], [-73.7400734, 42.6304302], [-73.7403631, 42.6306118], [-73.7412214, 42.6308407]]], [[[-73.8152847, 42.682448], [-73.8135892, 42.6814601], [-73.8142247, 42.6808553], [-73.8157836, 42.6793717], [-73.8162996, 42.6797261], [-73.8164641, 42.6798928], [-73.8165832, 42.680072], [-73.8166399, 42.680293], [-73.8166512, 42.6805723], [-73.8164924, 42.6812184], [-73.815863, 42.6818478], [-73.8153193, 42.6824121], [-73.8152847, 42.682448]]], [[[-73.8305284, 42.688793], [-73.8304737, 42.6887303], [-73.8307268, 42.6884635], [-73.832019, 42.6873084], [-73.8325679, 42.6876143], [-73.8347844, 42.685716], [-73.8310156, 42.6835485], [-73.8314843, 42.6830784], [-73.8298049, 42.6820986], [-73.8307374, 42.6812445], [-73.8308643, 42.6809251], [-73.8307959, 42.6807421], [-73.8305226, 42.680437], [-73.8301613, 42.680193], [-73.8292191, 42.6795434], [-73.8281061, 42.6788041], [-73.8273835, 42.6784057], [-73.8276423, 42.6780073], [-73.8247977, 42.6770853], [-73.8245158, 42.6776907], [-73.8236033, 42.6777523], [-73.8223286, 42.6773756], [-73.8223501, 42.6773421], [-73.8221489, 42.6772632], [-73.8225579, 42.6768299], [-73.8220667, 42.6765538], [-73.8219861, 42.6764946], [-73.8221469, 42.6762383], [-73.8217396, 42.6761064], [-73.821025, 42.6767841], [-73.820604, 42.6765366], [-73.8212277, 42.675944], [-73.8208648, 42.6758289], [-73.8202322, 42.6764211], [-73.8205321, 42.6765898], [-73.820134, 42.6769617], [-73.8207401, 42.6773371], [-73.8205937, 42.6774298], [-73.8202034, 42.6775523], [-73.8198294, 42.6778841], [-73.8194147, 42.6781052], [-73.8189269, 42.6784221], [-73.8186138, 42.6788816], [-73.8179633, 42.6793598], [-73.8176998, 42.6797104], [-73.8178632, 42.6802135], [-73.8179223, 42.6804135], [-73.8180611, 42.6806764], [-73.8180396, 42.6809998], [-73.817851, 42.6814171], [-73.8207422, 42.6832577], [-73.8193871, 42.6845057], [-73.8177794, 42.6846599], [-73.8167187, 42.6849806], [-73.8152271, 42.6866251], [-73.8197886, 42.6892495], [-73.8200361, 42.6893919], [-73.820873, 42.6898099], [-73.8241562, 42.6910881], [-73.8259174, 42.6917737], [-73.8262876, 42.6918722], [-73.8266687, 42.6920689], [-73.8280907, 42.6923827], [-73.8287521, 42.6924487], [-73.8292547, 42.6926272], [-73.8296816, 42.6927191], [-73.8301114, 42.6928556], [-73.8302492, 42.6928695], [-73.8304474, 42.692827], [-73.8305005, 42.6926848], [-73.8305053, 42.6924628], [-73.8305146, 42.6899143], [-73.8305571, 42.6895111], [-73.830589, 42.6894356], [-73.830596, 42.6893602], [-73.830774, 42.689084], [-73.8305284, 42.688793]]], [[[-73.8364283, 42.6899772], [-73.8368652, 42.6895557], [-73.8353554, 42.6887242], [-73.8341644, 42.6898785], [-73.834179, 42.6899332], [-73.8337576, 42.6903038], [-73.8337043, 42.6903535], [-73.8351371, 42.691173], [-73.8364283, 42.6899772]]]]}}