{"type": "Feature", "properties": {"market_key": 82, "university": "Northeastern University", "osm_type": "way", "osm_id": 301210399, "osm_name": "Northeastern University"}, "geometry": {"type": "Polygon", "coordinates": [[[-71.0855454, 42.3409245], [-71.0859517, 42.3405978], [-71.0863726, 42.3404407], [-71.0864222, 42.3405104], [-71.0865064, 42.3406288], [-71.0868662, 42.3409394], [-71.0869317, 42.3410392], [-71.0869588, 42.3410806], [-71.0871605, 42.3409753], [-71.0872409, 42.3409433], [-71.0874903, 42.3408442], [-71.0883858, 42.3404843], [-71.0888305, 42.340302], [-71.0889292, 42.3404465], [-71.0886835, 42.340539], [-71.0879092, 42.3408387], [-71.088149, 42.3411538], [-71.0882592, 42.3411139], [-71.088331, 42.3410879], [-71.0885657, 42.3414098], [-71.0884724, 42.3414487], [-71.0877587, 42.3417371], [-71.0877279, 42.3417501], [-71.0876585, 42.3417796], [-71.0875715, 42.341827], [-71.0874933, 42.3418854], [-71.0873862, 42.3419791], [-71.0873309, 42.3420274], [-71.0873918, 42.3420698], [-71.0875934, 42.3422103], [-71.0876341, 42.3422295], [-71.087682, 42.3422438], [-71.0877418, 42.3422538], [-71.0880772, 42.3422993], [-71.089806, 42.3425684], [-71.090178, 42.3426274], [-71.0902649, 42.3426412], [-71.0901191, 42.3431916], [-71.0902227, 42.343209], [-71.0905287, 42.3432602], [-71.0905979, 42.3430171], [-71.0907082, 42.3426294], [-71.0908273, 42.3422109], [-71.0912731, 42.3422736], [-71.0919485, 42.3412315], [-71.0911544, 42.3409548], [-71.0912255, 42.3408367], [-71.0912807, 42.3407548], [-71.0913187, 42.3406964], [-71.0912682, 42.3406388], [-71.0917067, 42.3398955], [-71.0917639, 42.3397895], [-71.091964, 42.3394758], [-71.0917436, 42.3394062], [-71.0915877, 42.3391908], [-71.0921804, 42.3389594], [-71.092478, 42.338841], [-71.0925411, 42.3387366], [-71.0926897, 42.3387214], [-71.0936459, 42.3383239], [-71.093234, 42.3378111], [-71.093174, 42.3377365], [-71.0936618, 42.3369657], [-71.0930825, 42.3367448], [-71.0929939, 42.336711], [-71.0925044, 42.3365244], [-71.0919705, 42.3363208], [-71.0913272, 42.3360604], [-71.0911768, 42.3359997], [-71.0909952, 42.3359276], [-71.0907968, 42.3358453], [-71.0906022, 42.3357442], [-71.0902008, 42.3355604], [-71.0901975, 42.3355589], [-71.0900686, 42.3354007], [-71.0898105, 42.3351121], [-71.0894219, 42.3346567], [-71.0872596, 42.3357071], [-71.0877405, 42.3362342], [-71.0875323, 42.3364333], [-71.0870903, 42.3366902], [-71.0868785, 42.3364771], [-71.0868473, 42.3364457], [-71.0864081, 42.3366876], [-71.0866494, 42.3369309], [-71.0865323, 42.3369988], [-71.086405, 42.3368718], [-71.0863253, 42.3369155], [-71.0862365, 42.3369641], [-71.0861865, 42.3369885], [-71.0862025, 42.3370042], [-71.0862616, 42.3370631], [-71.086046, 42.3371811], [-71.0856252, 42.3367573], [-71.0852584, 42.3369609], [-71.0852297, 42.3369332], [-71.0850456, 42.3370361], [-71.0850923, 42.3370823], [-71.084595, 42.3373563], [-71.0846272, 42.3373909], [-71.0840472, 42.337752], [-71.0842461, 42.3379559], [-71.084042, 42.3380726], [-71.0841546, 42.3381948], [-71.0838595, 42.3383835], [-71.0842627, 42.338699], [-71.0841943, 42.338745], [-71.0840534, 42.3388436], [-71.0839226, 42.3389465], [-71.0837686, 42.3390701], [-71.0835519, 42.3392413], [-71.0836371, 42.3393002], [-71.0837967, 42.3394122], [-71.0837296, 42.3394663], [-71.0841992, 42.3397886], [-71.0841798, 42.3398042], [-71.0841587, 42.3398212], [-71.084084, 42.3399432], [-71.0841977, 42.3400304], [-71.0842728, 42.3400873], [-71.0843607, 42.340147], [-71.0844765, 42.3402141], [-71.0845587, 42.3402623], [-71.0848377, 42.3404398], [-71.0847333, 42.3405358], [-71.0846566, 42.3406064], [-71.0846071, 42.340652], [-71.0844704, 42.340772], [-71.0843751, 42.340852], [-71.0843209, 42.3408975], [-71.0842086, 42.3409917], [-71.0841577, 42.3410344], [-71.0840291, 42.3411374], [-71.0839065, 42.3412346], [-71.0838078, 42.3413128], [-71.0836878, 42.3414149], [-71.0837483, 42.341459], [-71.0838679, 42.3415063], [-71.0843718, 42.3418626], [-71.0855454, 42.3409245]]]}}