{"type": "Feature", "properties": {"market_key": 823, "university": "Oklahoma State University", "osm_type": "way", "osm_id": 209631175, "osm_name": "Oklahoma State University"}, "geometry": {"type": "Polygon", "coordinates": [[[-97.0876187, 36.1448631], [-97.0875907, 36.1431062], [-97.0919086, 36.1431028], [-97.091833, 36.1376709], [-97.1051403, 36.1376052], [-97.1051458, 36.1230633], [-97.0962085, 36.1230496], [-97.0962533, 36.1222084], [-97.0963602, 36.1222214], [-97.0974322, 36.1223514], [-97.0976911, 36.1223071], [-97.0982766, 36.1222069], [-97.0987373, 36.1216428], [-97.0996682, 36.1208386], [-97.0994214, 36.1180393], [-97.0993295, 36.1179849], [-97.0989268, 36.1177463], [-97.098562, 36.117339], [-97.0985417, 36.1167132], [-97.0983681, 36.1163516], [-97.0983378, 36.1162885], [-97.0935886, 36.116148], [-97.0879277, 36.1161494], [-97.0877135, 36.1161468], [-97.0876353, 36.116146], [-97.0874831, 36.1232162], [-97.0836121, 36.1232085], [-97.0774475, 36.1231639], [-97.0774529, 36.1228476], [-97.0774125, 36.122809], [-97.0767324, 36.1228062], [-97.0765098, 36.1227109], [-97.0763936, 36.1225255], [-97.0764768, 36.1215601], [-97.0761205, 36.1215591], [-97.0761162, 36.1213933], [-97.0757831, 36.1213913], [-97.0754259, 36.1209733], [-97.0753236, 36.1210318], [-97.0750508, 36.121072], [-97.0747736, 36.1210421], [-97.0745491, 36.1209333], [-97.074389, 36.1207677], [-97.0738561, 36.1207709], [-97.0738644, 36.119712], [-97.0725877, 36.119712], [-97.0695294, 36.1197316], [-97.0692297, 36.1197373], [-97.0686408, 36.1197415], [-97.0686376, 36.119627], [-97.0686384, 36.1191086], [-97.0687766, 36.1191026], [-97.0687768, 36.1189835], [-97.0687792, 36.1189095], [-97.0687816, 36.1188354], [-97.0687834, 36.1187232], [-97.0687825, 36.1187062], [-97.0681965, 36.1187214], [-97.0680854, 36.1187225], [-97.0680768, 36.1178437], [-97.0668896, 36.117828], [-97.0669417, 36.1197567], [-97.0667526, 36.1197567], [-97.0656395, 36.1197566], [-97.0652883, 36.1198017], [-97.065191, 36.1198476], [-97.0651251, 36.1199204], [-97.0651262, 36.1200662], [-97.0650999, 36.1237509], [-97.0650936, 36.1246383], [-97.0644931, 36.1246457], [-97.0644863, 36.1244579], [-97.0639337, 36.1244656], [-97.063943, 36.1252233], [-97.0627993, 36.1252099], [-97.0628047, 36.1265969], [-97.0628426, 36.1322299], [-97.0632725, 36.1323035], [-97.0634288, 36.1329769], [-97.0637675, 36.133303], [-97.0640151, 36.1340406], [-97.0642022, 36.1340384], [-97.0688539, 36.1340839], [-97.0688614, 36.1333252], [-97.0693977, 36.1333306], [-97.0694475, 36.1304732], [-97.073008, 36.1304747], [-97.0729565, 36.1326869], [-97.0731334, 36.1377162], [-97.0694974, 36.1377292], [-97.0695075, 36.1386408], [-97.0731123, 36.1386477], [-97.0731136, 36.1386846], [-97.0731438, 36.1431512], [-97.0740839, 36.1431468], [-97.074077, 36.1448961], [-97.0783901, 36.1448886], [-97.0783894, 36.1412991], [-97.0808751, 36.1413073], [-97.080863, 36.1448764], [-97.0876187, 36.1448631]]]}}