{"type": "Feature", "properties": {"market_key": 838, "university": "University of Vermont", "osm_type": "relation", "osm_id": 1610005, "osm_name": "University of Vermont"}, "geometry": {"type": "MultiPolygon", "coordinates": [[[[-73.1967334, 44.4753376], [-73.1969846, 44.4750581], [-73.1964976, 44.4748321], [-73.1974248, 44.4737952], [-73.197524, 44.4736778], [-73.1975343, 44.4736291], [-73.1977855, 44.4724424], [-73.1977998, 44.4721685], [-73.1978142, 44.4718946], [-73.1977958, 44.4716418], [-73.200362, 44.4715915], [-73.2003108, 44.4704867], [-73.2003094, 44.4704554], [-73.2003049, 44.4703553], [-73.2002555, 44.469261], [-73.200251, 44.4691611], [-73.2002344, 44.4687927], [-73.200365, 44.4683762], [-73.2007856, 44.4670356], [-73.2012061, 44.465695], [-73.2005994, 44.465725], [-73.1983636, 44.4658316], [-73.1983852, 44.4665046], [-73.1958188, 44.4666503], [-73.1924407, 44.4667814], [-73.1916289, 44.4668096], [-73.1924584, 44.471177], [-73.192546, 44.4716383], [-73.1925291, 44.471897], [-73.1923855, 44.4721351], [-73.1920044, 44.4725439], [-73.1916234, 44.4729527], [-73.1912845, 44.4732669], [-73.1909615, 44.4735265], [-73.1907023, 44.473909], [-73.1907395, 44.4741352], [-73.1909608, 44.474974], [-73.1911916, 44.4749356], [-73.1926941, 44.4755489], [-73.1931225, 44.4781388], [-73.1941424, 44.4780527], [-73.1941668, 44.478199], [-73.1941265, 44.4782393], [-73.1940943, 44.4782831], [-73.1940706, 44.4783296], [-73.1940648, 44.4783485], [-73.1940558, 44.478378], [-73.1940502, 44.4784273], [-73.194054, 44.4784768], [-73.1940671, 44.4785254], [-73.1940892, 44.4785723], [-73.1941199, 44.4786167], [-73.1941587, 44.4786577], [-73.1942048, 44.4786946], [-73.1942689, 44.4786476], [-73.1943166, 44.4786763], [-73.1943698, 44.4786996], [-73.1944271, 44.4787171], [-73.1944874, 44.4787283], [-73.1945494, 44.4787331], [-73.1946117, 44.4787312], [-73.1946729, 44.4787227], [-73.1947317, 44.4787079], [-73.1947868, 44.478687], [-73.194835, 44.4786617], [-73.1948943, 44.4786218], [-73.1949367, 44.4785753], [-73.1949694, 44.4785089], [-73.1949855, 44.4784477], [-73.1949798, 44.4783911], [-73.1957855, 44.4783239], [-73.195894, 44.4790118], [-73.1960309, 44.4792899], [-73.1960508, 44.4793983], [-73.1960636, 44.4794922], [-73.1960719, 44.4795618], [-73.1960648, 44.4796641], [-73.1960637, 44.4797396], [-73.1960522, 44.4798224], [-73.1960518, 44.4799162], [-73.1960757, 44.4800244], [-73.1960917, 44.4801334], [-73.196644, 44.4802866], [-73.1966885, 44.4805989], [-73.1988607, 44.480505], [-73.199029, 44.4814312], [-73.199898, 44.4813776], [-73.2007375, 44.4813087], [-73.2006584, 44.4808791], [-73.2006721, 44.480814], [-73.2006827, 44.4807636], [-73.2007027, 44.4806686], [-73.2025601, 44.4806523], [-73.2025635, 44.4807863], [-73.2025735, 44.4811738], [-73.202426, 44.4811824], [-73.2025467, 44.4817517], [-73.2030818, 44.4817441], [-73.2030096, 44.4807767], [-73.203, 44.4806485], [-73.2032682, 44.4806456], [-73.2029798, 44.4776907], [-73.2029685, 44.4775343], [-73.2029471, 44.4771161], [-73.2029108, 44.4764056], [-73.2028987, 44.4761436], [-73.2034485, 44.4761274], [-73.203304, 44.4740996], [-73.202379, 44.4741405], [-73.2025212, 44.4764168], [-73.2011593, 44.4764745], [-73.2011524, 44.4762895], [-73.2011365, 44.4758654], [-73.2007331, 44.4758806], [-73.2005645, 44.4758869], [-73.2004948, 44.4745649], [-73.1991202, 44.4745912], [-73.1991631, 44.475464], [-73.1989834, 44.4757721], [-73.1987087, 44.476111], [-73.1985285, 44.4763406], [-73.1980484, 44.4761697], [-73.1965748, 44.4755109], [-73.1967334, 44.4753376]]], [[[-73.1860314, 44.481698], [-73.1878003, 44.4837068], [-73.1881369, 44.4835623], [-73.1884288, 44.4839111], [-73.188626, 44.4838265], [-73.1883338, 44.4834778], [-73.1893196, 44.4830545], [-73.1896109, 44.4834005], [-73.189958, 44.4832574], [-73.1896533, 44.4829034], [-73.1887217, 44.4818212], [-73.1914132, 44.4807605], [-73.1913488, 44.4805133], [-73.1920117, 44.4803963], [-73.1919949, 44.480316], [-73.1913282, 44.4804337], [-73.1912703, 44.4802113], [-73.1900784, 44.4802923], [-73.1897416, 44.4796757], [-73.1890859, 44.4798554], [-73.1865698, 44.4804949], [-73.1862977, 44.4810423], [-73.1860314, 44.481698]]], [[[-73.1869256, 44.474188], [-73.18712, 44.4742104], [-73.1872993, 44.4742627], [-73.1875435, 44.4743864], [-73.1877629, 44.4746339], [-73.1879222, 44.4748435], [-73.1881133, 44.4750556], [-73.1883079, 44.4751718], [-73.1884974, 44.4752323], [-73.1887292, 44.4771148], [-73.1903856, 44.4770104], [-73.1902013, 44.4762984], [-73.1903844, 44.4762868], [-73.1903426, 44.476125], [-73.1909121, 44.4760887], [-73.1908251, 44.4757488], [-73.1902545, 44.4757851], [-73.1900861, 44.475179], [-73.1906698, 44.4751419], [-73.190094, 44.4729802], [-73.1898618, 44.4726244], [-73.189631, 44.4724629], [-73.1885208, 44.4719611], [-73.1869483, 44.4737395], [-73.1869256, 44.474188]]], [[[-73.1913148, 44.4728641], [-73.1905154, 44.4724845], [-73.1906204, 44.4723731], [-73.190685, 44.4723124], [-73.1908038, 44.4722284], [-73.190859, 44.4721973], [-73.1909246, 44.4721642], [-73.1910103, 44.4721311], [-73.1911264, 44.4720939], [-73.1911949, 44.4720814], [-73.191295, 44.4720651], [-73.1913618, 44.47206], [-73.1914373, 44.4720613], [-73.1915059, 44.4720739], [-73.1915726, 44.4720953], [-73.1916236, 44.4721217], [-73.1916798, 44.4721632], [-73.1917096, 44.4722009], [-73.191736, 44.4722537], [-73.19175, 44.4722901], [-73.1917482, 44.4723278], [-73.1917412, 44.4723655], [-73.1917236, 44.4724183], [-73.1916888, 44.4724623], [-73.1913148, 44.4728641]]], [[[-73.1910858, 44.4730928], [-73.1908635, 44.4732806], [-73.1904205, 44.473185], [-73.190337, 44.4728625], [-73.1904159, 44.4727741], [-73.1910858, 44.4730928]]], [[[-73.1919143, 44.4841173], [-73.1910414, 44.484504], [-73.1906999, 44.4846285], [-73.1906215, 44.4845032], [-73.190963, 44.4843787], [-73.1906494, 44.4838775], [-73.1903079, 44.4840019], [-73.1902295, 44.4838766], [-73.1902413, 44.4838722], [-73.1901605, 44.4837589], [-73.1901726, 44.4837538], [-73.1902075, 44.4837957], [-73.1906126, 44.4836215], [-73.1908316, 44.4838825], [-73.1909956, 44.483812], [-73.1907177, 44.4834809], [-73.1908493, 44.4834243], [-73.1906713, 44.4832123], [-73.1910002, 44.4830708], [-73.1938586, 44.4818413], [-73.1947658, 44.4829237], [-73.1953584, 44.4826699], [-73.1950453, 44.4822953], [-73.1951012, 44.4822714], [-73.1948531, 44.4819748], [-73.1951979, 44.4818263], [-73.1954152, 44.4820841], [-73.1957579, 44.4819367], [-73.1960499, 44.4822845], [-73.1966002, 44.4829459], [-73.1957366, 44.4831343], [-73.1954003, 44.4829953], [-73.1939644, 44.4835897], [-73.1943867, 44.484683], [-73.1937439, 44.4851169], [-73.1934192, 44.4853172], [-73.1930616, 44.485538], [-73.1922903, 44.4845476], [-73.1921172, 44.48435], [-73.1919143, 44.4841173]]], [[[-73.1922493, 44.471683], [-73.1917297, 44.471737], [-73.1917196, 44.4716837], [-73.1910794, 44.4717492], [-73.1912161, 44.471826], [-73.1912868, 44.4718207], [-73.1913178, 44.4718199], [-73.1914674, 44.4718288], [-73.1917595, 44.4718726], [-73.1919231, 44.4718971], [-73.1919745, 44.4719007], [-73.1920227, 44.4718965], [-73.192065, 44.4718856], [-73.1921099, 44.4718638], [-73.1921471, 44.4718341], [-73.1921678, 44.4718082], [-73.1922493, 44.471683]]]]}}