{"type": "Feature", "properties": {"market_key": 843, "university": "East Tennessee State University", "osm_type": "way", "osm_id": 646115798, "osm_name": "East Tennessee State University"}, "geometry": {"type": "Polygon", "coordinates": [[[-82.3619936, 36.3039067], [-82.3622065, 36.3039739], [-82.362276, 36.3039973], [-82.3624082, 36.3040629], [-82.3629206, 36.3043452], [-82.3631819, 36.304593], [-82.3632295, 36.3046677], [-82.3635281, 36.3050671], [-82.3637998, 36.3055482], [-82.3640897, 36.3060291], [-82.3640948, 36.3060383], [-82.3641764, 36.3061839], [-82.3642566, 36.306327], [-82.364645, 36.3070294], [-82.364803, 36.3072864], [-82.3648928, 36.3074784], [-82.3649715, 36.3076418], [-82.3650729, 36.3077896], [-82.365083, 36.3077893], [-82.3651554, 36.3078276], [-82.3651626, 36.3078436], [-82.365194, 36.3078436], [-82.3652221, 36.3078355], [-82.3652486, 36.3078265], [-82.3652956, 36.3078084], [-82.3653579, 36.3077747], [-82.3657971, 36.3075246], [-82.3661844, 36.3073054], [-82.3663775, 36.3072108], [-82.3665411, 36.3071324], [-82.3668445, 36.3069584], [-82.3674867, 36.3065922], [-82.3678346, 36.3063397], [-82.3687546, 36.3058221], [-82.3688887, 36.3057604], [-82.3692703, 36.3055724], [-82.3694987, 36.3054377], [-82.3699885, 36.3051582], [-82.3703032, 36.3049648], [-82.370711, 36.3047276], [-82.3707912, 36.3048165], [-82.3715771, 36.3057059], [-82.3717316, 36.3056035], [-82.3719159, 36.3058148], [-82.3722849, 36.3056418], [-82.3725144, 36.3055356], [-82.3726287, 36.3054767], [-82.3727497, 36.3054009], [-82.3728542, 36.3053064], [-82.3717983, 36.3041059], [-82.3721848, 36.303889], [-82.3724004, 36.3037172], [-82.373714, 36.303125], [-82.3741264, 36.3029412], [-82.3743917, 36.3027957], [-82.3746239, 36.3026932], [-82.3748584, 36.3026245], [-82.374896, 36.3026017], [-82.3748948, 36.3025639], [-82.3747701, 36.3022833], [-82.3754782, 36.3017102], [-82.3763381, 36.3010217], [-82.3777295, 36.3000307], [-82.3776965, 36.2999962], [-82.3780894, 36.2997827], [-82.3781567, 36.2998074], [-82.3787545, 36.2994838], [-82.3790543, 36.2994127], [-82.3796524, 36.2988226], [-82.3797731, 36.2986497], [-82.3798026, 36.2985718], [-82.3798373, 36.2985497], [-82.3799072, 36.2984796], [-82.3799958, 36.2983006], [-82.3802914, 36.2977614], [-82.3802839, 36.2976924], [-82.3802331, 36.2976408], [-82.3801482, 36.2976175], [-82.3799628, 36.2975705], [-82.3795653, 36.2974344], [-82.3792228, 36.297339], [-82.378721, 36.2972128], [-82.3781788, 36.2971144], [-82.3778426, 36.2970725], [-82.3776405, 36.2970558], [-82.3768502, 36.2970272], [-82.3762346, 36.2970572], [-82.3757695, 36.2971063], [-82.375444, 36.2971451], [-82.3747164, 36.2973101], [-82.3740748, 36.2975041], [-82.3738827, 36.2975774], [-82.3731779, 36.297871], [-82.3730215, 36.2979509], [-82.3723595, 36.2982649], [-82.3722892, 36.2983098], [-82.3720958, 36.2984265], [-82.3716675, 36.2988031], [-82.3711536, 36.2983283], [-82.3695253, 36.2992175], [-82.3689086, 36.2995542], [-82.3669463, 36.3005997], [-82.3656954, 36.3012735], [-82.3643931, 36.3020049], [-82.3628154, 36.3030039], [-82.3622319, 36.3032274], [-82.3618018, 36.3033568], [-82.3614113, 36.3034398], [-82.361007, 36.3035058], [-82.361011, 36.3037971], [-82.3615005, 36.3038163], [-82.3618614, 36.3038724], [-82.3619936, 36.3039067]]]}}