{"type": "Feature", "properties": {"market_key": 847, "university": "University of North Carolina Greensboro", "osm_type": "way", "osm_id": 479967959, "osm_name": "University of North Carolina - Greensboro"}, "geometry": {"type": "Polygon", "coordinates": [[[-79.816242, 36.0643821], [-79.8160275, 36.0631246], [-79.8148398, 36.0633674], [-79.8104624, 36.0639138], [-79.8072484, 36.064316], [-79.8052884, 36.0646163], [-79.8056237, 36.0666196], [-79.8056273, 36.067965], [-79.8056467, 36.0679901], [-79.8056735, 36.0680011], [-79.8061438, 36.068025], [-79.8061362, 36.0681555], [-79.8061128, 36.0685543], [-79.8062947, 36.0685636], [-79.8062665, 36.0689277], [-79.8061599, 36.0703065], [-79.8068538, 36.0703435], [-79.806798, 36.0711499], [-79.8060909, 36.0711128], [-79.8059961, 36.0724922], [-79.8066988, 36.0725293], [-79.8066768, 36.0727928], [-79.8066987, 36.0729324], [-79.8067639, 36.0730751], [-79.806865, 36.0732336], [-79.8069332, 36.0732692], [-79.8070257, 36.0732924], [-79.8083109, 36.0733632], [-79.8109832, 36.0734875], [-79.8130347, 36.0735829], [-79.8132227, 36.0735888], [-79.8133534, 36.0735671], [-79.8134302, 36.0735305], [-79.8135211, 36.0734645], [-79.813595, 36.0733667], [-79.8136222, 36.0732646], [-79.8136418, 36.0731322], [-79.8136646, 36.0729847], [-79.8137002, 36.0728893], [-79.8137468, 36.072803], [-79.8138211, 36.0727225], [-79.8139395, 36.0726476], [-79.8140992, 36.0725924], [-79.8142819, 36.0725442], [-79.8144072, 36.072507], [-79.8145058, 36.0724562], [-79.8145734, 36.0724114], [-79.8146441, 36.0723506], [-79.8147119, 36.0722752], [-79.8147656, 36.0721762], [-79.8148015, 36.0720427], [-79.8148288, 36.0717783], [-79.8148922, 36.0707604], [-79.815262, 36.064654], [-79.816242, 36.0643821]]]}}