{"type": "Feature", "properties": {"market_key": 86, "university": "University of Missouri", "osm_type": "relation", "osm_id": 18446441, "osm_name": "University of Missouri"}, "geometry": {"type": "MultiPolygon", "coordinates": [[[[-92.3584871, 38.9264458], [-92.3572977, 38.9263532], [-92.3565449, 38.9260832], [-92.3549366, 38.9263147], [-92.353971, 38.926515], [-92.3527479, 38.9271493], [-92.3517394, 38.9271493], [-92.3511487, 38.9270064], [-92.350645, 38.9268822], [-92.3494649, 38.9263647], [-92.3484349, 38.9255635], [-92.3480405, 38.9251475], [-92.3478126, 38.9249959], [-92.3472976, 38.9247789], [-92.3463547, 38.9245246], [-92.3459504, 38.9242678], [-92.345125, 38.9236781], [-92.3448623, 38.923665], [-92.3446399, 38.9237646], [-92.3440957, 38.9240053], [-92.343947, 38.9233807], [-92.3431739, 38.9240284], [-92.3429212, 38.9238896], [-92.3417655, 38.9244777], [-92.3405295, 38.9251155], [-92.340582, 38.925436], [-92.3405894, 38.9258163], [-92.3405202, 38.926281], [-92.3404059, 38.9265855], [-92.3401697, 38.9270876], [-92.3400482, 38.927346], [-92.3397225, 38.9280222], [-92.33858, 38.9275792], [-92.3388179, 38.9265845], [-92.333882, 38.9259369], [-92.3283068, 38.9251157], [-92.325824, 38.9247455], [-92.3257756, 38.9303372], [-92.3257756, 38.9309297], [-92.3255717, 38.9313804], [-92.3253786, 38.931564], [-92.3248744, 38.9315306], [-92.3243916, 38.9313721], [-92.3238229, 38.9309548], [-92.3233655, 38.9306619], [-92.3232007, 38.93002], [-92.3231389, 38.9298883], [-92.3228571, 38.9299512], [-92.3211828, 38.9303262], [-92.3218812, 38.9311967], [-92.3222414, 38.9319135], [-92.3210336, 38.9328905], [-92.3209692, 38.9340506], [-92.3204311, 38.9342944], [-92.3195271, 38.9342044], [-92.3184653, 38.9339182], [-92.3171512, 38.9337301], [-92.3167097, 38.9336893], [-92.3160579, 38.9333785], [-92.3158161, 38.933722], [-92.3135769, 38.9329942], [-92.3098554, 38.9350467], [-92.309109, 38.9354229], [-92.3088988, 38.9361343], [-92.3095295, 38.9371728], [-92.3114428, 38.9389227], [-92.3116005, 38.9398221], [-92.3114428, 38.9411549], [-92.3111618, 38.9419253], [-92.3110223, 38.9423078], [-92.3136047, 38.9423039], [-92.3163838, 38.9422996], [-92.3163733, 38.9428229], [-92.3170671, 38.9429619], [-92.3199551, 38.9430053], [-92.3202579, 38.9430098], [-92.3205957, 38.9430011], [-92.3207159, 38.9430084], [-92.3219283, 38.9430818], [-92.3217716, 38.9463537], [-92.3221352, 38.9463695], [-92.323358, 38.9464242], [-92.3233797, 38.9464244], [-92.323342, 38.9476514], [-92.3234166, 38.9476518], [-92.3246888, 38.947659], [-92.3246942, 38.9479565], [-92.3250747, 38.9479589], [-92.3250778, 38.9482188], [-92.3252118, 38.9482201], [-92.3252141, 38.9478247], [-92.3255806, 38.9478314], [-92.3255677, 38.9482543], [-92.325567, 38.9484712], [-92.3256429, 38.9484726], [-92.3260238, 38.9484794], [-92.3262299, 38.9484831], [-92.3265669, 38.9484891], [-92.3265766, 38.9477379], [-92.3275207, 38.9477437], [-92.3275056, 38.9484353], [-92.327741, 38.94844], [-92.3286939, 38.9484671], [-92.3287898, 38.9484686], [-92.3298432, 38.9484739], [-92.3298405, 38.9489954], [-92.3298378, 38.9494501], [-92.3318468, 38.9494835], [-92.3318495, 38.9484864], [-92.332579, 38.9484613], [-92.3331034, 38.9482882], [-92.3337016, 38.9481338], [-92.3340087, 38.94809], [-92.3341066, 38.9480504], [-92.3341575, 38.9479857], [-92.3343235, 38.9457059], [-92.335083, 38.945138], [-92.3356105, 38.9448065], [-92.3364191, 38.9445164], [-92.3366277, 38.9444919], [-92.338183, 38.944038], [-92.3389615, 38.9435039], [-92.3368772, 38.9431706], [-92.3367102, 38.9431571], [-92.335558, 38.9430126], [-92.3351492, 38.9429432], [-92.3349127, 38.9429227], [-92.3347022, 38.9428947], [-92.3345066, 38.9428734], [-92.3338186, 38.9427987], [-92.3335177, 38.9428549], [-92.3332562, 38.9424053], [-92.3332243, 38.9422265], [-92.3332228, 38.9419345], [-92.3332556, 38.9417553], [-92.3338897, 38.9382879], [-92.3340992, 38.9375802], [-92.33506, 38.9376702], [-92.3432666, 38.9378783], [-92.3460988, 38.9382946], [-92.3479565, 38.9387098], [-92.3481396, 38.9385969], [-92.3484177, 38.9384255], [-92.3484992, 38.9383739], [-92.3486113, 38.9383062], [-92.3492283, 38.9378147], [-92.3497189, 38.9371787], [-92.3501102, 38.936695], [-92.3512577, 38.9352764], [-92.3517909, 38.934696], [-92.3527397, 38.9335186], [-92.3535046, 38.9325694], [-92.354246, 38.9317896], [-92.3559557, 38.9304018], [-92.356378, 38.9300368], [-92.3567847, 38.9296853], [-92.3574944, 38.9290718], [-92.3599698, 38.926961], [-92.360402, 38.9265975], [-92.3615234, 38.9256541], [-92.3623783, 38.9249485], [-92.3616795, 38.9251683], [-92.3608247, 38.9257871], [-92.3593974, 38.9263827], [-92.3584871, 38.9264458]]], [[[-92.2852174, 38.9127524], [-92.285094, 38.9174356], [-92.2850779, 38.9202612], [-92.2851208, 38.921555], [-92.2794506, 38.9213171], [-92.2794077, 38.9222436], [-92.2759068, 38.9221837], [-92.2759993, 38.9189092], [-92.2762211, 38.9126092], [-92.2852174, 38.9127524]]], [[[-92.2856329, 38.9054735], [-92.2855288, 38.9102693], [-92.2854169, 38.9125359], [-92.2843522, 38.9125395], [-92.2844035, 38.9109515], [-92.2811859, 38.9109116], [-92.2811766, 38.9114457], [-92.2777908, 38.9114094], [-92.2778002, 38.9108607], [-92.2762824, 38.9108352], [-92.2762591, 38.9113294], [-92.2744004, 38.911304], [-92.274363, 38.9123941], [-92.2575654, 38.9122645], [-92.2576542, 38.9115887], [-92.2578363, 38.9111889], [-92.2580363, 38.9109012], [-92.2583931, 38.9105714], [-92.258782, 38.9103147], [-92.2591977, 38.9101289], [-92.2649081, 38.907902], [-92.2681804, 38.9065891], [-92.2685479, 38.9064681], [-92.2689261, 38.9064054], [-92.27167, 38.9063219], [-92.2737621, 38.906251], [-92.2743147, 38.9061299], [-92.2748028, 38.9059295], [-92.2753071, 38.905629], [-92.2757094, 38.9052909], [-92.2856329, 38.9054735]]], [[[-92.2777764, 38.9008062], [-92.2776441, 38.9009328], [-92.2770862, 38.901559], [-92.2768984, 38.9019264], [-92.2760723, 38.9046858], [-92.2758792, 38.9051074], [-92.2856864, 38.9053464], [-92.2857506, 38.9037971], [-92.2869984, 38.9028991], [-92.2858527, 38.9021653], [-92.285067, 38.9016337], [-92.2847662, 38.901507], [-92.284476, 38.9014244], [-92.2840796, 38.9013748], [-92.2812695, 38.9015924], [-92.2807669, 38.9015676], [-92.2790645, 38.9012399], [-92.2786505, 38.9010884], [-92.2780417, 38.9007331], [-92.2777764, 38.9008062]]], [[[-92.2584647, 38.9049932], [-92.2752868, 38.9051071], [-92.2755979, 38.9046145], [-92.2762202, 38.9022225], [-92.2765152, 38.9014084], [-92.2774593, 38.9004983], [-92.2768907, 38.8999932], [-92.2762899, 38.8992041], [-92.2750346, 38.8963317], [-92.271467, 38.8963073], [-92.2707592, 38.8963025], [-92.2708343, 38.8922025], [-92.267601, 38.8896288], [-92.2665724, 38.8888472], [-92.2654463, 38.8881858], [-92.2653934, 38.88792], [-92.2654748, 38.887727], [-92.2628566, 38.8859264], [-92.262385, 38.886227], [-92.2618362, 38.8865909], [-92.2615394, 38.8866701], [-92.2591082, 38.8866416], [-92.2585704, 38.8865844], [-92.2585501, 38.8869989], [-92.2580337, 38.8869799], [-92.2579687, 38.8895969], [-92.2580907, 38.8912361], [-92.2578305, 38.9010637], [-92.2578386, 38.9014497], [-92.2585379, 38.902943], [-92.258668, 38.9033037], [-92.2584647, 38.9049932]]], [[[-92.2777569, 38.9001674], [-92.2780619, 38.9001231], [-92.2793872, 38.8989556], [-92.27931, 38.8986076], [-92.2784598, 38.8977998], [-92.277623, 38.896564], [-92.2774138, 38.8964179], [-92.2760834, 38.8969314], [-92.2758634, 38.8965056], [-92.2755201, 38.8965807], [-92.2753967, 38.8967268], [-92.2762389, 38.8981964], [-92.276711, 38.8992067], [-92.2771402, 38.8997161], [-92.2777569, 38.9001674]]], [[[-92.2581636, 38.9103704], [-92.257748, 38.9100215], [-92.2576732, 38.9097417], [-92.2576592, 38.9068237], [-92.2584391, 38.9051847], [-92.2752137, 38.9052683], [-92.2745366, 38.9056935], [-92.2736073, 38.905966], [-92.2687963, 38.9061231], [-92.2680238, 38.9063443], [-92.2588238, 38.9099969], [-92.2581636, 38.9103704]]], [[[-92.2799496, 38.8991259], [-92.2782643, 38.90038], [-92.2783259, 38.9005886], [-92.2789329, 38.9009075], [-92.2793735, 38.9010298], [-92.2805874, 38.9012792], [-92.2810311, 38.9013271], [-92.283613, 38.9011305], [-92.2841399, 38.9011161], [-92.2848454, 38.9012264], [-92.2830338, 38.9001114], [-92.2813577, 38.899464], [-92.2799496, 38.8991259]]]]}}