{"type": "Feature", "properties": {"market_key": 896, "university": "University of Notre Dame", "osm_type": "relation", "osm_id": 16066037, "osm_name": "University of Notre Dame du Lac"}, "geometry": {"type": "MultiPolygon", "coordinates": [[[[-86.2308354, 41.6927604], [-86.2306511, 41.6927847], [-86.2304604, 41.6928171], [-86.230216, 41.6928707], [-86.2299549, 41.6929447], [-86.2296521, 41.6930469], [-86.2294319, 41.693135], [-86.2292536, 41.6932189], [-86.2290138, 41.6933523], [-86.228742, 41.6935062], [-86.2286532, 41.6935554], [-86.2283967, 41.6936911], [-86.2283182, 41.6937296], [-86.2282661, 41.6937541], [-86.2280584, 41.6938425], [-86.2279121, 41.6938967], [-86.2277552, 41.6939459], [-86.227437, 41.6940345], [-86.2273463, 41.6940465], [-86.2271077, 41.6940714], [-86.2269868, 41.6940849], [-86.2268835, 41.6941008], [-86.2268208, 41.6941128], [-86.2267304, 41.6941357], [-86.2266769, 41.6941279], [-86.2266382, 41.6941099], [-86.2266117, 41.6940901], [-86.2266033, 41.6940641], [-86.2265216, 41.6934611], [-86.2264931, 41.693354], [-86.2264498, 41.6932248], [-86.2263838, 41.6930605], [-86.2263705, 41.6930345], [-86.2263898, 41.6930135], [-86.2263786, 41.6929941], [-86.2276015, 41.6923313], [-86.2279495, 41.6921416], [-86.2281099, 41.6920861], [-86.2282133, 41.6920395], [-86.2283267, 41.6919792], [-86.2285121, 41.6918365], [-86.2297375, 41.6911111], [-86.2298171, 41.6910597], [-86.2298318, 41.6910575], [-86.2299331, 41.6911243], [-86.2301759, 41.6912278], [-86.2303233, 41.6912577], [-86.2302843, 41.6914275], [-86.2302883, 41.6914806], [-86.230268, 41.6916263], [-86.2302863, 41.6917052], [-86.2303818, 41.6918175], [-86.2305038, 41.6918889], [-86.2306461, 41.6921211], [-86.2307843, 41.6923367], [-86.2308554, 41.6925218], [-86.2308432, 41.6925674], [-86.2308354, 41.6927604]]], [[[-86.2450575, 41.6943008], [-86.2444609, 41.6943096], [-86.2435166, 41.6943155], [-86.2425816, 41.6943248], [-86.2425514, 41.6932809], [-86.241551, 41.6932924], [-86.2409176, 41.6933019], [-86.2405167, 41.6933079], [-86.2399954, 41.6933157], [-86.2395084, 41.693323], [-86.2389292, 41.6933306], [-86.2389207, 41.692999], [-86.23892, 41.692962], [-86.2383928, 41.6929664], [-86.2382254, 41.6929686], [-86.2366187, 41.6929898], [-86.2359539, 41.6929986], [-86.2352459, 41.6930356], [-86.2352255, 41.6930367], [-86.2351296, 41.6930344], [-86.234791, 41.6930264], [-86.2344544, 41.6929924], [-86.233667, 41.6929903], [-86.2324981, 41.6929873], [-86.2323386, 41.6929926], [-86.2316249, 41.6930161], [-86.2312741, 41.6930164], [-86.2310263, 41.6930135], [-86.230917, 41.6930251], [-86.2306673, 41.693063], [-86.2304254, 41.693114], [-86.2301522, 41.6931839], [-86.229924, 41.6932655], [-86.2298245, 41.6933223], [-86.2293777, 41.6935452], [-86.2284861, 41.6939793], [-86.2281466, 41.6941207], [-86.2277701, 41.694243], [-86.2276101, 41.6942867], [-86.227372, 41.6943392], [-86.2271126, 41.6943858], [-86.226818, 41.694428], [-86.2266996, 41.6944495], [-86.2266371, 41.6944772], [-86.2265981, 41.6945121], [-86.2265688, 41.6945646], [-86.2265571, 41.6946665], [-86.2265431, 41.6948226], [-86.2262341, 41.6955581], [-86.2256607, 41.6968008], [-86.2255924, 41.6970091], [-86.2255347, 41.6973239], [-86.225536, 41.6975143], [-86.2255468, 41.6976564], [-86.2255633, 41.6979252], [-86.2255699, 41.6982156], [-86.2255625, 41.6987497], [-86.2255744, 41.6993049], [-86.2255804, 41.6995918], [-86.2256163, 41.7000007], [-86.2256604, 41.7002685], [-86.2257598, 41.7006661], [-86.2259115, 41.7010822], [-86.2261157, 41.7015993], [-86.2262316, 41.7020072], [-86.2263005, 41.7023945], [-86.2263254, 41.7026891], [-86.2263419, 41.7032144], [-86.2263944, 41.7039044], [-86.2263971, 41.70444], [-86.2264054, 41.7046955], [-86.2264192, 41.7049014], [-86.2264413, 41.7050518], [-86.2265158, 41.7053237], [-86.2267006, 41.7057357], [-86.2271559, 41.7066709], [-86.2275146, 41.7073939], [-86.2277353, 41.7079748], [-86.2278125, 41.7082137], [-86.2278539, 41.7084032], [-86.2278947, 41.708545], [-86.2279161, 41.7086018], [-86.2279649, 41.7086688], [-86.2280176, 41.708714], [-86.2281112, 41.7087547], [-86.2281126, 41.7089566], [-86.2280036, 41.7089712], [-86.2278912, 41.7090042], [-86.2277925, 41.7090325], [-86.2277153, 41.7090371], [-86.2276304, 41.7090278], [-86.2275415, 41.7089944], [-86.2274703, 41.7090382], [-86.22705, 41.7090414], [-86.2264904, 41.7090456], [-86.2254452, 41.7090516], [-86.2249195, 41.7090486], [-86.2245298, 41.709062], [-86.2232537, 41.7090684], [-86.222675, 41.7090679], [-86.2219854, 41.7090539], [-86.220818, 41.7090461], [-86.2203561, 41.7090479], [-86.2186393, 41.70908], [-86.2169548, 41.7090871], [-86.2168885, 41.7091146], [-86.2168296, 41.7091377], [-86.2169485, 41.7139461], [-86.2169544, 41.7141865], [-86.2169667, 41.7146836], [-86.2177897, 41.71465], [-86.2178228, 41.7151299], [-86.2178616, 41.7156932], [-86.2179601, 41.715697], [-86.2287921, 41.7161126], [-86.2287559, 41.7143409], [-86.2287321, 41.7125212], [-86.2356318, 41.7124199], [-86.2357421, 41.7124183], [-86.2357851, 41.7124177], [-86.2357855, 41.713043], [-86.2358559, 41.7157035], [-86.2358753, 41.7157941], [-86.2359773, 41.7158559], [-86.2454502, 41.7158477], [-86.245457, 41.714976], [-86.2454566, 41.7149574], [-86.2454466, 41.7145371], [-86.2454459, 41.7145065], [-86.2459697, 41.7145045], [-86.2475094, 41.7144984], [-86.2475046, 41.7141087], [-86.2471796, 41.7141109], [-86.2471822, 41.7140051], [-86.2471739, 41.7134977], [-86.2491021, 41.7134917], [-86.2490877, 41.7124104], [-86.2501971, 41.7124014], [-86.2501214, 41.710584], [-86.2499752, 41.6998744], [-86.2499314, 41.697293], [-86.2499432, 41.6969842], [-86.2499822, 41.6966433], [-86.2500836, 41.6961538], [-86.2501929, 41.6957925], [-86.2503132, 41.6954556], [-86.2503646, 41.6953118], [-86.2504387, 41.6950787], [-86.2504972, 41.6948223], [-86.2505558, 41.694528], [-86.2505792, 41.6943678], [-86.2505597, 41.6943153], [-86.2505011, 41.6942716], [-86.2502064, 41.6942803], [-86.2498429, 41.6942861], [-86.2495617, 41.694285], [-86.2490143, 41.6942689], [-86.2450575, 41.6943008]], [[-86.2290496, 41.7029316], [-86.2290573, 41.7033613], [-86.2295905, 41.703363], [-86.2295871, 41.7029301], [-86.2290496, 41.7029316]], [[-86.2289284, 41.7034265], [-86.2283571, 41.7034295], [-86.2283545, 41.7027098], [-86.2289228, 41.70271], [-86.2289284, 41.7034265]], [[-86.229053, 41.7022787], [-86.2290479, 41.7020436], [-86.229566, 41.7020395], [-86.2295716, 41.7022745], [-86.229053, 41.7022787]]]]}}