{"type": "Feature", "properties": {"market_key": 903, "university": "University of Toledo", "osm_type": "way", "osm_id": 91792696, "osm_name": "The University of Toledo"}, "geometry": {"type": "Polygon", "coordinates": [[[-83.6219397, 41.6595139], [-83.6207199, 41.6595206], [-83.6197061, 41.6594091], [-83.6193372, 41.6593651], [-83.6192958, 41.6594208], [-83.6191321, 41.6595292], [-83.6190415, 41.6595297], [-83.6189936, 41.65953], [-83.6190074, 41.6601489], [-83.6190174, 41.6605997], [-83.6190237, 41.6608835], [-83.6190706, 41.661168], [-83.6190767, 41.6612391], [-83.6190805, 41.661283], [-83.6191674, 41.6621956], [-83.6191002, 41.6621974], [-83.61909, 41.6621979], [-83.6190866, 41.662198], [-83.6184207, 41.6622117], [-83.6184289, 41.6624349], [-83.6184229, 41.6624416], [-83.6184142, 41.6624452], [-83.6183986, 41.6624468], [-83.6183878, 41.6624463], [-83.6183806, 41.6624436], [-83.6183786, 41.6624404], [-83.618374, 41.662394], [-83.6177778, 41.662403], [-83.6177208, 41.6624046], [-83.6175208, 41.6624093], [-83.6174439, 41.66241], [-83.6173626, 41.6624113], [-83.6173652, 41.662494], [-83.6173797, 41.6629548], [-83.614977, 41.6629817], [-83.6149917, 41.6635172], [-83.6143997, 41.6635235], [-83.6144201, 41.6642251], [-83.6131739, 41.6642431], [-83.6131581, 41.6636986], [-83.6119949, 41.6637138], [-83.611998, 41.6638884], [-83.6113646, 41.6639039], [-83.6113712, 41.6642052], [-83.6113744, 41.6642895], [-83.6100252, 41.664322], [-83.6101363, 41.664103], [-83.6101959, 41.6639512], [-83.6102315, 41.6637726], [-83.6102256, 41.6635691], [-83.6102202, 41.6633351], [-83.6102154, 41.663178], [-83.6102125, 41.6630243], [-83.6098829, 41.6630368], [-83.6084978, 41.6630845], [-83.6084978, 41.6630599], [-83.6084957, 41.6616862], [-83.6084954, 41.6614793], [-83.6084954, 41.6614581], [-83.6085074, 41.6606586], [-83.6085112, 41.6604764], [-83.6085194, 41.6602343], [-83.6085241, 41.6600952], [-83.608563, 41.6589531], [-83.6076778, 41.6589411], [-83.6076718, 41.6586764], [-83.6076365, 41.6570952], [-83.6075801, 41.6570976], [-83.6052458, 41.6571173], [-83.6052436, 41.6569362], [-83.6052009, 41.6561239], [-83.6052248, 41.656095], [-83.6052561, 41.6560753], [-83.6052972, 41.6560564], [-83.6053473, 41.6560404], [-83.6053951, 41.6560286], [-83.6054533, 41.6560141], [-83.6054061, 41.6532704], [-83.6054028, 41.6530786], [-83.6054021, 41.65304], [-83.605406, 41.653016], [-83.6054133, 41.6529952], [-83.6054225, 41.6529804], [-83.6054327, 41.6529692], [-83.6054429, 41.6529628], [-83.6054636, 41.6529505], [-83.6083537, 41.6529927], [-83.6131319, 41.6530059], [-83.6134391, 41.6530048], [-83.6215211, 41.6529486], [-83.6216243, 41.652953], [-83.6217186, 41.6530059], [-83.6217393, 41.6530609], [-83.6217923, 41.6543978], [-83.621885, 41.6566102], [-83.6218732, 41.6566076], [-83.6205598, 41.6563224], [-83.6205605, 41.6563535], [-83.6205626, 41.6564558], [-83.6205698, 41.6571454], [-83.6205591, 41.6573315], [-83.6206728, 41.6573762], [-83.6208263, 41.6574302], [-83.6210669, 41.6575111], [-83.6211724, 41.657545], [-83.6215282, 41.657674], [-83.6217588, 41.6577576], [-83.6219033, 41.65781], [-83.6219065, 41.6579611], [-83.621909, 41.6580768], [-83.6219098, 41.6581142], [-83.6219353, 41.6593095], [-83.6219364, 41.6593605], [-83.6219397, 41.6595139]]]}}