{"type": "Feature", "properties": {"market_key": 914, "university": "Middle Tennessee State University", "osm_type": "way", "osm_id": 285022926, "osm_name": "Middle Tennessee State University"}, "geometry": {"type": "Polygon", "coordinates": [[[-86.3720433, 35.8436808], [-86.3671819, 35.8426767], [-86.367202, 35.8427682], [-86.3670462, 35.8438163], [-86.3664073, 35.843773], [-86.3663504, 35.8442113], [-86.3657365, 35.8441487], [-86.3656146, 35.8449297], [-86.3644803, 35.8447946], [-86.363346, 35.8445145], [-86.3623419, 35.8443629], [-86.3617727, 35.8443893], [-86.3608417, 35.8442706], [-86.3587968, 35.8440301], [-86.3589213, 35.8435849], [-86.3584136, 35.8434922], [-86.3577502, 35.8434081], [-86.3576134, 35.8439127], [-86.3548713, 35.8435962], [-86.354776, 35.8435852], [-86.3534385, 35.8432984], [-86.3523947, 35.8434798], [-86.3522806, 35.8434996], [-86.3506699, 35.8437796], [-86.350674, 35.8476452], [-86.3503691, 35.8495565], [-86.3538338, 35.8498828], [-86.3573861, 35.8504396], [-86.3579735, 35.8512899], [-86.358743, 35.8536554], [-86.3589502, 35.8536478], [-86.3593505, 35.8536613], [-86.3593755, 35.853664], [-86.3596065, 35.8536883], [-86.3597453, 35.8537014], [-86.3603959, 35.8537227], [-86.3619583, 35.8537765], [-86.3622299, 35.853794], [-86.3625965, 35.8538323], [-86.3628534, 35.8538694], [-86.3638293, 35.8540159], [-86.3640598, 35.8540498], [-86.3641042, 35.8540475], [-86.3641218, 35.8540417], [-86.3641462, 35.8540278], [-86.3641662, 35.8540044], [-86.3641754, 35.8539708], [-86.3644362, 35.8540186], [-86.3648367, 35.8540769], [-86.3652345, 35.854138], [-86.3660165, 35.85428], [-86.3660481, 35.8542831], [-86.3660784, 35.8542822], [-86.3660919, 35.8542792], [-86.3663623, 35.8543154], [-86.3674335, 35.854536], [-86.3678537, 35.8545958], [-86.3700163, 35.8548603], [-86.370158, 35.8548764], [-86.3706834, 35.854966], [-86.3707781, 35.8549753], [-86.3708688, 35.8549785], [-86.3709703, 35.8549772], [-86.3711738, 35.8549717], [-86.3713136, 35.8549687], [-86.3714322, 35.8549581], [-86.3714949, 35.8549503], [-86.3717113, 35.8549186], [-86.3718424, 35.8548996], [-86.3718654, 35.8548946], [-86.3718852, 35.8548844], [-86.371911, 35.8548651], [-86.3719558, 35.8545803], [-86.3719987, 35.8542667], [-86.3704241, 35.8540998], [-86.3708358, 35.8517595], [-86.3723554, 35.8519041], [-86.3724121, 35.8515013], [-86.3708895, 35.8513453], [-86.3711372, 35.8495644], [-86.3720433, 35.8436808]]]}}