{"type": "Feature", "properties": {"market_key": 921, "university": "Grand Valley State University", "osm_type": "relation", "osm_id": 17288404, "osm_name": "Grand Valley State University - Allendale"}, "geometry": {"type": "MultiPolygon", "coordinates": [[[[-85.8765788, 42.9780261], [-85.8825058, 42.9779721], [-85.8822117, 42.9772448], [-85.881744, 42.9760882], [-85.8831066, 42.9751855], [-85.8831173, 42.9745732], [-85.8844262, 42.9743612], [-85.8844135, 42.9737936], [-85.8845152, 42.9736329], [-85.8846656, 42.973511], [-85.8868431, 42.9728121], [-85.8869918, 42.972662], [-85.8870271, 42.9724755], [-85.8870058, 42.9723185], [-85.8776826, 42.9723686], [-85.8776053, 42.9729065], [-85.8775699, 42.9741109], [-85.8774211, 42.9743536], [-85.8768881, 42.9749255], [-85.8766832, 42.9750736], [-85.876692, 42.9757511], [-85.8766456, 42.9767486], [-85.8766217, 42.9772644], [-85.8766118, 42.9774784], [-85.8765788, 42.9780261]]], [[[-85.8847977, 42.9795149], [-85.8847562, 42.9780099], [-85.8852584, 42.9780017], [-85.885204, 42.976237], [-85.8847023, 42.9762452], [-85.8846977, 42.9757321], [-85.8850417, 42.9757288], [-85.8853213, 42.9756615], [-85.8854204, 42.9755916], [-85.8854039, 42.9746509], [-85.8846785, 42.9746578], [-85.8846664, 42.9738602], [-85.8846986, 42.9737346], [-85.8848059, 42.9736208], [-85.8870643, 42.9729535], [-85.8871877, 42.9728358], [-85.8872628, 42.9726945], [-85.8872843, 42.9724158], [-85.8873433, 42.9723765], [-85.8917417, 42.9723852], [-85.8917986, 42.9733966], [-85.8943208, 42.9733966], [-85.8943247, 42.9741834], [-85.8943404, 42.9760168], [-85.8895789, 42.9759666], [-85.8896927, 42.979518], [-85.8847977, 42.9795149]]], [[[-85.8839179, 42.9506735], [-85.8874661, 42.9506298], [-85.8874286, 42.949762], [-85.8879436, 42.9497542], [-85.8879168, 42.9492476], [-85.888657, 42.949228], [-85.8885821, 42.9470368], [-85.8837459, 42.9470472], [-85.8837982, 42.94849], [-85.8838422, 42.9492923], [-85.8838736, 42.9498655], [-85.8839179, 42.9506735]]], [[[-85.8889742, 42.9522815], [-85.891064, 42.9522428], [-85.8910387, 42.9515081], [-85.89101, 42.9506781], [-85.8891573, 42.9507125], [-85.8889199, 42.9507169], [-85.8889261, 42.950895], [-85.8889742, 42.9522815]]], [[[-85.891277, 42.9505308], [-85.8912397, 42.9487924], [-85.891202, 42.9470322], [-85.893728, 42.9470033], [-85.8936552, 42.9435812], [-85.8964136, 42.9435318], [-85.8965019, 42.9470297], [-85.8985553, 42.9470021], [-85.8985853, 42.9487608], [-85.8986051, 42.9496563], [-85.898119, 42.9496621], [-85.8981365, 42.9504521], [-85.891277, 42.9505308]]], [[[-85.8938241, 42.950638], [-85.8986257, 42.9506221], [-85.8986682, 42.9527619], [-85.899795, 42.9527498], [-85.8997524, 42.9506101], [-85.8999012, 42.9505981], [-85.8999495, 42.9523378], [-85.9012574, 42.9523177], [-85.9024363, 42.9522992], [-85.9024469, 42.9527832], [-85.9035528, 42.9527702], [-85.9035698, 42.9540263], [-85.8939117, 42.9541277], [-85.8938241, 42.950638]]], [[[-85.8988682, 42.9576215], [-85.8988122, 42.9563979], [-85.9013246, 42.9563774], [-85.9013527, 42.957601], [-85.8988682, 42.9576215]]], [[[-85.8775736, 42.9691877], [-85.877644, 42.970555], [-85.8777393, 42.9719406], [-85.8791939, 42.9719343], [-85.8813827, 42.9719136], [-85.8838126, 42.9719385], [-85.8872405, 42.9719509], [-85.8897327, 42.971959], [-85.8925967, 42.9719259], [-85.8934738, 42.9719168], [-85.8949355, 42.9719268], [-85.8950514, 42.971917], [-85.8954636, 42.9719164], [-85.8967499, 42.9719325], [-85.8975201, 42.9719328], [-85.8982972, 42.9719406], [-85.8990533, 42.9719501], [-85.8996237, 42.971972], [-85.9006644, 42.9720222], [-85.9012587, 42.9720617], [-85.9015337, 42.972051], [-85.9017474, 42.9720643], [-85.9018529, 42.9720938], [-85.9024303, 42.9721273], [-85.9029488, 42.9721519], [-85.9032388, 42.9721619], [-85.9036538, 42.9721721], [-85.9041143, 42.9721773], [-85.9041518, 42.9721412], [-85.9041732, 42.9720956], [-85.9041729, 42.9719726], [-85.9041437, 42.9711609], [-85.90416, 42.9708043], [-85.9041096, 42.9692097], [-85.904011, 42.9674788], [-85.9039588, 42.9661174], [-85.9039194, 42.9642855], [-85.9038534, 42.9631782], [-85.9037405, 42.9599593], [-85.9036585, 42.9577755], [-85.9007552, 42.957788], [-85.8974946, 42.9577963], [-85.8941319, 42.9578253], [-85.8921048, 42.9578183], [-85.8912286, 42.9578286], [-85.890161, 42.9578364], [-85.8901836, 42.9577258], [-85.8901655, 42.956901], [-85.8890831, 42.9569137], [-85.8889066, 42.956932], [-85.8888975, 42.9558981], [-85.8888815, 42.955298], [-85.8887843, 42.9541508], [-85.885617, 42.9541975], [-85.8841125, 42.9542227], [-85.8841233, 42.9544192], [-85.8758018, 42.9545272], [-85.8767557, 42.9571813], [-85.8769081, 42.9591005], [-85.8772128, 42.9617121], [-85.8773724, 42.9643693], [-85.877449, 42.9667698], [-85.8775736, 42.9691877]], [[-85.8901639, 42.9653089], [-85.8899293, 42.9654863], [-85.8898407, 42.9654255], [-85.8897947, 42.9654559], [-85.8898317, 42.9654789], [-85.8896712, 42.9656005], [-85.8895346, 42.9655016], [-85.8894523, 42.965442], [-85.8896095, 42.9653188], [-85.8894871, 42.9651652], [-85.8896128, 42.9651126], [-85.8896263, 42.9651208], [-85.8897486, 42.9650264], [-85.8901639, 42.9653089]], [[-85.8887059, 42.9640381], [-85.8889485, 42.9640373], [-85.8889488, 42.9640902], [-85.8890428, 42.9640899], [-85.8890446, 42.9643809], [-85.8890896, 42.9643807], [-85.88909, 42.9644465], [-85.8890904, 42.9645075], [-85.8890409, 42.9645077], [-85.8890427, 42.9647912], [-85.8889523, 42.9647915], [-85.8889527, 42.9648468], [-85.8886942, 42.9648477], [-85.8886933, 42.9647843], [-85.8886932, 42.9646105], [-85.8886919, 42.9644927], [-85.8886598, 42.9644929], [-85.8886591, 42.9643831], [-85.8886935, 42.964383], [-85.8886933, 42.9643513], [-85.8887079, 42.9643513], [-85.8887066, 42.9641546], [-85.8887059, 42.9640381]], [[-85.8901698, 42.9630847], [-85.8901422, 42.9630847], [-85.8897656, 42.9630839], [-85.8897657, 42.9630484], [-85.8896596, 42.9630481], [-85.8896595, 42.9630842], [-85.8896913, 42.9630843], [-85.889691, 42.9631573], [-85.8893939, 42.9631567], [-85.8893592, 42.9631566], [-85.8893595, 42.9630871], [-85.8893978, 42.9630872], [-85.8893993, 42.9627436], [-85.8896654, 42.9627442], [-85.8896652, 42.962793], [-85.8897274, 42.9627931], [-85.8897635, 42.9627932], [-85.8897636, 42.9627407], [-85.8901777, 42.9627413], [-85.8901772, 42.962966], [-85.890258, 42.9629661], [-85.8902577, 42.9630736], [-85.8901698, 42.9630734], [-85.8901698, 42.9630847]], [[-85.8857088, 42.9615394], [-85.8846667, 42.9615551], [-85.884664, 42.961458], [-85.884632, 42.9614585], [-85.8846259, 42.9614586], [-85.884625, 42.9614247], [-85.8848127, 42.9614218], [-85.8848124, 42.9614112], [-85.8848315, 42.9614109], [-85.8848286, 42.9613061], [-85.8849219, 42.9613059], [-85.8849187, 42.9611908], [-85.8850066, 42.9611895], [-85.8850057, 42.9611568], [-85.8850341, 42.9611564], [-85.8853488, 42.9611517], [-85.885375, 42.9611513], [-85.885376, 42.9611884], [-85.8854656, 42.961187], [-85.8854718, 42.9614063], [-85.8855708, 42.9614048], [-85.885571, 42.9614129], [-85.8856115, 42.9614123], [-85.8857683, 42.9614099], [-85.8857688, 42.9614303], [-85.8857692, 42.9614446], [-85.8857061, 42.9614456], [-85.8857088, 42.9615394]], [[-85.8887106, 42.9595284], [-85.8885806, 42.9595287], [-85.8885811, 42.9596424], [-85.8883172, 42.959643], [-85.8882407, 42.9596432], [-85.888241, 42.9597001], [-85.8882415, 42.9598066], [-85.8881882, 42.9598068], [-85.8881884, 42.9598362], [-85.8881885, 42.9598594], [-85.8882427, 42.9598593], [-85.8882432, 42.9599647], [-85.8885177, 42.959964], [-85.8885172, 42.9598581], [-85.8886996, 42.9598576], [-85.8886994, 42.9598192], [-85.8886993, 42.9597978], [-85.8886737, 42.9597978], [-85.8886733, 42.9597112], [-85.8887459, 42.959711], [-85.8887455, 42.9596401], [-85.8887111, 42.9596402], [-85.8887106, 42.9595284]]]]}}