{"type": "Feature", "properties": {"market_key": 931, "university": "California State University Fresno", "osm_type": "way", "osm_id": 44175866, "osm_name": "California State University, Fresno"}, "geometry": {"type": "Polygon", "coordinates": [[[-119.7330285, 36.8100642], [-119.7334417, 36.8099469], [-119.7339452, 36.8098884], [-119.73439, 36.8098084], [-119.7346246, 36.8096685], [-119.734838, 36.809466], [-119.7349185, 36.8092596], [-119.7349452, 36.8088985], [-119.7351816, 36.8087708], [-119.7360589, 36.8087952], [-119.7361261, 36.808837], [-119.73647, 36.8088197], [-119.7365523, 36.8088156], [-119.736553, 36.8087521], [-119.740692, 36.8087612], [-119.7451036, 36.8087709], [-119.7539666, 36.8088011], [-119.7540072, 36.8088353], [-119.7540176, 36.8110816], [-119.7540147, 36.8123284], [-119.7544168, 36.8123284], [-119.7608404, 36.812329], [-119.7608497, 36.8139455], [-119.760838, 36.8139605], [-119.7608379, 36.8140539], [-119.7608497, 36.8140689], [-119.7608372, 36.8157266], [-119.7577264, 36.8157452], [-119.7568654, 36.8157503], [-119.7568171, 36.8157506], [-119.7545823, 36.8157572], [-119.7540214, 36.8157548], [-119.7540239, 36.8160205], [-119.7540291, 36.8229771], [-119.7540395, 36.8301968], [-119.7539745, 36.8302424], [-119.7452119, 36.83023], [-119.7450849, 36.8302998], [-119.7433187, 36.8302982], [-119.7432612, 36.8302623], [-119.7431476, 36.8302339], [-119.7363134, 36.8302175], [-119.7362393, 36.8301821], [-119.7362202, 36.8267703], [-119.7359399, 36.8266763], [-119.7328128, 36.8266763], [-119.7298042, 36.8266704], [-119.7298663, 36.8264661], [-119.7298779, 36.8263861], [-119.7298708, 36.8263131], [-119.7298439, 36.8262563], [-119.7297695, 36.826195], [-119.7296793, 36.8261512], [-119.7296744, 36.8249386], [-119.7296728, 36.8242443], [-119.7296323, 36.8237152], [-119.7295532, 36.8232621], [-119.7295273, 36.82316], [-119.7293651, 36.8228792], [-119.7287078, 36.8228879], [-119.726875, 36.8229035], [-119.7196311, 36.8228958], [-119.7193614, 36.8228612], [-119.7189135, 36.8228622], [-119.7188104, 36.8226551], [-119.7232324, 36.8184808], [-119.7244019, 36.8174961], [-119.7245235, 36.8175077], [-119.72492, 36.8175134], [-119.7249362, 36.8193375], [-119.7274907, 36.8193137], [-119.7275104, 36.8180445], [-119.7275754, 36.8166824], [-119.7276079, 36.8164172], [-119.7276203, 36.815893], [-119.7276313, 36.8156652], [-119.7275839, 36.8154746], [-119.7275592, 36.8147667], [-119.7303421, 36.8121426], [-119.7315498, 36.8111089], [-119.7325667, 36.8103153], [-119.7327835, 36.8101738], [-119.7330285, 36.8100642]]]}}