{"type": "Feature", "properties": {"market_key": 933, "university": "California State University Sacramento", "osm_type": "way", "osm_id": 468831136, "osm_name": "California State University - Sacramento"}, "geometry": {"type": "Polygon", "coordinates": [[[-121.4243862, 38.5684285], [-121.4253571, 38.5682953], [-121.4263144, 38.5679265], [-121.4267813, 38.5676417], [-121.4292043, 38.5655439], [-121.4301463, 38.5647512], [-121.4306745, 38.5644157], [-121.4311, 38.5642335], [-121.4310512, 38.5639693], [-121.4306681, 38.5625658], [-121.4301715, 38.5617611], [-121.4279172, 38.5588983], [-121.4238278, 38.5538013], [-121.4230438, 38.5528458], [-121.419458, 38.5519477], [-121.4190435, 38.5519012], [-121.4187176, 38.5521238], [-121.4183477, 38.552217], [-121.4154379, 38.5529131], [-121.4153629, 38.5529298], [-121.4154107, 38.5541191], [-121.4183656, 38.554116], [-121.4184581, 38.5585349], [-121.418488, 38.5592285], [-121.4190576, 38.5595774], [-121.419851, 38.5602314], [-121.4204367, 38.560753], [-121.4212816, 38.5615969], [-121.4220583, 38.5624655], [-121.4224503, 38.5632127], [-121.4225487, 38.5635711], [-121.422718, 38.5641883], [-121.4229856, 38.5648243], [-121.4237758, 38.5666214], [-121.4239023, 38.5672502], [-121.4240021, 38.5677989], [-121.424235, 38.5683533], [-121.4243862, 38.5684285]]]}}