{"type": "Feature", "properties": {"market_key": 936, "university": "University of Colorado Colorado Springs", "osm_type": "way", "osm_id": 418264951, "osm_name": "University of Colorado Colorado Springs (UCCS)"}, "geometry": {"type": "Polygon", "coordinates": [[[-104.7954085, 38.8897922], [-104.7934451, 38.8890486], [-104.7925132, 38.888696], [-104.7909765, 38.8882747], [-104.7901984, 38.8880127], [-104.7889756, 38.8882061], [-104.7884436, 38.8885114], [-104.7878203, 38.8888778], [-104.7872737, 38.8892078], [-104.7865581, 38.8894165], [-104.7861341, 38.889508], [-104.7859519, 38.8897778], [-104.7864925, 38.8898491], [-104.7872061, 38.8898863], [-104.7882275, 38.8897896], [-104.7890568, 38.8897938], [-104.7893357, 38.8897886], [-104.7897184, 38.8898005], [-104.7898913, 38.8895548], [-104.790184, 38.8895483], [-104.7904822, 38.8895416], [-104.7907215, 38.8896673], [-104.7909779, 38.8898002], [-104.7928954, 38.8912661], [-104.7926397, 38.8900952], [-104.7926171, 38.8897552], [-104.7927206, 38.8896272], [-104.7931625, 38.889723], [-104.7932973, 38.8897433], [-104.7935501, 38.8897574], [-104.7937713, 38.8891892], [-104.7947066, 38.8895324], [-104.795444, 38.8898193], [-104.795385, 38.8898867], [-104.7952269, 38.8899456], [-104.7949947, 38.8900322], [-104.7947943, 38.8903715], [-104.7943802, 38.8901876], [-104.7942614, 38.8906936], [-104.7938838, 38.8904472], [-104.7935558, 38.8903646], [-104.7934935, 38.8904176], [-104.7927147, 38.8904279], [-104.7928954, 38.8912661], [-104.794016, 38.8913092], [-104.7942835, 38.8912761], [-104.7947888, 38.891481], [-104.7950121, 38.8916882], [-104.7954567, 38.8923311], [-104.7965685, 38.8923334], [-104.7969495, 38.8924245], [-104.7974071, 38.8925269], [-104.7978713, 38.8928866], [-104.7986931, 38.8930535], [-104.7994641, 38.8935321], [-104.7996259, 38.8938057], [-104.7998604, 38.893969], [-104.8001539, 38.8940513], [-104.8009793, 38.8942314], [-104.8011776, 38.8941676], [-104.8014499, 38.8940954], [-104.8019209, 38.8939663], [-104.8023528, 38.8938263], [-104.8025539, 38.8938569], [-104.8028113, 38.8939311], [-104.8032444, 38.89408], [-104.8038923, 38.8945077], [-104.8041878, 38.8946813], [-104.8042524, 38.8949093], [-104.804463, 38.8950626], [-104.8045922, 38.8949529], [-104.8047368, 38.8949251], [-104.8048553, 38.8950113], [-104.8047916, 38.8951799], [-104.8048193, 38.8953307], [-104.804909, 38.8956216], [-104.8050249, 38.8958444], [-104.8050433, 38.8959236], [-104.8052297, 38.8963004], [-104.8051611, 38.8968444], [-104.8051556, 38.8968731], [-104.8051442, 38.8969526], [-104.8051387, 38.8970319], [-104.805056, 38.8971879], [-104.8049851, 38.8973216], [-104.8048213, 38.8974272], [-104.8044777, 38.8975963], [-104.8039457, 38.8978231], [-104.803547, 38.8979873], [-104.8033655, 38.8982311], [-104.8034754, 38.8986989], [-104.8035524, 38.8990265], [-104.8038506, 38.8992032], [-104.8046722, 38.8994373], [-104.8050992, 38.8992395], [-104.805885, 38.898806], [-104.8067652, 38.8992517], [-104.8080937, 38.8997025], [-104.8084235, 38.8999087], [-104.8085511, 38.8999917], [-104.8100179, 38.9000457], [-104.8107084, 38.9000711], [-104.8107035, 38.9005994], [-104.8106885, 38.9022046], [-104.8128808, 38.902254], [-104.8128657, 38.9028023], [-104.8128626, 38.902916], [-104.8127966, 38.9053201], [-104.8127912, 38.905516], [-104.8125992, 38.9055642], [-104.8106905, 38.9052838], [-104.8084096, 38.9052477], [-104.8028044, 38.905568], [-104.8028654, 38.9056582], [-104.803048, 38.9073296], [-104.8034813, 38.9082533], [-104.803634, 38.9087432], [-104.8037101, 38.9089864], [-104.8047661, 38.9098389], [-104.8064349, 38.9112717], [-104.8093237, 38.9112536], [-104.8125045, 38.9113032], [-104.8140037, 38.9113109], [-104.8141087, 38.9113115], [-104.8144953, 38.9113135], [-104.8150375, 38.9107092], [-104.8152985, 38.9101448], [-104.8160396, 38.9100172], [-104.8163044, 38.9087252], [-104.8163826, 38.9065226], [-104.8165115, 38.9056841], [-104.8169381, 38.9033951], [-104.8170612, 38.9025483], [-104.8173005, 38.901721], [-104.8174267, 38.9009884], [-104.8176226, 38.9001195], [-104.8177284, 38.8992674], [-104.8179837, 38.8978546], [-104.8161877, 38.8979803], [-104.8146531, 38.8980131], [-104.811798, 38.8980815], [-104.8093845, 38.898035], [-104.8084553, 38.897841], [-104.8076572, 38.8973378], [-104.8070311, 38.8966909], [-104.8064193, 38.8950097], [-104.8063678, 38.894561], [-104.8062375, 38.8939196], [-104.8061087, 38.8935767], [-104.8056847, 38.8929059], [-104.8053831, 38.8925181], [-104.8046173, 38.8917249], [-104.8040131, 38.8915091], [-104.8034506, 38.8914302], [-104.8022193, 38.8914858], [-104.8012883, 38.8914911], [-104.8001696, 38.8913154], [-104.798481, 38.8907864], [-104.7982907, 38.89073], [-104.7975353, 38.8905059], [-104.7954085, 38.8897922]]]}}