{"type": "Feature", "properties": {"market_key": 941, "university": "Portland State University", "osm_type": "relation", "osm_id": 4677878, "osm_name": "Portland State University"}, "geometry": {"type": "MultiPolygon", "coordinates": [[[[-122.6804838, 45.5092139], [-122.6808155, 45.5086004], [-122.6816589, 45.508826], [-122.6813271, 45.5094414], [-122.6804838, 45.5092139]]], [[[-122.6810952, 45.5098712], [-122.6808356, 45.5103527], [-122.6808017, 45.5103789], [-122.6807557, 45.5103918], [-122.6807083, 45.5103948], [-122.6799548, 45.5101925], [-122.6802494, 45.5096476], [-122.6802757, 45.5096546], [-122.6803175, 45.5096657], [-122.6803485, 45.5096739], [-122.6808679, 45.5098112], [-122.6809472, 45.5098322], [-122.6809965, 45.5098452], [-122.6810952, 45.5098712]]], [[[-122.6849154, 45.5093726], [-122.6841014, 45.5091629], [-122.6839482, 45.5094435], [-122.6843669, 45.5095547], [-122.6842876, 45.5097013], [-122.684214, 45.5098374], [-122.6846107, 45.5099427], [-122.6849154, 45.5093726]]], [[[-122.6835235, 45.5097815], [-122.6821867, 45.5122739], [-122.6820805, 45.5123098], [-122.6813146, 45.5121061], [-122.6826026, 45.5097653], [-122.6830092, 45.5098735], [-122.6831142, 45.5096797], [-122.6831834, 45.5095521], [-122.6827795, 45.5094446], [-122.6830874, 45.5088864], [-122.6834917, 45.5089994], [-122.6834086, 45.5091517], [-122.6835342, 45.5091853], [-122.6836173, 45.5090331], [-122.6837953, 45.5090808], [-122.6837374, 45.5092847], [-122.6836415, 45.509534], [-122.6835235, 45.5097815]]], [[[-122.6828508, 45.5088579], [-122.6824445, 45.5087516], [-122.6824946, 45.508659], [-122.6825115, 45.5082211], [-122.6825097, 45.5079613], [-122.682531, 45.5074033], [-122.6828767, 45.507411], [-122.6829393, 45.5074433], [-122.6829738, 45.5074856], [-122.6829472, 45.5086654], [-122.6828508, 45.5088579]]], [[[-122.685159, 45.5094353], [-122.6854691, 45.5088877], [-122.6863231, 45.5094402], [-122.6862508, 45.5095926], [-122.6863072, 45.5095937], [-122.686366, 45.5096067], [-122.6864186, 45.5096377], [-122.6864528, 45.5096708], [-122.6864707, 45.5097059], [-122.6864791, 45.5097486], [-122.6864702, 45.5098094], [-122.6861313, 45.5104633], [-122.6862509, 45.5104949], [-122.686795, 45.5106388], [-122.6868452, 45.5105469], [-122.6871444, 45.5100017], [-122.6874261, 45.5102786], [-122.6878131, 45.5108583], [-122.6883709, 45.5116938], [-122.6884046, 45.5119303], [-122.6884384, 45.512224], [-122.6884124, 45.5123658], [-122.6887893, 45.5124862], [-122.6887825, 45.5131193], [-122.6886452, 45.5134359], [-122.6889853, 45.5135247], [-122.6885514, 45.5143237], [-122.6883206, 45.5147442], [-122.6875623, 45.5145398], [-122.6839491, 45.5135698], [-122.6838252, 45.513536], [-122.683024, 45.5133188], [-122.6833273, 45.512771], [-122.6833857, 45.5126654], [-122.685159, 45.5094353]], [[-122.6850644, 45.5123749], [-122.6861439, 45.5126575], [-122.6857373, 45.5134201], [-122.6846578, 45.5131374], [-122.6850644, 45.5123749]]], [[[-122.6814646, 45.5113791], [-122.6816597, 45.5110163], [-122.6812841, 45.5109177], [-122.6813814, 45.5107357], [-122.6809668, 45.5106269], [-122.6807415, 45.5110485], [-122.680732, 45.5110743], [-122.6807287, 45.5110957], [-122.6807347, 45.5111324], [-122.6807458, 45.5111533], [-122.6807679, 45.5111801], [-122.6808028, 45.5112068], [-122.6808309, 45.5112186], [-122.6814646, 45.5113791]]], [[[-122.6792247, 45.5116532], [-122.6799977, 45.5118563], [-122.6797279, 45.5123604], [-122.6789549, 45.5121572], [-122.6792247, 45.5116532]]], [[[-122.6823765, 45.5123881], [-122.6831648, 45.5126071], [-122.6842492, 45.5105933], [-122.6843976, 45.5103266], [-122.6840002, 45.5102212], [-122.6838518, 45.5104969], [-122.6837888, 45.510614], [-122.6833864, 45.5105111], [-122.6823765, 45.5123881]]]]}}