{"type": "Feature", "properties": {"market_key": 942, "university": "Grand Canyon University", "osm_type": "relation", "osm_id": 6180064, "osm_name": "Grand Canyon University"}, "geometry": {"type": "MultiPolygon", "coordinates": [[[[-112.119109, 33.5132425], [-112.117659, 33.5132475], [-112.1171604, 33.5132492], [-112.1171292, 33.5132458], [-112.1171122, 33.5132544], [-112.1170847, 33.5132759], [-112.1170804, 33.5145873], [-112.1170762, 33.5154212], [-112.11709, 33.5158586], [-112.1179592, 33.5158576], [-112.1179592, 33.5158849], [-112.1184456, 33.5158879], [-112.1184462, 33.5162947], [-112.1184452, 33.5167206], [-112.1206279, 33.5167309], [-112.1214051, 33.5167323], [-112.1225105, 33.5167298], [-112.1241341, 33.5167267], [-112.1243845, 33.5167262], [-112.124638, 33.5167221], [-112.1247663, 33.5167154], [-112.1249226, 33.5167079], [-112.1252667, 33.516684], [-112.1255281, 33.516672], [-112.1257795, 33.5166661], [-112.1270067, 33.5166629], [-112.1270059, 33.5165545], [-112.1269997, 33.516018], [-112.1270058, 33.5152784], [-112.1269871, 33.5147737], [-112.1298554, 33.5147764], [-112.1298768, 33.5147635], [-112.1299119, 33.5147634], [-112.1299145, 33.5160333], [-112.1299148, 33.5161602], [-112.1299158, 33.5166558], [-112.1340081, 33.5166492], [-112.1340604, 33.5166488], [-112.1340928, 33.5166408], [-112.1341192, 33.5166158], [-112.1341291, 33.5165841], [-112.1341099, 33.5149746], [-112.1341012, 33.5129449], [-112.1340993, 33.5113463], [-112.1319442, 33.5113487], [-112.1319429, 33.5095544], [-112.1300362, 33.5095373], [-112.1297636, 33.509568], [-112.1292872, 33.5095688], [-112.1287212, 33.509541], [-112.1270154, 33.5095438], [-112.1258235, 33.5095439], [-112.1211167, 33.5095474], [-112.1201934, 33.5095487], [-112.1197647, 33.5095499], [-112.1194272, 33.5095527], [-112.1193982, 33.5112255], [-112.1196984, 33.5112252], [-112.1199362, 33.5112249], [-112.120194, 33.5112247], [-112.1202687, 33.5112246], [-112.1202664, 33.5117001], [-112.1207466, 33.5116959], [-112.1207424, 33.5120269], [-112.1202648, 33.5120331], [-112.1202637, 33.5132395], [-112.119662, 33.5132379], [-112.1196693, 33.514522], [-112.1196567, 33.5148539], [-112.1191316, 33.5148562], [-112.1191204, 33.514061], [-112.119109, 33.5132425]], [[-112.1218685, 33.5132504], [-112.1223639, 33.5132503], [-112.1223571, 33.5141031], [-112.1218648, 33.5140989], [-112.1218633, 33.5139407], [-112.1218685, 33.5132504]], [[-112.1255861, 33.5112782], [-112.1255935, 33.5122891], [-112.125354, 33.5122947], [-112.1253564, 33.5131318], [-112.1250468, 33.5131335], [-112.1250479, 33.5126848], [-112.1250542, 33.5112806], [-112.1255861, 33.5112782]], [[-112.1244325, 33.5158818], [-112.1234374, 33.5158866], [-112.1234444, 33.5156312], [-112.124431, 33.5156364], [-112.1244325, 33.5158818]], [[-112.1245906, 33.5162186], [-112.1245831, 33.5160453], [-112.1255568, 33.5160486], [-112.1255563, 33.5162167], [-112.1245906, 33.5162186]], [[-112.1244263, 33.5126832], [-112.1244384, 33.5131289], [-112.123441, 33.5131313], [-112.1234391, 33.5122025], [-112.1239773, 33.512197], [-112.1239829, 33.5125931], [-112.1240792, 33.5126849], [-112.1244263, 33.5126832]]], [[[-112.1168252, 33.5130297], [-112.1168627, 33.5129939], [-112.1168681, 33.5128978], [-112.1168791, 33.5102141], [-112.115918, 33.5102098], [-112.1159174, 33.5095634], [-112.1147371, 33.5095864], [-112.1144053, 33.5096084], [-112.1144053, 33.5102055], [-112.1144053, 33.5107963], [-112.1144053, 33.5108069], [-112.1135759, 33.5108015], [-112.1129154, 33.5107972], [-112.1127943, 33.5114254], [-112.1127368, 33.5123574], [-112.1127516, 33.5129651], [-112.1127502, 33.5130719], [-112.1147136, 33.5130652], [-112.1151803, 33.5130573], [-112.1157607, 33.5130303], [-112.1161497, 33.5130357], [-112.1167892, 33.5130362], [-112.1168252, 33.5130297]]]]}}