{"type": "Feature", "properties": {"market_key": 95, "university": "Western Michigan University", "osm_type": "way", "osm_id": 91011061, "osm_name": "Western Michigan University"}, "geometry": {"type": "Polygon", "coordinates": [[[-85.607534, 42.2745807], [-85.6065102, 42.2744189], [-85.6056472, 42.2743295], [-85.6052502, 42.274355], [-85.6034033, 42.2770626], [-85.601707, 42.2790535], [-85.5999714, 42.2811269], [-85.5995357, 42.2817606], [-85.5993825, 42.282042], [-85.5984962, 42.2837715], [-85.5967617, 42.2837537], [-85.5965496, 42.2837931], [-85.5965748, 42.2840097], [-85.5965699, 42.2842927], [-85.5965711, 42.2845252], [-85.5965426, 42.2848742], [-85.5954039, 42.2848476], [-85.5954056, 42.2863657], [-85.5953955, 42.2877672], [-85.5960976, 42.28779], [-85.5982758, 42.2878657], [-85.5980494, 42.2881505], [-85.5979778, 42.2882437], [-85.5978721, 42.2883572], [-85.5976294, 42.2886645], [-85.5978654, 42.2886676], [-85.5980798, 42.2886635], [-85.5981858, 42.2885881], [-85.5983104, 42.2885025], [-85.5983827, 42.2884406], [-85.5984514, 42.2884036], [-85.5985391, 42.2883368], [-85.598698, 42.2882323], [-85.5989391, 42.2881533], [-85.5993606, 42.2879896], [-85.5994588, 42.2879341], [-85.5995032, 42.2879043], [-85.5999767, 42.287586], [-85.6028186, 42.2857212], [-85.6031741, 42.2860389], [-85.6033962, 42.2862151], [-85.6034745, 42.2862625], [-85.603551, 42.2863005], [-85.6036533, 42.2863403], [-85.6037631, 42.2863719], [-85.6038753, 42.286394], [-85.6039374, 42.2864019], [-85.6040343, 42.2864065], [-85.6041281, 42.2864044], [-85.6042275, 42.2863952], [-85.6043284, 42.2863757], [-85.604928, 42.2862487], [-85.6052243, 42.2861707], [-85.6065048, 42.2858141], [-85.6067259, 42.2857518], [-85.6072025, 42.2856145], [-85.6080791, 42.2853733], [-85.6092726, 42.285037], [-85.6093008, 42.2850851], [-85.6093341, 42.2851379], [-85.6093652, 42.2851935], [-85.6093896, 42.2852374], [-85.6094168, 42.285286], [-85.6094669, 42.2853758], [-85.6095219, 42.2854743], [-85.6095861, 42.2855894], [-85.609609, 42.2856305], [-85.6096576, 42.2857175], [-85.6096884, 42.2857726], [-85.6097239, 42.2858363], [-85.6097292, 42.2858585], [-85.6097327, 42.2858734], [-85.6097325, 42.2858798], [-85.6097317, 42.2859159], [-85.6097309, 42.2859474], [-85.6097288, 42.2860361], [-85.6097158, 42.286571], [-85.6097132, 42.2866806], [-85.6097095, 42.2868311], [-85.6096645, 42.2886904], [-85.6141838, 42.2887447], [-85.6141685, 42.291271], [-85.6141618, 42.2923797], [-85.6153173, 42.2923887], [-85.615668, 42.2923914], [-85.6189688, 42.292417], [-85.6189641, 42.2912994], [-85.6189619, 42.2907627], [-85.6189497, 42.2896739], [-85.6189538, 42.2888213], [-85.6239674, 42.2888558], [-85.6239759, 42.2873377], [-85.6237909, 42.287206], [-85.623599, 42.2870537], [-85.6233721, 42.2868703], [-85.6231487, 42.2866483], [-85.6229563, 42.286524], [-85.6229104, 42.286481], [-85.6227571, 42.2862784], [-85.6226497, 42.2861199], [-85.622574, 42.2860029], [-85.6225078, 42.2858924], [-85.6224368, 42.2857649], [-85.6223822, 42.2856503], [-85.6223157, 42.2855048], [-85.622242, 42.2853071], [-85.6221766, 42.2850922], [-85.6221036, 42.2847542], [-85.6220185, 42.2843534], [-85.6217376, 42.2843551], [-85.6212889, 42.2841984], [-85.6208289, 42.2839025], [-85.6207417, 42.2838468], [-85.6203882, 42.2836203], [-85.6204268, 42.2835097], [-85.6204595, 42.2834838], [-85.6204652, 42.2834737], [-85.6204611, 42.2834638], [-85.6204528, 42.2834563], [-85.6204331, 42.2834537], [-85.6203986, 42.2834572], [-85.6204596, 42.2834477], [-85.6205743, 42.2834454], [-85.6208135, 42.2834434], [-85.6213513, 42.2834378], [-85.6218621, 42.2834415], [-85.6217805, 42.2831478], [-85.6216373, 42.2825819], [-85.621591, 42.2824402], [-85.6215411, 42.2822529], [-85.6215079, 42.2820457], [-85.6214587, 42.2818542], [-85.6213705, 42.2816039], [-85.6214007, 42.2815866], [-85.6214278, 42.2815672], [-85.621447, 42.2815409], [-85.6214601, 42.2815129], [-85.621467, 42.2814902], [-85.6214404, 42.2811569], [-85.6214159, 42.2800953], [-85.6214194, 42.2799091], [-85.6213932, 42.279807], [-85.6213215, 42.2796156], [-85.6212794, 42.2795355], [-85.6212324, 42.2794462], [-85.6211743, 42.2793643], [-85.6210408, 42.2792009], [-85.6209266, 42.2791032], [-85.6208837, 42.2790698], [-85.6207612, 42.2789753], [-85.6205472, 42.2788262], [-85.6204411, 42.2787665], [-85.6202617, 42.2786527], [-85.6201673, 42.2785963], [-85.6200411, 42.2785235], [-85.6199073, 42.2784409], [-85.6196809, 42.2783261], [-85.6195865, 42.2782772], [-85.6194377, 42.2782001], [-85.6194827, 42.2780041], [-85.619491, 42.2779678], [-85.6195002, 42.2754912], [-85.6195001, 42.2754843], [-85.619495, 42.2751467], [-85.6194928, 42.275004], [-85.6194889, 42.2747431], [-85.6194874, 42.2746425], [-85.6194818, 42.2742685], [-85.6181592, 42.2746635], [-85.6177381, 42.2748277], [-85.6172715, 42.2750097], [-85.6170112, 42.2751112], [-85.6165595, 42.2753751], [-85.6162532, 42.275554], [-85.615973, 42.2757177], [-85.6155492, 42.2759653], [-85.6155375, 42.2759721], [-85.6148701, 42.2764706], [-85.614406, 42.2764833], [-85.6143476, 42.276459], [-85.6128552, 42.2758381], [-85.611688, 42.2753554], [-85.6110357, 42.2751268], [-85.6103319, 42.2749871], [-85.6101401, 42.2749577], [-85.6088729, 42.2747712], [-85.6085971, 42.274732], [-85.607534, 42.2745807]]]}}