{"type": "Feature", "properties": {"market_key": 960, "university": "Oregon State University", "osm_type": "relation", "osm_id": 5969826, "osm_name": "Oregon State University"}, "geometry": {"type": "MultiPolygon", "coordinates": [[[[-123.2740863, 44.5598658], [-123.2740983, 44.5600917], [-123.27416, 44.5604267], [-123.2742123, 44.5607], [-123.2742365, 44.5608806], [-123.2743015, 44.5611577], [-123.274325, 44.5611944], [-123.2743867, 44.5613383], [-123.2744068, 44.5615021], [-123.2744075, 44.5618734], [-123.2733232, 44.5618676], [-123.2731562, 44.5609924], [-123.2731505, 44.5609606], [-123.2722442, 44.5610535], [-123.2723738, 44.5618391], [-123.2714377, 44.5618588], [-123.2714454, 44.5621545], [-123.2714427, 44.5623868], [-123.2714198, 44.5626247], [-123.270987, 44.5634872], [-123.2709095, 44.563623], [-123.2704313, 44.5646158], [-123.2693288, 44.5643356], [-123.2687602, 44.564185], [-123.2683281, 44.5640785], [-123.2679408, 44.5648515], [-123.2678106, 44.5650625], [-123.2676747, 44.5653636], [-123.2675778, 44.5655601], [-123.2673932, 44.5659777], [-123.2678561, 44.5660902], [-123.2683958, 44.5662249], [-123.269483, 44.5664938], [-123.2703231, 44.5667129], [-123.2704109, 44.5667358], [-123.2706222, 44.5667806], [-123.2706588, 44.566791], [-123.2714893, 44.5669779], [-123.2718209, 44.5670783], [-123.2721826, 44.567213], [-123.2722902, 44.5672382], [-123.2726586, 44.5673275], [-123.2728493, 44.5673737], [-123.27316, 44.567448], [-123.2732495, 44.5674706], [-123.2735967, 44.5675577], [-123.2740995, 44.5676838], [-123.2743276, 44.5677406], [-123.2744192, 44.5677633], [-123.2745639, 44.5677991], [-123.274766, 44.567851], [-123.2747309, 44.5679429], [-123.2746022, 44.5682006], [-123.273838, 44.5680068], [-123.2734681, 44.5679131], [-123.2733394, 44.5681706], [-123.2738127, 44.5683002], [-123.2736117, 44.5687452], [-123.2744682, 44.568962], [-123.2750958, 44.5691219], [-123.2751069, 44.5689669], [-123.2750962, 44.568717], [-123.2750908, 44.5685989], [-123.2750794, 44.5679292], [-123.2758752, 44.5680479], [-123.2763689, 44.568158], [-123.2768351, 44.5682722], [-123.276941, 44.5682986], [-123.2776399, 44.568473], [-123.2779016, 44.5685119], [-123.2784415, 44.5686885], [-123.2788436, 44.5687656], [-123.2789894, 44.5687971], [-123.2794099, 44.5688859], [-123.2799844, 44.5690132], [-123.2800475, 44.5690159], [-123.2809862, 44.5697731], [-123.2813731, 44.5697473], [-123.2813257, 44.5689222], [-123.2814127, 44.568544], [-123.281402, 44.5683018], [-123.2834331, 44.5682875], [-123.2834237, 44.5679941], [-123.2839125, 44.5679894], [-123.2839172, 44.5682865], [-123.2844704, 44.5682836], [-123.2844726, 44.5678702], [-123.2879521, 44.5678812], [-123.2879666, 44.569702], [-123.2889473, 44.5696933], [-123.289707, 44.5696766], [-123.2897122, 44.5688733], [-123.2950493, 44.568859], [-123.2950458, 44.5671779], [-123.2968395, 44.5671723], [-123.2968488, 44.5668296], [-123.2967173, 44.5668308], [-123.2967205, 44.5666412], [-123.2966763, 44.5645724], [-123.2966302, 44.5624505], [-123.2962453, 44.5624075], [-123.2949016, 44.5623081], [-123.2940339, 44.5622498], [-123.2928349, 44.5621409], [-123.2917044, 44.5620683], [-123.2909882, 44.5620415], [-123.2898751, 44.5620247], [-123.2896826, 44.5620218], [-123.2896778, 44.5613031], [-123.2896491, 44.5600607], [-123.2896455, 44.5589659], [-123.2917976, 44.5589786], [-123.2917944, 44.5587905], [-123.2917847, 44.5578835], [-123.2917823, 44.5577037], [-123.2917784, 44.5574193], [-123.2917607, 44.5569948], [-123.2906415, 44.5569779], [-123.2891491, 44.5569557], [-123.2870883, 44.556929], [-123.2858743, 44.5569184], [-123.2844052, 44.5569269], [-123.2838953, 44.5569121], [-123.2839209, 44.5580091], [-123.2839229, 44.5587923], [-123.2833461, 44.5587929], [-123.282966, 44.5585213], [-123.2824853, 44.5581779], [-123.2823013, 44.5581169], [-123.2823975, 44.5579537], [-123.2823943, 44.5577187], [-123.2819126, 44.5575181], [-123.281685, 44.5571158], [-123.2806239, 44.5575058], [-123.2795473, 44.5579681], [-123.2795451, 44.5574775], [-123.2789604, 44.5574594], [-123.2789656, 44.5573034], [-123.2789772, 44.5569561], [-123.277905, 44.5569556], [-123.2773491, 44.5569541], [-123.2764047, 44.5568046], [-123.2763503, 44.5567895], [-123.2760187, 44.5568911], [-123.2755922, 44.5569885], [-123.2752221, 44.5570382], [-123.2748037, 44.5570669], [-123.2742377, 44.5570879], [-123.2741835, 44.557095], [-123.2741274, 44.5586767], [-123.2740896, 44.5597454], [-123.2740863, 44.5598658]]]]}}