{"type": "Feature", "properties": {"market_key": 970, "university": "University of Wyoming", "osm_type": "relation", "osm_id": 15058634, "osm_name": "University of Wyoming"}, "geometry": {"type": "MultiPolygon", "coordinates": [[[[-105.5576031, 41.3170987], [-105.557688, 41.317185], [-105.5577591, 41.3205311], [-105.5577651, 41.3205875], [-105.5578141, 41.3206393], [-105.5578771, 41.3206605], [-105.5605862, 41.3206489], [-105.5605761, 41.3193416], [-105.5601141, 41.3191637], [-105.5601132, 41.3189121], [-105.5601121, 41.3186089], [-105.560108, 41.317514], [-105.5601114, 41.3172303], [-105.5601127, 41.317039], [-105.562453, 41.317047], [-105.5625147, 41.317045], [-105.5628419, 41.3170188], [-105.5631879, 41.3169362], [-105.5636814, 41.3167066], [-105.5656805, 41.315583], [-105.5662962, 41.3160643], [-105.566899, 41.316666], [-105.5670532, 41.3168436], [-105.5672564, 41.3171808], [-105.5673225, 41.3173988], [-105.5673587, 41.3178162], [-105.5673743, 41.3187825], [-105.5674002, 41.3188542], [-105.5675038, 41.3188813], [-105.5729379, 41.3188], [-105.5735724, 41.31875], [-105.574533, 41.3185873], [-105.5753821, 41.3185093], [-105.5768971, 41.3185037], [-105.5770053, 41.3184218], [-105.5770093, 41.3170314], [-105.5710354, 41.3171017], [-105.5710986, 41.3141352], [-105.571077, 41.3140736], [-105.5710453, 41.314018], [-105.5710109, 41.3139674], [-105.5709739, 41.3139209], [-105.5709085, 41.3138665], [-105.5708458, 41.3138201], [-105.5708027, 41.3137971], [-105.5707097, 41.3137476], [-105.5710191, 41.3135215], [-105.5710839, 41.3134871], [-105.5711603, 41.3134633], [-105.5723579, 41.3134237], [-105.5733606, 41.3134318], [-105.5739502, 41.3134297], [-105.5747385, 41.3134269], [-105.5768726, 41.3134192], [-105.5772112, 41.313418], [-105.5772633, 41.3148358], [-105.5772505, 41.3157478], [-105.577181, 41.3161971], [-105.5771936, 41.3166066], [-105.5784729, 41.3166843], [-105.5785663, 41.3158599], [-105.5800144, 41.3159509], [-105.5799727, 41.3163466], [-105.5802431, 41.3163627], [-105.5802847, 41.3159669], [-105.5813047, 41.3160355], [-105.5812663, 41.3164727], [-105.5815462, 41.3164854], [-105.5815141, 41.3168226], [-105.5815086, 41.3168804], [-105.5816993, 41.3168906], [-105.5817048, 41.3168329], [-105.581737, 41.3164956], [-105.581955, 41.3165013], [-105.5819886, 41.3160747], [-105.585055, 41.3162603], [-105.585163, 41.3153448], [-105.585266, 41.3152674], [-105.5853161, 41.3147924], [-105.5853341, 41.3146223], [-105.5853661, 41.3143176], [-105.5854757, 41.3132748], [-105.5855133, 41.3129207], [-105.585652, 41.3116039], [-105.585653, 41.3115873], [-105.5856624, 41.3115078], [-105.5849597, 41.3115242], [-105.5849728, 41.3113934], [-105.5849939, 41.3111788], [-105.5842855, 41.3111394], [-105.5843417, 41.3105679], [-105.5832016, 41.3105027], [-105.5831256, 41.3112682], [-105.5831132, 41.3113961], [-105.5821087, 41.3113352], [-105.5821215, 41.3112123], [-105.5821632, 41.3108108], [-105.5817213, 41.3107849], [-105.5811716, 41.3107505], [-105.5811249, 41.311152], [-105.5811121, 41.3112916], [-105.5790352, 41.3111524], [-105.5790921, 41.3105932], [-105.5792694, 41.3106028], [-105.5796376, 41.310627], [-105.5796701, 41.3102789], [-105.5791399, 41.3102587], [-105.5784638, 41.3102243], [-105.5779645, 41.3101988], [-105.568894, 41.3097362], [-105.5688164, 41.3105004], [-105.5686857, 41.3104924], [-105.5673725, 41.3104125], [-105.5673765, 41.3108221], [-105.5658359, 41.3107475], [-105.5658465, 41.3100008], [-105.5658532, 41.3095787], [-105.5649409, 41.3094201], [-105.5649302, 41.3095177], [-105.5647808, 41.3108774], [-105.5645776, 41.3127211], [-105.5645056, 41.313382], [-105.5644974, 41.3134564], [-105.5643708, 41.3134564], [-105.5575354, 41.313454], [-105.5576031, 41.3170987]], [[-105.580076, 41.31546], [-105.5799157, 41.3154505], [-105.5792421, 41.3154027], [-105.5792415, 41.3153635], [-105.5792687, 41.3148573], [-105.5799422, 41.3148976], [-105.5801444, 41.3149097], [-105.5801254, 41.3150623], [-105.580076, 41.31546]], [[-105.5790487, 41.3153558], [-105.5790443, 41.3153887], [-105.5786218, 41.3153587], [-105.5786635, 41.3148196], [-105.5790834, 41.3148428], [-105.5790487, 41.3153558]]], [[[-105.6132701, 41.3061647], [-105.6131682, 41.3069102], [-105.6131199, 41.3072718], [-105.6130582, 41.3077856], [-105.6130461, 41.3080249], [-105.6130971, 41.308524], [-105.6131098, 41.3087794], [-105.6103291, 41.3088273], [-105.6100327, 41.3088232], [-105.6100085, 41.3090318], [-105.6097873, 41.3091718], [-105.6091985, 41.3094035], [-105.6087211, 41.3096916], [-105.6083536, 41.3099616], [-105.6080559, 41.3102376], [-105.6079298, 41.3103726], [-105.6077287, 41.3102779], [-105.6073102, 41.3101328], [-105.6068355, 41.3100381], [-105.6063446, 41.3099918], [-105.6061083, 41.309992], [-105.6060168, 41.3060936], [-105.6101708, 41.3060841], [-105.6101815, 41.3059038], [-105.6104578, 41.3059038], [-105.6104819, 41.3061808], [-105.6132701, 41.3061647]]]]}}