{"type": "Feature", "properties": {"market_key": 975, "university": "University of California San Diego", "osm_type": "way", "osm_id": 25822522, "osm_name": "University of California, San Diego"}, "geometry": {"type": "Polygon", "coordinates": [[[-117.2241871, 32.8822604], [-117.224651, 32.8823475], [-117.2251029, 32.8823841], [-117.2257885, 32.8823798], [-117.2261486, 32.8823383], [-117.2266605, 32.8822271], [-117.227238, 32.8820211], [-117.2278756, 32.8817534], [-117.2287677, 32.8816534], [-117.2287588, 32.8818416], [-117.2286933, 32.8832252], [-117.2286552, 32.8839863], [-117.2286636, 32.884788], [-117.2288422, 32.8857204], [-117.2289224, 32.8863823], [-117.2295199, 32.8870263], [-117.230958, 32.8876477], [-117.231521, 32.8879069], [-117.232745, 32.8885443], [-117.234052, 32.8893795], [-117.2346709, 32.889681], [-117.2355276, 32.8900135], [-117.2371486, 32.8903599], [-117.239005, 32.8907681], [-117.2397683, 32.8910954], [-117.2403603, 32.8916081], [-117.2406982, 32.8919313], [-117.2407099, 32.8920027], [-117.2409254, 32.892231], [-117.2410563, 32.8925749], [-117.2411716, 32.8928917], [-117.241178, 32.8930548], [-117.2411294, 32.8931367], [-117.2413179, 32.8940863], [-117.2415049, 32.8941294], [-117.2430618, 32.8940503], [-117.2430409, 32.8934762], [-117.2427802, 32.8934871], [-117.2422492, 32.8930591], [-117.2422859, 32.8929169], [-117.2422435, 32.892816], [-117.2427305, 32.8924464], [-117.2429943, 32.8924387], [-117.2429501, 32.8907427], [-117.2440183, 32.8906293], [-117.244029, 32.8900716], [-117.2447428, 32.8900789], [-117.2448325, 32.8900794], [-117.2457857, 32.8900895], [-117.2485071, 32.8907952], [-117.2498031, 32.8914716], [-117.2498038, 32.8913482], [-117.2494363, 32.8907885], [-117.2489059, 32.8899012], [-117.2489938, 32.889657], [-117.2482904, 32.8888897], [-117.2479735, 32.8887783], [-117.2477557, 32.8887014], [-117.2467295, 32.8884673], [-117.2454694, 32.8881797], [-117.2438868, 32.8878569], [-117.2438152, 32.8878863], [-117.2434607, 32.8878042], [-117.2435367, 32.887543], [-117.2435449, 32.8875141], [-117.2435756, 32.8873691], [-117.2435888, 32.8873087], [-117.2436202, 32.8871657], [-117.2436644, 32.8867365], [-117.243668, 32.8867021], [-117.2436774, 32.88634], [-117.2436771, 32.8863253], [-117.2436899, 32.8839717], [-117.24369, 32.8839594], [-117.2436525, 32.8839212], [-117.2436489, 32.8838601], [-117.243645, 32.8837704], [-117.2436427, 32.8836972], [-117.2436832, 32.8836652], [-117.243684, 32.8830692], [-117.2437128, 32.8811889], [-117.2437224, 32.8796718], [-117.2437399, 32.8780609], [-117.243741, 32.8777957], [-117.2437022, 32.8773234], [-117.2435886, 32.8764613], [-117.243514, 32.8759001], [-117.2434849, 32.8758671], [-117.243503, 32.8755427], [-117.2435043, 32.8745319], [-117.2435027, 32.8719569], [-117.2434666, 32.8717559], [-117.243423, 32.8715994], [-117.2437964, 32.8715519], [-117.246116, 32.8715576], [-117.2464357, 32.871544], [-117.2465841, 32.8715339], [-117.2470233, 32.871454], [-117.2474365, 32.8712712], [-117.2475705, 32.8714263], [-117.2475969, 32.8715073], [-117.2476883, 32.8715248], [-117.2496731, 32.8715327], [-117.2511349, 32.8715487], [-117.2528872, 32.8715772], [-117.2530313, 32.8714451], [-117.2529709, 32.8709399], [-117.2530732, 32.8703711], [-117.2532951, 32.8699023], [-117.2533738, 32.8693295], [-117.2533571, 32.869033], [-117.253541, 32.8687199], [-117.253613, 32.8684634], [-117.2536169, 32.8682108], [-117.2537711, 32.867886], [-117.2538842, 32.8678447], [-117.2538967, 32.8676862], [-117.2539908, 32.8676533], [-117.2541189, 32.8676799], [-117.2544812, 32.8668699], [-117.2547461, 32.866293], [-117.2541613, 32.866129], [-117.2544017, 32.8652019], [-117.2545494, 32.8641969], [-117.2545963, 32.8636107], [-117.2534249, 32.8635576], [-117.2532551, 32.8635661], [-117.2532098, 32.863574], [-117.2531696, 32.8636004], [-117.2527569, 32.8640908], [-117.252587, 32.8643372], [-117.2524093, 32.8642723], [-117.2521085, 32.8641651], [-117.2519614, 32.8642895], [-117.2518253, 32.8642885], [-117.2515657, 32.8641251], [-117.2513755, 32.8641356], [-117.2511347, 32.8642247], [-117.2506537, 32.8639341], [-117.2499606, 32.8644074], [-117.2497355, 32.8642686], [-117.2495973, 32.864114], [-117.2462978, 32.8641491], [-117.2460999, 32.8646872], [-117.245825, 32.8651002], [-117.2460177, 32.865505], [-117.2456045, 32.8662434], [-117.2453469, 32.8665366], [-117.2450808, 32.8666828], [-117.24429, 32.8666834], [-117.2441983, 32.8675158], [-117.244161, 32.868818], [-117.2438906, 32.8688087], [-117.2427059, 32.8687911], [-117.2425328, 32.8699893], [-117.2425578, 32.8700732], [-117.243076, 32.8704124], [-117.2434414, 32.8708696], [-117.2435152, 32.870889], [-117.2436173, 32.8711559], [-117.243307, 32.8713156], [-117.2432274, 32.8713062], [-117.2430603, 32.8710967], [-117.2430829, 32.8710181], [-117.242858, 32.8707692], [-117.2426327, 32.8705952], [-117.2423834, 32.8704583], [-117.2420411, 32.8703684], [-117.2419015, 32.8703445], [-117.2414271, 32.8703222], [-117.2410238, 32.8704085], [-117.2406397, 32.8706068], [-117.240064, 32.8709851], [-117.2394591, 32.8713998], [-117.2388658, 32.8717317], [-117.2383467, 32.8721519], [-117.2381338, 32.8724749], [-117.2376148, 32.8724378], [-117.2368963, 32.8721654], [-117.2361915, 32.872081], [-117.234901, 32.8713789], [-117.234709, 32.8710056], [-117.2340166, 32.8709869], [-117.2339993, 32.8719449], [-117.2337055, 32.8719319], [-117.23361, 32.8718784], [-117.2320168, 32.8718776], [-117.2320153, 32.8718885], [-117.2311469, 32.8720861], [-117.230789, 32.8733035], [-117.2313581, 32.8733022], [-117.2324326, 32.8732998], [-117.233785, 32.8732842], [-117.2338143, 32.87398], [-117.2336333, 32.8743764], [-117.2333094, 32.8752729], [-117.2333371, 32.8762755], [-117.2333083, 32.8763086], [-117.2332799, 32.8765058], [-117.2332793, 32.8766055], [-117.2332535, 32.876726], [-117.2331342, 32.8767074], [-117.2314027, 32.8763079], [-117.2303884, 32.8759971], [-117.229523, 32.8759868], [-117.2281833, 32.8757254], [-117.228247, 32.8752791], [-117.2284374, 32.8738067], [-117.2279691, 32.8727231], [-117.2277774, 32.8726477], [-117.2265772, 32.8725011], [-117.2262796, 32.8723495], [-117.2260785, 32.8723615], [-117.2259834, 32.8723317], [-117.2259197, 32.8723114], [-117.225205, 32.8719763], [-117.2246363, 32.8716582], [-117.2243319, 32.871482], [-117.2187879, 32.8714621], [-117.2184943, 32.8716168], [-117.2184992, 32.8726279], [-117.2184999, 32.8727728], [-117.2185047, 32.8737193], [-117.2185299, 32.8784758], [-117.2185947, 32.8785423], [-117.2185979, 32.8787569], [-117.2185308, 32.8788157], [-117.2185003, 32.8803548], [-117.2184802, 32.8804861], [-117.2183739, 32.8807384], [-117.2184085, 32.8808037], [-117.2191634, 32.8811672], [-117.2198283, 32.8815584], [-117.2201516, 32.8817799], [-117.2202307, 32.8817723], [-117.2205212, 32.8815017], [-117.2210999, 32.8811749], [-117.2214212, 32.8812007], [-117.2218584, 32.8813066], [-117.2222901, 32.8815027], [-117.2227639, 32.8816972], [-117.22323, 32.8819105], [-117.2235937, 32.8820833], [-117.2241871, 32.8822604]]]}}