{"type": "Feature", "properties": {"market_key": 976, "university": "Eastern Washington University", "osm_type": "way", "osm_id": 197732218, "osm_name": "Eastern Washington University"}, "geometry": {"type": "Polygon", "coordinates": [[[-117.5918407, 47.4931135], [-117.5919725, 47.4929569], [-117.5921998, 47.4927629], [-117.5930809, 47.4923949], [-117.5932838, 47.4922617], [-117.5934558, 47.4921202], [-117.5935343, 47.4919561], [-117.5935599, 47.4918413], [-117.5934804, 47.4918339], [-117.59342, 47.4917912], [-117.593388, 47.4917429], [-117.5933737, 47.4915782], [-117.5932504, 47.4914282], [-117.5930147, 47.4913186], [-117.5925171, 47.4911773], [-117.5918369, 47.4910917], [-117.5917692, 47.4910477], [-117.5917411, 47.4909749], [-117.5916678, 47.4909168], [-117.591343, 47.4907561], [-117.5911725, 47.4902305], [-117.5913833, 47.4901608], [-117.5919727, 47.4901627], [-117.592031, 47.4901067], [-117.5920492, 47.4892443], [-117.5919322, 47.4889632], [-117.5919414, 47.4886842], [-117.5920498, 47.4882132], [-117.5920089, 47.4877823], [-117.5921061, 47.4875519], [-117.5921356, 47.4873707], [-117.5920256, 47.4872456], [-117.5917762, 47.4871115], [-117.5914784, 47.4870589], [-117.5911995, 47.4871061], [-117.5909682, 47.4870869], [-117.5908381, 47.4870073], [-117.590771, 47.4868562], [-117.5908027, 47.4863105], [-117.5909007, 47.4862253], [-117.5909217, 47.4861685], [-117.5908354, 47.4861133], [-117.5905146, 47.4860634], [-117.590522, 47.4855972], [-117.5882457, 47.4855813], [-117.5881017, 47.4855803], [-117.5864486, 47.4855872], [-117.5864404, 47.486555], [-117.5861768, 47.4865526], [-117.5861187, 47.4865531], [-117.5859101, 47.4865777], [-117.5857493, 47.4866046], [-117.5856049, 47.4866489], [-117.5854758, 47.4866963], [-117.5853664, 47.4867555], [-117.5835489, 47.4882558], [-117.583417, 47.4881804], [-117.5828847, 47.4878827], [-117.5825256, 47.4881932], [-117.5831942, 47.4885489], [-117.5831678, 47.488573], [-117.5831518, 47.4886186], [-117.5831469, 47.4886456], [-117.5831327, 47.4886706], [-117.5824145, 47.4892661], [-117.5823407, 47.4892958], [-117.5822863, 47.4893122], [-117.582251, 47.4893291], [-117.5822249, 47.4893476], [-117.5811102, 47.4887269], [-117.581081, 47.488711], [-117.5810524, 47.4887077], [-117.5810163, 47.4887178], [-117.5809813, 47.4887418], [-117.5802197, 47.489336], [-117.5801006, 47.4892752], [-117.5800963, 47.4892591], [-117.5800819, 47.4892444], [-117.5800103, 47.4892026], [-117.5799729, 47.4891946], [-117.5799428, 47.4891937], [-117.5797153, 47.4890789], [-117.5798186, 47.488984], [-117.5800823, 47.4887613], [-117.5797087, 47.4885541], [-117.5771046, 47.4907289], [-117.5770719, 47.4907579], [-117.5769465, 47.4908588], [-117.5768244, 47.4909534], [-117.5762859, 47.4913949], [-117.5762699, 47.4914211], [-117.5762743, 47.4914449], [-117.576304, 47.4914682], [-117.5769727, 47.4918363], [-117.5770062, 47.491835], [-117.5770483, 47.4918203], [-117.577083, 47.4917922], [-117.577805, 47.4911887], [-117.5797276, 47.4922578], [-117.5802524, 47.4925291], [-117.580176, 47.4925835], [-117.5801246, 47.4926268], [-117.5801184, 47.4926448], [-117.5801175, 47.4927016], [-117.5801299, 47.4927219], [-117.5801511, 47.4927318], [-117.5801812, 47.4927359], [-117.5822558, 47.492739], [-117.5822842, 47.4945781], [-117.5833709, 47.4945757], [-117.5833925, 47.4956112], [-117.58341, 47.496293], [-117.5847701, 47.4962865], [-117.5847761, 47.493744], [-117.5847852, 47.4931427], [-117.5854495, 47.4931324], [-117.5854571, 47.4937414], [-117.5849301, 47.4937434], [-117.5849357, 47.4946414], [-117.5853192, 47.4946696], [-117.5856286, 47.49467], [-117.5864684, 47.4946677], [-117.586689, 47.4946671], [-117.5866881, 47.4947979], [-117.5866773, 47.4963832], [-117.590075, 47.4964339], [-117.5900774, 47.496264], [-117.5904004, 47.4960438], [-117.59128, 47.4954449], [-117.5916838, 47.4951699], [-117.59171, 47.4950408], [-117.5921491, 47.4949241], [-117.5921159, 47.4947762], [-117.5920196, 47.4942401], [-117.5920219, 47.4940746], [-117.5922298, 47.4936601], [-117.5922144, 47.4935225], [-117.5918781, 47.4932472], [-117.5918407, 47.4931135]]]}}