{"type": "Feature", "properties": {"market_key": 977, "university": "University of Colorado Boulder", "osm_type": "relation", "osm_id": 2728647, "osm_name": "University of Colorado Boulder"}, "geometry": {"type": "MultiPolygon", "coordinates": [[[[-105.2309242, 39.9834199], [-105.2317934, 39.9837932], [-105.2322534, 39.9844466], [-105.2325255, 39.9848527], [-105.2325928, 39.9853673], [-105.2334506, 39.9857713], [-105.2346339, 39.985758], [-105.2348417, 39.9857557], [-105.2358106, 39.9857458], [-105.2358433, 39.9855093], [-105.2354518, 39.9845028], [-105.2351616, 39.9840499], [-105.2344979, 39.9834633], [-105.2345967, 39.9833181], [-105.2347226, 39.9831331], [-105.2350532, 39.9829773], [-105.2356862, 39.9828811], [-105.2357178, 39.979452], [-105.2357257, 39.9786786], [-105.2366901, 39.9786647], [-105.2365791, 39.9715548], [-105.233915, 39.9715038], [-105.2317376, 39.9714621], [-105.2317374, 39.9714365], [-105.2317046, 39.9678756], [-105.231704, 39.9678066], [-105.2290803, 39.967826], [-105.2290632, 39.9693874], [-105.2284431, 39.9707868], [-105.2270358, 39.9715062], [-105.2262394, 39.9721292], [-105.2255426, 39.9733458], [-105.2249615, 39.9755676], [-105.2247278, 39.9771464], [-105.2251711, 39.9779489], [-105.2263049, 39.9787083], [-105.2281931, 39.9786732], [-105.2286808, 39.978901], [-105.2289768, 39.9792751], [-105.229028, 39.9823104], [-105.2290469, 39.9833635], [-105.2309242, 39.9834199]]], [[[-105.2758891, 40.0104657], [-105.275967, 40.0104629], [-105.2760636, 40.0104569], [-105.2764174, 40.0104451], [-105.2764568, 40.01044], [-105.2764887, 40.0104327], [-105.276515, 40.0104246], [-105.2765389, 40.0104122], [-105.2765571, 40.010399], [-105.2765687, 40.0103871], [-105.2765825, 40.0103681], [-105.2765945, 40.0103512], [-105.2766002, 40.0103342], [-105.2766045, 40.0103168], [-105.2766046, 40.0102947], [-105.2766004, 40.0102753], [-105.2765944, 40.0102527], [-105.2765849, 40.010238], [-105.2764798, 40.0100584], [-105.2762559, 40.0096883], [-105.2761793, 40.0095757], [-105.2759573, 40.0092465], [-105.2756866, 40.0088463], [-105.2755855, 40.0087059], [-105.2755525, 40.008659], [-105.2755342, 40.0086285], [-105.2754225, 40.008463], [-105.275317, 40.0083118], [-105.2752148, 40.0081614], [-105.2750279, 40.0078928], [-105.2749794, 40.0078273], [-105.2749563, 40.0077913], [-105.2749274, 40.0077545], [-105.2749006, 40.007713], [-105.2748728, 40.0076686], [-105.2747551, 40.0075149], [-105.2745414, 40.0073214], [-105.2743562, 40.0071957], [-105.274158, 40.0070825], [-105.2738829, 40.0069296], [-105.2737098, 40.0068308], [-105.2736004, 40.0067713], [-105.2734103, 40.00666], [-105.2732588, 40.0065768], [-105.2732157, 40.006563], [-105.2731434, 40.0065452], [-105.2724578, 40.0061993], [-105.2724437, 40.0061902], [-105.2724234, 40.0061772], [-105.2724034, 40.0061617], [-105.2723843, 40.0061472], [-105.2723675, 40.0061355], [-105.2720265, 40.0059215], [-105.2717072, 40.0057311], [-105.2716155, 40.0056701], [-105.2710355, 40.0053242], [-105.2702104, 40.0048534], [-105.2691057, 40.0042436], [-105.268555, 40.0039449], [-105.267972, 40.0036627], [-105.2675135, 40.0034591], [-105.2673308, 40.003385], [-105.2672211, 40.0033791], [-105.2665591, 40.0031759], [-105.2664478, 40.0031255], [-105.2658808, 40.0028934], [-105.2656184, 40.0027634], [-105.2654353, 40.0026379], [-105.2652119, 40.0024534], [-105.2650327, 40.0022633], [-105.2648672, 40.0020654], [-105.2645785, 40.0016582], [-105.2643457, 40.0013367], [-105.2640907, 40.0010182], [-105.2638253, 40.0006679], [-105.2636943, 40.0004804], [-105.2636059, 40.0004022], [-105.2634547, 40.0003316], [-105.2633153, 40.000286], [-105.2632176, 40.0002788], [-105.2631237, 40.0002807], [-105.262841, 40.0003111], [-105.2626142, 40.0003431], [-105.2624099, 40.0003477], [-105.2618386, 40.0003889], [-105.2611514, 40.000453], [-105.2605666, 40.0005072], [-105.2604764, 40.00053], [-105.2603765, 40.0005806], [-105.2603237, 40.0006254], [-105.2602936, 40.0006721], [-105.2602806, 40.0007281], [-105.2602731, 40.0009023], [-105.2602449, 40.0009726], [-105.2601572, 40.0010933], [-105.260053, 40.0012114], [-105.2599703, 40.0012968], [-105.2598623, 40.0013733], [-105.2596275, 40.0015046], [-105.2593944, 40.0016459], [-105.2592815, 40.0017342], [-105.2591915, 40.001818], [-105.2591036, 40.0019215], [-105.2590273, 40.0020509], [-105.258967, 40.0021917], [-105.2589192, 40.0023776], [-105.2588942, 40.0025669], [-105.2588473, 40.0030997], [-105.2588329, 40.0035466], [-105.2588233, 40.0045884], [-105.2588236, 40.0061242], [-105.2588213, 40.0063873], [-105.2588546, 40.0067296], [-105.258865, 40.0067921], [-105.2588614, 40.0076561], [-105.2588638, 40.0077934], [-105.2588833, 40.0078674], [-105.2589215, 40.0079323], [-105.2589451, 40.0079597], [-105.2589775, 40.007987], [-105.2590178, 40.0080064], [-105.2591165, 40.0080284], [-105.2598177, 40.0081004], [-105.261019, 40.0081175], [-105.261568, 40.0081287], [-105.2622998, 40.0081252], [-105.2642207, 40.0081351], [-105.2642354, 40.0084235], [-105.2642274, 40.0090103], [-105.2642286, 40.0094485], [-105.2642059, 40.0098946], [-105.264178, 40.0100653], [-105.2640936, 40.0102929], [-105.2640919, 40.0102977], [-105.2639939, 40.0106089], [-105.2639174, 40.010602], [-105.2638135, 40.0107243], [-105.2635618, 40.0110713], [-105.2634837, 40.0112508], [-105.2633668, 40.0115297], [-105.2633422, 40.011679], [-105.2632984, 40.0119052], [-105.263311, 40.0118608], [-105.2650947, 40.0116625], [-105.2650903, 40.0118381], [-105.2650916, 40.0118866], [-105.2651216, 40.0129726], [-105.2662217, 40.0129603], [-105.2671382, 40.0129506], [-105.2671416, 40.0135025], [-105.2677381, 40.0135045], [-105.2680853, 40.0136165], [-105.2689655, 40.0136318], [-105.2689563, 40.0125996], [-105.2689611, 40.0125532], [-105.2690595, 40.0125497], [-105.2701108, 40.0125294], [-105.2701686, 40.0125283], [-105.270314, 40.0125822], [-105.2711966, 40.012582], [-105.2724894, 40.0125816], [-105.2724631, 40.0116972], [-105.2708414, 40.011486], [-105.2708782, 40.0112047], [-105.2703203, 40.0111922], [-105.2703397, 40.0108867], [-105.2725835, 40.0109645], [-105.2727062, 40.0108488], [-105.2728716, 40.0107587], [-105.2730511, 40.0106614], [-105.2732567, 40.01055], [-105.2733742, 40.0105144], [-105.2735041, 40.0104904], [-105.2745555, 40.0104694], [-105.2749018, 40.0104687], [-105.2758891, 40.0104657]]], [[[-105.2531713, 40.0136504], [-105.2536467, 40.0136418], [-105.2536741, 40.0130879], [-105.2536728, 40.0126819], [-105.25367, 40.0124647], [-105.2536261, 40.0122827], [-105.2535188, 40.0120197], [-105.253433, 40.0116911], [-105.2534008, 40.011387], [-105.253433, 40.0106228], [-105.2533807, 40.0083881], [-105.2533402, 40.0081108], [-105.2533065, 40.0079342], [-105.2532837, 40.0077408], [-105.2532676, 40.0076512], [-105.2532508, 40.007622], [-105.253222, 40.007595], [-105.2531765, 40.0075757], [-105.2531102, 40.0075593], [-105.2525902, 40.0075577], [-105.2520531, 40.0075048], [-105.251814, 40.0075021], [-105.2511335, 40.0074833], [-105.2510207, 40.0074921], [-105.2507776, 40.0075192], [-105.2506235, 40.0075362], [-105.2503767, 40.0075502], [-105.2501271, 40.0075497], [-105.2495204, 40.0075852], [-105.2490993, 40.0075863], [-105.248557, 40.0075842], [-105.2482064, 40.0075868], [-105.2478166, 40.0075615], [-105.2472868, 40.0075266], [-105.2469318, 40.0074855], [-105.2466365, 40.0074596], [-105.2463159, 40.0074506], [-105.2459025, 40.0074538], [-105.2455334, 40.0074527], [-105.245165, 40.0074522], [-105.2445232, 40.0074972], [-105.2441962, 40.0075179], [-105.243604, 40.0075839], [-105.2428808, 40.0076811], [-105.2425251, 40.0077301], [-105.2421584, 40.0077963], [-105.2417075, 40.0078776], [-105.2415465, 40.0079062], [-105.2412897, 40.0079882], [-105.2409039, 40.0081173], [-105.240716, 40.008191], [-105.2405209, 40.0082698], [-105.2403616, 40.0083361], [-105.2402915, 40.0083795], [-105.2402262, 40.0084278], [-105.2401409, 40.0085246], [-105.2400943, 40.0086262], [-105.2400765, 40.0087269], [-105.2400811, 40.0088068], [-105.2401, 40.0088718], [-105.2403372, 40.0093956], [-105.2404456, 40.0097191], [-105.2405221, 40.0100498], [-105.2406029, 40.0104778], [-105.2406226, 40.0108873], [-105.2406174, 40.0114031], [-105.2405953, 40.0119227], [-105.2405833, 40.0122554], [-105.2405725, 40.0125675], [-105.2405938, 40.0128574], [-105.2406393, 40.0131542], [-105.2406722, 40.0134154], [-105.2407018, 40.0136671], [-105.2407581, 40.0138782], [-105.2408183, 40.0140882], [-105.2408769, 40.0142034], [-105.2409596, 40.0143049], [-105.2410604, 40.0143682], [-105.2412178, 40.0144115], [-105.2413853, 40.0144211], [-105.2417449, 40.0144203], [-105.2422243, 40.0144271], [-105.2426557, 40.0144471], [-105.2437472, 40.0144523], [-105.2444609, 40.0144523], [-105.2454173, 40.0144523], [-105.2467171, 40.0144737], [-105.2467088, 40.0143944], [-105.2467006, 40.013953], [-105.2469656, 40.0137073], [-105.2484101, 40.0136688], [-105.2499288, 40.0136678], [-105.251133, 40.0136647], [-105.2519277, 40.0136465], [-105.2525869, 40.013652], [-105.2531713, 40.0136504]]], [[[-105.2481537, 40.0182888], [-105.2481623, 40.0173019], [-105.2478784, 40.0172942], [-105.2477126, 40.0172655], [-105.2475339, 40.0172147], [-105.2473335, 40.0171209], [-105.2469602, 40.0168438], [-105.2468088, 40.0167676], [-105.2466921, 40.0168593], [-105.246535, 40.0169741], [-105.2463606, 40.0170668], [-105.2462092, 40.0171264], [-105.2460334, 40.0171871], [-105.2465663, 40.0182941], [-105.2481537, 40.0182888]]], [[[-105.2473362, 39.9988901], [-105.2473316, 39.9983069], [-105.2459605, 39.9982937], [-105.2459399, 39.9965528], [-105.2458712, 39.9964006], [-105.2458576, 39.9952234], [-105.2458082, 39.9950294], [-105.2456806, 39.9948118], [-105.2455159, 39.9946857], [-105.2452154, 39.9945563], [-105.2444579, 39.9945437], [-105.2444482, 39.9936378], [-105.2454067, 39.9941848], [-105.245947, 39.9941897], [-105.2459342, 39.9934801], [-105.2457219, 39.9933568], [-105.2457405, 39.9933356], [-105.2459599, 39.9930858], [-105.2498981, 39.9954582], [-105.253136, 39.9973279], [-105.2529966, 39.997441], [-105.2531173, 39.9977617], [-105.2531336, 39.9985315], [-105.2531377, 39.9998585], [-105.2529448, 39.9998659], [-105.2473435, 39.9998823], [-105.2473362, 39.9988901]]], [[[-105.2640744, 40.0026756], [-105.2640454, 40.0026808], [-105.2640055, 40.0026767], [-105.2638941, 40.0026416], [-105.2638558, 40.0026276], [-105.2638233, 40.0026075], [-105.2637916, 40.0025815], [-105.2637657, 40.0025506], [-105.2637517, 40.0025264], [-105.2637412, 40.0024978], [-105.2637355, 40.0024643], [-105.2637342, 40.0024302], [-105.2637411, 40.0023966], [-105.2637572, 40.0023658], [-105.2638043, 40.0022978], [-105.2638357, 40.0022651], [-105.2638713, 40.0022341], [-105.2639302, 40.0021954], [-105.2639743, 40.0021721], [-105.2640227, 40.0021526], [-105.2641005, 40.0021284], [-105.2641839, 40.002111], [-105.2642288, 40.0021106], [-105.264275, 40.0021141], [-105.2643443, 40.0021225], [-105.264405, 40.0021402], [-105.2644361, 40.0021642], [-105.2644642, 40.0021991], [-105.2644815, 40.0022276], [-105.2644908, 40.0022593], [-105.2644922, 40.0022905], [-105.2644823, 40.0023183], [-105.2644553, 40.002348], [-105.2644395, 40.0023618], [-105.264422, 40.0023734], [-105.2644053, 40.0023798], [-105.2643854, 40.0023852], [-105.2643125, 40.0023985], [-105.264265, 40.0024086], [-105.2642214, 40.0024224], [-105.2641983, 40.0024312], [-105.2641793, 40.0024437], [-105.2641533, 40.0024718], [-105.2641446, 40.0024843], [-105.2641375, 40.0025005], [-105.2641265, 40.0025342], [-105.2641216, 40.0025742], [-105.2641135, 40.0026142], [-105.2640953, 40.0026502], [-105.2640744, 40.0026756]]], [[[-105.2687344, 40.0124887], [-105.268606, 40.0124892], [-105.2686031, 40.0120508], [-105.2687315, 40.0120502], [-105.2687344, 40.0124887]]]]}}