{"type": "Feature", "properties": {"market_key": 982, "university": "Western Washington University", "osm_type": "way", "osm_id": 95345602, "osm_name": "Western Washington University"}, "geometry": {"type": "Polygon", "coordinates": [[[-122.490882, 48.733588], [-122.490476, 48.73341], [-122.490352, 48.733287], [-122.490354, 48.733066], [-122.490528, 48.732391], [-122.490634, 48.732037], [-122.490726, 48.731754], [-122.490737, 48.731682], [-122.490737, 48.73161], [-122.490728, 48.731538], [-122.49071, 48.731467], [-122.490683, 48.731397], [-122.490636, 48.731332], [-122.490575, 48.731272], [-122.490499, 48.73122], [-122.490413, 48.731175], [-122.490317, 48.73114], [-122.490216, 48.731115], [-122.4901102, 48.7310985], [-122.4901397, 48.7310418], [-122.490306, 48.7307338], [-122.491085, 48.729326], [-122.4917154, 48.7278612], [-122.4917467, 48.727706], [-122.4917463, 48.7274833], [-122.4903473, 48.7271237], [-122.4900598, 48.7266571], [-122.4897149, 48.7264912], [-122.4892214, 48.7264122], [-122.48763, 48.726411], [-122.4874219, 48.7264107], [-122.486178, 48.726414], [-122.485327, 48.726416], [-122.484966, 48.726449], [-122.484584, 48.726532], [-122.484205, 48.726684], [-122.483977, 48.726823], [-122.4833282, 48.7275811], [-122.4854486, 48.7275846], [-122.4853421, 48.7309953], [-122.4851887, 48.7310308], [-122.485286, 48.7311121], [-122.4847824, 48.7314273], [-122.4845922, 48.7316804], [-122.4845222, 48.7319244], [-122.4844318, 48.7348417], [-122.4845824, 48.7356681], [-122.4845366, 48.7357677], [-122.4843457, 48.7357724], [-122.4839734, 48.736896], [-122.4839256, 48.7371394], [-122.4839197, 48.7372111], [-122.483909, 48.7372616], [-122.4838932, 48.7373423], [-122.4838903, 48.7374042], [-122.4838839, 48.7375734], [-122.4838201, 48.737699], [-122.4834446, 48.7380635], [-122.4833598, 48.7382691], [-122.4833508, 48.7383448], [-122.4834057, 48.7385801], [-122.4833502, 48.7387447], [-122.4829506, 48.7391071], [-122.4830305, 48.7392073], [-122.4828448, 48.7393083], [-122.4825859, 48.7395938], [-122.4826891, 48.7397611], [-122.4824139, 48.7399218], [-122.4820752, 48.7399317], [-122.481463, 48.7401123], [-122.4810561, 48.7402941], [-122.4808271, 48.7404426], [-122.4804349, 48.7406264], [-122.4815692, 48.7413577], [-122.4825216, 48.7407138], [-122.4829904, 48.7410076], [-122.4835908, 48.7405985], [-122.4841052, 48.7409082], [-122.4870121, 48.738945], [-122.487027, 48.738786], [-122.487176, 48.73861], [-122.4872352, 48.7385755], [-122.487364, 48.738495], [-122.487613, 48.738354], [-122.488149, 48.738093], [-122.488355, 48.737979], [-122.488492, 48.737865], [-122.488549, 48.737753], [-122.488573, 48.737655], [-122.488583, 48.737543], [-122.488545, 48.737424], [-122.488403, 48.737194], [-122.4883096, 48.7370047], [-122.4882684, 48.7369164], [-122.4882564, 48.7368776], [-122.4882582, 48.7368174], [-122.4883, 48.736715], [-122.489021, 48.735887], [-122.490066, 48.734694], [-122.490882, 48.733588]]]}}