{"type": "Feature", "properties": {"market_key": 984, "university": "University of San Francisco", "osm_type": "relation", "osm_id": 5996294, "osm_name": "University of San Francisco"}, "geometry": {"type": "MultiPolygon", "coordinates": [[[[-122.4535239, 37.7777153], [-122.4533355, 37.7767548], [-122.4469956, 37.7775514], [-122.4468122, 37.7766374], [-122.4495002, 37.7762928], [-122.4494107, 37.7758408], [-122.4494758, 37.7758332], [-122.4494142, 37.7755311], [-122.4504785, 37.7753971], [-122.450496, 37.7753949], [-122.4505654, 37.7753861], [-122.4513461, 37.7752878], [-122.4514142, 37.7752793], [-122.451507, 37.7752676], [-122.4513824, 37.7746664], [-122.4527854, 37.7744841], [-122.452814, 37.7746187], [-122.4528742, 37.7749025], [-122.4526864, 37.7751193], [-122.4528901, 37.7761388], [-122.4535789, 37.7760545], [-122.4540392, 37.7759783], [-122.4542996, 37.7759168], [-122.4547918, 37.7758546], [-122.4551258, 37.7775115], [-122.4535239, 37.7777153]]], [[[-122.4533262, 37.7779596], [-122.4533808, 37.7780426], [-122.45343, 37.7781309], [-122.4534592, 37.7782116], [-122.4537903, 37.7798506], [-122.4537972, 37.7799132], [-122.4537951, 37.7799882], [-122.4537833, 37.7800696], [-122.4537685, 37.7801254], [-122.4537459, 37.7801697], [-122.4494738, 37.7807041], [-122.449171, 37.7792044], [-122.4489721, 37.7792289], [-122.4487281, 37.7792538], [-122.4484661, 37.7792859], [-122.448342, 37.7793011], [-122.4473859, 37.7794243], [-122.4472466, 37.778735], [-122.4533262, 37.7779596]]]]}}