{"type": "Feature", "properties": {"market_key": 992, "university": "New Mexico State University", "osm_type": "relation", "osm_id": 13399173, "osm_name": "New Mexico State University"}, "geometry": {"type": "MultiPolygon", "coordinates": [[[[-106.7646217, 32.2791258], [-106.7644458, 32.2791669], [-106.7639032, 32.2788903], [-106.7609946, 32.277405], [-106.7575024, 32.2756098], [-106.7563989, 32.274935], [-106.7481761, 32.2707498], [-106.748091, 32.2708714], [-106.7459293, 32.2697707], [-106.738464, 32.2659709], [-106.7373199, 32.265388], [-106.7366829, 32.2650355], [-106.7358668, 32.264539], [-106.7350477, 32.2639581], [-106.7332335, 32.2624413], [-106.7328459, 32.2624488], [-106.7325377, 32.2625183], [-106.732297, 32.26263], [-106.7320416, 32.2627963], [-106.731839, 32.2630049], [-106.7315454, 32.263345], [-106.7324508, 32.264536], [-106.7319413, 32.2647919], [-106.7331642, 32.2685242], [-106.7382949, 32.2844113], [-106.7385907, 32.2851329], [-106.7388095, 32.2855049], [-106.7390355, 32.2857854], [-106.7393745, 32.2860374], [-106.739639, 32.2861736], [-106.7399516, 32.2862671], [-106.7402425, 32.2863159], [-106.740507, 32.2863179], [-106.7408436, 32.2862834], [-106.7412596, 32.2862224], [-106.7422393, 32.2860218], [-106.7424512, 32.2859877], [-106.7431422, 32.2859289], [-106.7435038, 32.2859157], [-106.7437516, 32.2859066], [-106.7439416, 32.2859076], [-106.7440797, 32.2859199], [-106.744437, 32.2859756], [-106.7446151, 32.2859927], [-106.7449267, 32.2860043], [-106.7452867, 32.2859968], [-106.7456477, 32.2859739], [-106.745984, 32.2859449], [-106.7465607, 32.2858551], [-106.7472464, 32.2857214], [-106.7475806, 32.285669], [-106.7483965, 32.2855172], [-106.7488005, 32.2854182], [-106.7500093, 32.2851206], [-106.7506648, 32.2850053], [-106.7513984, 32.2848647], [-106.7528125, 32.2845958], [-106.7539445, 32.284381], [-106.7554907, 32.2840851], [-106.7555099, 32.2841075], [-106.7561857, 32.2839674], [-106.7562054, 32.2839425], [-106.756528, 32.2838781], [-106.756518, 32.283841], [-106.7572559, 32.2837018], [-106.7576227, 32.2836606], [-106.7584832, 32.2834989], [-106.7614745, 32.2829112], [-106.7614783, 32.2828768], [-106.7613487, 32.2823805], [-106.7612237, 32.2818581], [-106.7609838, 32.2810351], [-106.7621344, 32.2808179], [-106.7621665, 32.2809569], [-106.7623783, 32.2809266], [-106.7623409, 32.280777], [-106.7627031, 32.2807088], [-106.7628176, 32.2811809], [-106.7638104, 32.2810154], [-106.7639503, 32.2809921], [-106.7639258, 32.2812245], [-106.7653154, 32.2809488], [-106.7656449, 32.2821303], [-106.7668384, 32.2818974], [-106.7671349, 32.2818381], [-106.7672306, 32.2818], [-106.7672777, 32.281729], [-106.7672903, 32.2816296], [-106.7672464, 32.2815369], [-106.7656946, 32.2800238], [-106.765464, 32.2797834], [-106.7650723, 32.2794501], [-106.7646217, 32.2791258]]]]}}