{"type": "Feature", "properties": {"market_key": 994, "university": "University of California Merced", "osm_type": "way", "osm_id": 170555864, "osm_name": "University of California, Merced"}, "geometry": {"type": "Polygon", "coordinates": [[[-120.4184602, 37.3612035], [-120.4192644, 37.3612085], [-120.4198826, 37.3612061], [-120.4203553, 37.3612035], [-120.4206315, 37.3611542], [-120.4207702, 37.3609965], [-120.4210103, 37.3609963], [-120.4210899, 37.3609963], [-120.4210895, 37.3609295], [-120.4211919, 37.3590554], [-120.4237322, 37.3590581], [-120.4251019, 37.3590596], [-120.4319808, 37.3590649], [-120.4319787, 37.3591294], [-120.43216, 37.3591459], [-120.4321275, 37.3631921], [-120.4321275, 37.3634121], [-120.4321088, 37.3639955], [-120.4320344, 37.3641645], [-120.431633, 37.3641609], [-120.431385, 37.3641946], [-120.4289185, 37.3648167], [-120.4285225, 37.3650571], [-120.4278199, 37.3658588], [-120.4271733, 37.3663146], [-120.4271333, 37.3665072], [-120.4268663, 37.36663], [-120.4265308, 37.3667261], [-120.4263779, 37.3667446], [-120.4258501, 37.3667854], [-120.4237514, 37.3682333], [-120.4236587, 37.3682031], [-120.4235621, 37.3682018], [-120.4235123, 37.368193], [-120.423473, 37.3681769], [-120.4227536, 37.3679851], [-120.4222825, 37.3678516], [-120.4219041, 37.3677426], [-120.4214941, 37.3676287], [-120.4210865, 37.3675083], [-120.4206668, 37.3674526], [-120.4206458, 37.3674706], [-120.4206263, 37.3674872], [-120.4202871, 37.3675127], [-120.420156, 37.3675481], [-120.4200241, 37.3676436], [-120.4198982, 37.3677737], [-120.4192336, 37.3680991], [-120.4190841, 37.3681967], [-120.4189938, 37.368283], [-120.418808, 37.3685367], [-120.4185983, 37.3689709], [-120.4183996, 37.3693822], [-120.4182703, 37.3695538], [-120.4180781, 37.3696681], [-120.4138093, 37.3710159], [-120.4135851, 37.3711094], [-120.413367, 37.3712675], [-120.4129987, 37.3709464], [-120.4152561, 37.3693064], [-120.4142795, 37.3684482], [-120.4150988, 37.367638], [-120.4151014, 37.3676358], [-120.4159659, 37.3667972], [-120.416641, 37.3661403], [-120.4166396, 37.3652227], [-120.4166444, 37.3651413], [-120.4166366, 37.3650956], [-120.416641, 37.3648996], [-120.4166528, 37.3612773], [-120.4166527, 37.3612528], [-120.4166527, 37.3612387], [-120.4166528, 37.361221], [-120.4169626, 37.3612136], [-120.4178887, 37.3612083], [-120.4182601, 37.3612108], [-120.4184602, 37.3612035]]]}}